bioguide,thomas,govtrack,id,address,building,city,fax,hours,phone,state,suite,zip,latitude,longitude
A000055,01460,400004,A000055-cullman,205 4th Ave. NE,,Cullman,256-737-0885,,256-734-6043,AL,Suite 104,35055,34.181059,-86.840631
A000055,01460,400004,A000055-gadsden,600 Broad St.,,Gadsden,256-546-8778,,256-546-0201,AL,Suite 107,35901,34.01421000000001,-86.006846
A000055,01460,400004,A000055-jasper,1710 Alabama Ave.,Carl Elliott Building,Jasper,205-221-9035,,205-221-2310,AL,247,35501,33.83438,-87.274935
A000055,01460,400004,A000055-tuscumbia,1011 George Wallace Blvd.,,Tuscumbia,256-381-7659,,256-381-3450,AL,Suite 146,35674,34.7412348,-87.6794142
A000360,01695,300002,A000360-blountville,2525 Highway 75,Tri-Cities Regional Airport,Blountville,423-325-6236,,423-325-6240,TN,Suite 101,37617,36.473223,-82.4092344
A000360,01695,300002,A000360-chattanooga,900 Georgia Ave.,Joel E. Soloman Federal Building,Chattanooga,423-752-5342,,423-752-5337,TN,#260,37402,35.0450875,-85.3082146
A000360,01695,300002,A000360-jackson,111 Murray Guard Dr.,,Jackson,731-664-3129,,731-664-0289,TN,Suite D,38305,35.693264,-88.852707
A000360,01695,300002,A000360-knoxville,800 Market St.,"Howard H. Baker, Jr., U.S. Courthouse",Knoxville,865-545-4252,,865-545-4253,TN,#112,37902,35.96172,-83.91775799999999
A000360,01695,300002,A000360-memphis,167 N. Main St.,Clifford Davis-Odell Horton Federal Building,Memphis,901-544-4227,,901-544-4224,TN,#1068,38103,35.1497482,-90.0517538
A000360,01695,300002,A000360-nashville,3322 W. End Ave.,,Nashville,615-269-4803,,615-736-5129,TN,#120,37203,36.1400262,-86.8199101
A000367,02029,412438,A000367-battle_creek,70 W. Michigan Ave.,,Battle Creek,,By appointment only,269-205-3823,MI,Suite 212,49017,42.3213842,-85.1838246
A000367,02029,412438,A000367-grand_rapids,110 Michigan St. NW,,Grand Rapids,616-454-5630,Monday-Friday 9:00AM-5:00PM,616-451-8383,MI,Suite 460,49503,42.96997460000001,-85.67097419999999
A000369,02090,412500,A000369-elko,905 Railroad St.,,Elko,775-753-9984,,775-777-7705,NV,Suite 104 D,89801,40.8355439,-115.7586349
A000369,02090,412500,A000369-reno,5310 Kietzke Ln.,,Reno,775-686-5711,,775-686-5760,NV,Suite 103,89511,39.4715058,-119.791273
A000370,02201,412607,A000370-charlotte,801 E. Morehead St.,,Charlotte,704-344-9971,M-F 9-6pm,704-344-9950,NC,Suite 150,28202,35.215055,-80.8452162
A000371,02229,412615,A000371-san_bernardino,685 E. Carnegie Dr.,,San Bernardino,909-890-9643,,909-890-4445,CA,Suite 100,92408,34.068627,-117.270925
A000372,02239,412625,A000372-augusta,2743 Perimeter Pkwy,Bldg. 200,Augusta,706-228-1954,,706-228-1980,GA,Suite 225,30909,33.4875735,-82.08466659999999
A000372,02239,412625,A000372-dublin,100 S. Church St.,,Dublin,478-277-0113,,478-272-4030,GA,,31021,32.5383565,-82.9084154
A000372,02239,412625,A000372-statesboro,50 E. Main St.,,Statesboro,912-243-9453,,912-243-9452,GA,,30458,32.4484951,-81.781533
A000372,02239,412625,A000372-vidalia,107 Old Airport Rd.,,Vidalia,,,912-403-3311,GA,Suite A,30475,32.2046881,-82.37632649999999
A000374,02244,412630,A000374-alexandria,2003 MacArthur Dr.,,Alexandria,318-445-3776,,318-445-0818,LA,Bldg. 5,71301,31.27656,-92.46964
A000374,02244,412630,A000374-monroe,426 DeSiard St.,,Monroe,318-322-3577,,318-322-3500,LA,,71201,32.5036093,-92.1144236
A000374,02244,412630,A000374-saint_francisville,5934 Commerce St,,Saint Francisville,225-245-1971,,985-516-5858,LA,,70775-4416,30.78532,-91.38074
A000375,,412726,A000375-abilene,500 Chestnut St.,,Abilene,325-675-5038,,325-675-9779,TX,Suite 819,79602,32.4443053,-99.73461449999999
A000375,,412726,A000375-lubbock,1312 Texas Ave.,,Lubbock,806-767-9168,,806-763-1611,TX,Suite 219,79401,33.5830588,-101.8456125
A000377,,412794,A000377-bismarck,220 E Rosser Ave,U.S. Federal Building,Bismarck,,,701-354-6700,ND,Suite 228,58501-3869,46.80868,-100.78881
A000377,,412794,A000377-fargo,3217 Fiechtner Dr S,,Fargo,,,701-353-6665,ND,D,58103-8735,46.86533,-96.83182
A000378,,412772,A000378-council_bluffs,501 5th Ave,,Council Bluffs,,,712-890-3117,IA,,51503-0902,41.25685,-95.85104
A000378,,412772,A000378-creston,208 W Taylor St,,Creston,,,202-225-5476,IA,,50801-3766,41.04909,-94.36326
A000378,,412772,A000378-des_moines,400 E Court Ave,,Des Moines,,,202-225-5476,IA,Suite 346,50309-2017,41.58781,-93.6113
B000490,00091,400030,B000490-albany,323 Pine Ave,,Albany,229-436-2099,M-F 9-5:30pm,229-439-8067,GA,400,31701-2596,31.57858,-84.1542
B000490,00091,400030,B000490-columbus,18 Ninth St.,,Columbus,706-320-9479,Mon-Fri 9-5:30pm,706-320-9477,GA,Suite 201,31901,32.4625755,-84.9922596
B000490,00091,400030,B000490-macon,300 Mulberry Street,,Macon,478-803-2637,Mon-Fri 9am-5:30pm,478-803-2631,GA,Suite 502,31201,32.8356646,-83.6267623
B000574,00099,400033,B000574-portland,911 N.E. 11th Ave.,,Portland,503-230-5413,,503-231-2300,OR,Suite 200,97232,45.5293348,-122.6555902
B000575,01464,400034,B000575-cape_girardeau,338 Broadway,,Cape Girardeau,,,573-334-7044,MO,Suite 303,63701,37.3064303,-89.5241403
B000575,01464,400034,B000575-columbia,1123 Wilkes Blvd,,Columbia,,,573-442-8151,MO,Suite 320,65201,38.9606243,-92.3229127
B000575,01464,400034,B000575-kansas_city,1000 Walnut St.,,Kansas City,,,816-471-7141,MO,Suite 1560,64106,39.1021449,-94.5825038
B000575,01464,400034,B000575-saint_louis,111 S 10th St,Thomas F. Eagleton U.S. Courthouse,Saint Louis,,,314-725-4484,MO,23.305,63102-1125,38.62588,-90.196
B000575,01464,400034,B000575-springfield,2740 B E. Sunshine,,Springfield,,,417-877-7814,MO,,65804,37.180415,-93.240439
B000755,01468,400046,B000755-conroe,200 River Pt.,,Conroe,936-441-5757,,936-441-5700,TX,Suite 304,77304,30.2844625,-95.4613914
B000755,01468,400046,B000755-huntsville,1300 11th St.,,Huntsville,936-439-9546,,936-439-9532,TX,Suite 400,77340,30.7240052,-95.5535049
B000944,00136,400050,B000944-cincinnati,425 Walnut St.,,Cincinnati,513-684-1029,,513-684-1021,OH,Suite 2310,45202,39.1007745,-84.5120256
B000944,00136,400050,B000944-cleveland,801 W. Superior Ave.,,Cleveland,216-522-2239,,216-522-7272,OH,Suite 1400,44113,41.4964399,-81.6975439
B000944,00136,400050,B000944-columbus,200 N. High St.,,Columbus,614-469-2171,,614-469-2083,OH,Room 614,43215,39.9666883,-83.000974
B000944,00136,400050,B000944-lorain,200 W. Erie Ave.,,Lorain,440-242-4108,,440-242-4100,OH,Suite 312,44052,41.4685695,-82.1792684
B001135,00153,400054,B001135-asheville,151 Patton Ave.,Federal Building,Asheville,828-350-2439,By appointment only,828-350-2437,NC,Suite 204,28801,35.594066,-82.55792
B001135,00153,400054,B001135-rocky_mount,100 Coast Line St.,,Rocky Mount,252-977-7902,By appointment only.,252-977-9522,NC,Room 210,27804,35.9379802,-77.7977748
B001135,00153,400054,B001135-wilmington,201 N. Front St.,,Wilmington,910-251-7975,,888-848-1833,NC,Suite 809,28401,34.2376985,-77.9492582
B001135,00153,400054,B001135-winston_salem,2000 W. First St.,,Winston-Salem,336-725-4493,,336-631-5125,NC,Suite 508,27104,36.0960116,-80.27480249999999
B001230,01558,400013,B001230-ashland,PO Box 61,,Ashland,,,715-450-3754,WI,,54806-0061,46.54692,-90.80933
B001230,01558,400013,B001230-eau_claire,500 South Barstow St.,,Eau Claire,,,715-832-8424,WI,Suite LL2,54701,44.8088044,-91.5330934
B001230,01558,400013,B001230-green_bay,1039 W. Mason,,Green Bay,,,920-498-2668,WI,Suite 119,54303,44.5151063,-88.0413549
B001230,01558,400013,B001230-la_crosse,205 5th Avenue South,,La Crosse,,,608-796-0045,WI,Room 216,54601,43.8109182,-91.24976400000001
B001230,01558,400013,B001230-madison,30 W. Mifflin St.,,Madison,,,608-264-5338,WI,Suite 700,53703,43.07506559999999,-89.38647139999999
B001230,01558,400013,B001230-milwaukee,633 W. Wisconsin Ave.,,Milwaukee,,,414-297-4451,WI,Suite 1920,53203,43.0388214,-87.9200848
B001230,01558,400013,B001230-wausau,2100 Stewart Ave.,,Wausau,,,715-261-2611,WI,Suite 250 B,54401,44.9591474,-89.6628755
B001236,01687,400040,B001236-el_dorado,106 W. Main St.,,El Dorado,870-863-4105,,870-863-4641,AR,Suite 104,71730,33.2120448,-92.664046
B001236,01687,400040,B001236-fort_smith,1120 Garrison Ave.,,Fort Smith,479-573-0553,,479-573-0189,AR,Suite 2B,72901,35.383512,-94.42033099999999
B001236,01687,400040,B001236-jonesboro,300 S. Church St.,,Jonesboro,870-268-6887,,870-268-6925,AR,Suite 400,72401,35.8404281,-90.70368549999999
B001236,01687,400040,B001236-little_rock,1401 W. Capitol Ave.,,Little Rock,501-372-7163,,501-372-7153,AR,Suite 155,72201,34.7456872,-92.2865752
B001236,01687,400040,B001236-lowell,213 W. Monroe,,Lowell,479-725-0408,,479-725-0400,AR,Suite N,72745,36.2535183,-94.1393049
B001236,01687,400040,B001236-mountain_home,1001 Hwy 62 East,,Mountain Home,870-424-0141,,870-424-0129,AR,Suite 11,72653,36.3499306,-92.3729619
B001236,01687,400040,B001236-stuttgart,620 E. 22nd St.,,Stuttgart,870-672-6962,,870-672-6941,AR,Suite 204,72160,34.478784,-91.54664090000001
B001243,01748,400032,B001243-chattanooga,10 West M. L. King Blvd,,Chattanooga,423-541-2944,,423-541-2939,TN,6th Floor,37402,35.0455268,-85.3100155
B001243,01748,400032,B001243-jackson,91 Stonebridge Blvd,,Jackson,731-660-3978,,731-660-3971,TN,Suite 103,38305-2042,35.68031,-88.85355
B001243,01748,400032,B001243-jonesborough,1105 E Jackson Blvd,,Jonesborough,423-788-0250,,423-753-4009,TN,Suite 4,37659-4997,36.30306,-82.51024
B001243,01748,400032,B001243-knoxville,800 Market St,,Knoxville,865-540-7952,,865-540-3781,TN,Suite 121,37902-2327,35.96225,-83.91771
B001243,01748,400032,B001243-memphis,100 Peabody Pl,,Memphis,901-527-9515,,901-527-9199,TN,Suite 1125,38103-3654,35.14132,-90.05396
B001243,01748,400032,B001243-nashville,150 4th Ave N,,Nashville,,,800-657-6910,TN,Ste. G-250,37219-2415,36.16286,-86.77797
B001248,01751,400052,B001248-lake_dallas,2000 S. Stemmons Fwy.,,Lake Dallas,940-497-5067,,940-497-5031,TX,Suite 200,75065,33.1213325,-97.0327015
B001250,01753,400029,B001250-brigham_city,6 N. Main St.,,Brigham City,,Staffed only part time,801-625-0107,UT,,84302,41.5106602,-112.0154202
B001250,01753,400029,B001250-ogden,324 25th St.,Federal Building,Ogden,801-625-0124,,801-625-0107,UT,1017,84401,41.2206774,-111.9726125
B001250,01753,400029,B001250-vernal,152 E. 100 N.,,Vernal,,Staffed only part time,435-781-5302,UT,,84078,40.4563399,-109.5289541
B001251,01761,400616,B001251-durham,2741 Campus Walk Ave.,Bldg. 400,Durham,919-908-0169,,919-908-0164,NC,Suite 300,27705,36.0098844,-78.9533296
B001251,01761,400616,B001251-wilson,216 NE Nash St.,,Wilson,252-291-0356,,252-237-9816,NC,Suite B,27893,35.728383,-77.9131079
B001257,01838,412250,B001257-new_port_richey,7132 Little Rd.,,New Port Richey,727-232-2923,,727-232-2921,FL,,34654,28.261156,-82.674347
B001257,01838,412250,B001257-tarpon_springs,38500 U.S. Hwy 19 North,St. Petersburg College,Tarpon Springs,727-940-5861,,727-940-5860,FL,BB-038,34689,28.121418,-82.74161199999999
B001260,01840,412196,B001260-bradenton,1051 Manatee Ave West,,Bradenton,941-748-1564,,941-747-9081,FL,Suite 305,34205,27.4945988,-82.5724073
B001260,01840,412196,B001260-sarasota,111 S. Orange Ave.,,Sarasota,941-951-2972,,941-951-6643,FL,"Floor 2R, Suite 202W",34236,27.3353999,-82.5382987
B001261,01881,412251,B001261-casper,100 E. B St.,,Casper,,,307-261-6413,WY,Suite 2004,82601,42.8524124,-106.3248373
B001261,01881,412251,B001261-cheyenne,2120 Capitol Ave.,,Cheyenne,,,307-772-2451,WY,Suite 2013,82001,41.1374591,-104.8189674
B001261,01881,412251,B001261-riverton,324 E. Washington Ave.,,Riverton,,,307-856-6642,WY,,82501,43.0238609,-108.386731
B001261,01881,412251,B001261-rock_springs,1575 Dewar Drive,Commerce Bank,Rock Springs,,,307-362-5012,WY,Suite 218,82901,41.5742346,-109.2423116
B001261,01881,412251,B001261-sheridan,2 N. Main St.,,Sheridan,,,307-672-6456,WY,Suite 206,82801,44.7974506,-106.9562525
B001267,01965,412330,B001267-alamosa,609 Main St.,,Alamosa,,,719-587-0096,CO,Suite 110,81101,37.4685012,-105.8659434
B001267,01965,412330,B001267-colorado_springs,409 N. Tejon St.,,Colorado Springs,719-328-1129,,719-328-1100,CO,Suite 107,80903,38.8400247,-104.8228748
B001267,01965,412330,B001267-denver,1244 Speer Blvd.,Cesar E. Chavez Memorial Building,Denver,303-455-8851,,303-455-7600,CO,,80204,39.7364704,-104.994978
B001267,01965,412330,B001267-durango,835 E. 2nd Ave.,,Durango,,,970-259-1710,CO,Suite 206,81301,37.2725939,-107.8799634
B001267,01965,412330,B001267-fort_collins,1200 S. College Ave.,,Fort Collins,970-224-2205,,970-224-2200,CO,Suite 211,80524,40.5716714,-105.0766516
B001267,01965,412330,B001267-grand_junction,225 N. 5th St.,,Grand Junction,,,970-241-6631,CO,Suite 511,81501,39.0688046,-108.5648398
B001267,01965,412330,B001267-pueblo,129 W. B St.,,Pueblo,,,719-542-7550,CO,,81003,38.2795281,-104.508253
B001270,01996,412404,B001270-los_angeles,4929 Wilshire Blvd.,,Los Angeles,323-965-1113,,323-965-1422,CA,Suite 650,90010,34.06264360000001,-118.3381029
B001274,01987,412395,B001274-decatur,302 Lee St.,,Decatur,256-355-9406,,256-355-9400,AL,Room 86,35601,34.6069984,-86.9849204
B001274,01987,412395,B001274-florence,102 S. Court St.,,Florence,256-718-5156,,256-718-5155,AL,Suite 310,35630,34.8002305,-87.6771285
B001274,01987,412395,B001274-huntsville,2101 W. Clinton Ave.,,Huntsville,256-551-0194,,256-551-0190,AL,Suite 302,35805,34.7252133,-86.5977423
B001275,02018,412427,B001275-evansville,420 Main St.,,Evansville,812-422-4761,Monday-Friday 8:30am-5:00pm CT,812-465-6484,IN,Suite 1402,47708,37.9722214,-87.5705016
B001275,02018,412427,B001275-jasper,610 Main St.,,Jasper,,1st and 3rd Tuesday of the month 10:00am - 1:00pm ET,,IN,First Floor Small Conference Room,47547,38.3919787,-86.9304537
B001275,02018,412427,B001275-terre_haute,901 Wabash Ave.,,Terre Haute,812-232-0526,8:30am - 5:00pm ET,812-232-0523,IN,Suite 140,47807,39.466224,-87.4042291
B001275,02018,412427,B001275-vincennes,1500 N. Chestnut St.,,Vincennes,,1st and 3rd Wednesday of the month 9:00am - 12:00pm ET,,IN,,47591,38.6911192,-87.52073879999999
B001277,02076,412490,B001277-bridgeport,915 Lafayette Blvd.,,Bridgeport,203-330-0608,,203-330-0598,CT,Suite 304,06604,41.1749972,-73.1931954
B001277,02076,412490,B001277-hartford,90 State House Sq.,,Hartford,860-258-6958,,860-258-6940,CT,10th Floor,06103,41.7665316,-72.6719747
B001278,02092,412501,B001278-beaverton,12725 SW Millikan Way,,Beaverton,503-469-6018,Monday-Friday 9:00AM-5:00PM,503-469-6010,OR,Suite 220,97005,45.4900502,-122.8078224
B001281,02153,412565,B001281-columbus,471 E. Broad St.,,Columbus,614-220-5640,Monday-Friday 9:00am-5:00pm,614-220-0003,OH,Suite 1100,43215,39.9633834,-82.9878075
B001282,02131,412541,B001282-lexington,2709 Old Rosebud Rd.,,Lexington,,M-F 9:00-5:00pm,859-219-1366,KY,,40509,38.0283634,-84.4193762
B001284,02129,412539,B001284-anderson,120 E. 8th St.,,Anderson,765-640-5116,Mon-Fri 8:30am-5pm,765-640-5115,IN,Suite 101,46016,40.1083423,-85.67763939999999
B001284,02129,412539,B001284-carmel,11611 N. Meridian Street,,Carmel,317-846-7306,Mon-Fri 8:30 am - 5:00 pm,317-848-0201,IN,Suite 415,46032,39.95690889999999,-86.1563927
B001285,02106,412516,B001285-oxnard,201 East Fourth St.,,Oxnard,805-379-1799,Call to make an appointment,805-379-1779,CA,Suite 209B,93030,34.1993342,-119.1783991
B001285,02106,412516,B001285-thousand_oaks,223 E. Thousand Oaks Blvd.,,Thousand Oaks,805-379-1799,"Monday-Thursday 9:00am-5:30pm PT,Friday 9:00am-5:00pm PT",805-379-1779,CA,Suite 220,91360,34.1794905,-118.8726791
B001286,02127,412537,B001286-peoria,820 SW Adams St,,Peoria,,,309-966-1813,IL,,61602,40.6855433,-89.5987706
B001286,02127,412537,B001286-rock_island,2401 4th Ave.,,Rock Island,309-786-3720,,309-786-3406,IL,,61201,41.5089919,-90.5662359
B001286,02127,412537,B001286-rockford,119 N. Church St.,,Rockford,,,815-968-8011,IL,Suite 207 & 208,61101,42.2720192,-89.0952944
B001287,02102,412512,B001287-sacramento,8950 Cal Center Dr.,Building 3,Sacramento,916-635-0514,M-F 9am -6pm,916-635-0505,CA,Suite 100,95826,38.5553768,-121.3738588
B001288,02194,412598,B001288-camden,2 Riverside Dr.,One Port Center,Camden,856-338-8936,,856-338-8922,NJ,Suite 505,08101,39.9443128,-75.1296174
B001288,02194,412598,B001288-newark,One Gateway Center,,Newark,973-639-8723,,973-639-8700,NJ,23rd Floor,07102,40.7344571,-74.1657213
B001289,02197,412601,B001289-mobile,11 N. Water St.,,Mobile,,,251-690-2811,AL,Suite 15290,36602,30.693117,-88.039675
B001289,02197,412601,B001289-summerdale,502 W. Lee Ave.,,Summerdale,,,251-989-2664,AL,,36580,30.4834677,-87.7041946
B001291,02270,412655,B001291-deer_park,203 Ivy Ave.,,Deer Park,832-780-0964,,832-780-0966,TX,Suite 600,77536,29.7089323,-95.12126239999999
B001291,02270,412655,B001291-orange,1201 Childers Rd.,,Orange,409-886-9918,,409-883-8075,TX,,77630,30.0800116,-93.7314932
B001291,02270,412655,B001291-woodville,100 W. Bluff Dr.,Tyler County Courthouse,Woodville,,,409-331-8066,TX,,75979,30.7753424,-94.41539859999999
B001292,02272,412657,B001292-arlington,1901 N Moore St,,Arlington,703-658-5408,,703-658-5403,VA,Suite 1108,22209-1728,38.8976,-77.07119
B001295,02243,412629,B001295-alton,101 E. Third St.,,Alton,,First Thursday of every month from 9:00 a.m. until 11:00 a.m.,618-622-0766,IL,,62002,38.8906416,-90.18395149999999
B001295,02243,412629,B001295-carbondale,300 E. Main St.,Hunter Building,Carbondale,618-457-2990,,618-457-5787,IL,Suite 4,62901,37.7277729,-89.2134992
B001295,02243,412629,B001295-granite_city,2000 Edison Ave.,City Hall,Granite City,,The third Thursday of each month from 1:00 p.m. to 4:00 p.m.,618-622-0766,IL,,62040,38.7015611,-90.14887449999999
B001295,02243,412629,B001295-mt__vernon,1100 Main St.,Mt. Vernon City Hall,Mt. Vernon,,Tuesdays 9 a.m. to 12 p.m.,618-513-5294,IL,,62864,38.317936,-88.9049835
B001295,02243,412629,B001295-o_fallon,302 West State St.,,O'Fallon,618-622-0774,,618-622-0766,IL,,62269,38.5925108,-89.9141608
B001296,02267,412652,B001296-philadelphia,5675 N. Front St.,One & Olney Shopping Center,Philadelphia,267-437-3886,"8:30am-4:30pm, M-F",267-335-5643,PA,Suite 180,19120,40.0381812,-75.1172342
B001296,02267,412652,B001296-philadelphia-1,8572 Bustleton Ave.,,Philadelphia,215-856-3734,"8:30am-4:30pm, M-F",215-335-3355,PA,,19152,40.0730543,-75.049904
B001296,02267,412652,B001296-philadelphia-2,2630 Memphis St,,Philadelphia,215-426-7741,"8:30am-4:30pm, M-F",215-426-4616,PA,Ste 180,19125-2344,39.98239,-75.11967
B001297,02233,412619,B001297-castle_rock,900 Castleton Rd.,,Castle Rock,,,720-639-9165,CO,Suite 112,80109,39.4092665,-104.8684125
B001297,02233,412619,B001297-greeley,1023 39th Ave.,,Greeley,970-702-2951,,970-702-2136,CO,Unit B,80634,40.4205693,-104.7446355
B001298,,412713,B001298-omaha,13906 Gold Circle,,Omaha,402-763-4947,,402-938-0300,NE,Suite 101,68144,41.23509809999999,-96.1296555
B001299,,412702,B001299-fort_wayne,1300 S. Harrison St.,,Fort Wayne,,,260-702-4750,IN,,46802,41.0737372,-85.14045349999999
B001300,,412687,B001300-carson,701 E. Carson St.,Carson City Hall,Carson,,"Wednesday and Thursday, 9:00 a.m. - 5:00 p.m. Please call for an appointment",310-831-1799,CA,,90745,33.8322643,-118.2630272
B001300,,412687,B001300-compton,205 S. Willowbrook Ave.,Compton City Hall,Compton,,Tuesday 9:00 a.m. - 5:00 p.m. Please call for an appointment,310-831-1799,CA,,90220,33.8946744,-118.226945
B001300,,412687,B001300-san_pedro,302 W. Fifth St.,,San Pedro,,M-F 9:00 a.m. - 5:00 p.m. Please call for an appointment,310-831-1799,CA,Suite 201,90731,33.7398775,-118.2839378
B001300,,412687,B001300-south_gate,8650 California Ave.,South Gate City Hall,South Gate,,"Tuesday and Thursday, 9:00 a.m. - 5:00 p.m.  Please call for an appointment",310-831-1799,CA,,90280,33.9556898,-118.2051037
B001302,,412683,B001302-mesa,2509 S. Power Rd.,,Mesa,,,480-699-8239,AZ,Suite 204,85209,33.3712904,-111.6870648
B001303,,412689,B001303-wilmington,1105 N. Market St.,,Wilmington,,,302-830-2330,DE,Suite 400,19801,39.7473432,-75.5471367
B001303,,412689,B001303-georgetown,28 The Circle,,Georgetown,,,302-858-4773,DE,Suite 2,19947,38.6903978,-75.3887458
B001304,,412707,B001304-annapolis,2666 Riva Rd,,Annapolis,,"Tuesday and Thursday, 9 a.m. - 1 p.m., or by appointment",410-266-3249,MD,Suite 120,21401,38.9746861,-76.5612782
B001304,,412707,B001304-largo,9701 Apollo Dr.,,Largo,,,301-458-2600,MD,Suite 103,20774,38.9044794,-76.8406561
B001305,,412712,B001305-advance,128 Peachtree Ln.,,Advance,,,336-998-1313,NC,Suite A,27006,36.0038879,-80.4394348
B001305,,412712,B001305-high_point,4000 Piedmont Pkwy,,High Point,,,336-858-5013,NC,Suite 131,27265,36.0515139,-79.9611368
B001307,,412777,B001307-danville,355 S Washington St,,Danville,,,317-563-5567,IN,Suite 210,46122-1779,39.75697,-86.52325
B001308,,412806,B001308-binghamton,49 Court St,,Binghamton,,,607-242-0200,NY,Suite 210,13901-3274,42.09879,-75.91334
B001308,,412806,B001308-utica,430 Court St,,Utica,,,315-732-0713,NY,Suite 102,13502-4289,43.10184,-75.2386
B001309,,412817,B001309-knoxville,800 Market St,,Knoxville,,,865-523-3772,TN,Suite 110,37902-2327,35.96225,-83.91771
B001309,,412817,B001309-maryville,341 Court St,,Maryville,,,865-984-5464,TN,,37804-5906,35.75488,-83.96911
B001310,,412839,B001310-fort_wayne,203 E Berry St,,Fort Wayne,,,260-427-2167,IN,702B,46802-2724,41.0796,-85.13801
B001310,,412839,B001310-hammond,5400 Federal Plz,,Hammond,,,219-937-9650,IN,Suite 3200,46320-1840,41.61616,-87.51962
B001310,,412839,B001310-indianapolis,115 N Pennsylvania St,,Indianapolis,317-822-8353,,317-822-8240,IN,,46204-2410,39.76888,-86.15612
B001310,,412839,B001310-south_bend,205 W Colfax Ave,,South Bend,,,574-288-6302,IN,,46601-1606,41.67813,-86.25266
C000059,00165,400057,C000059-corona,400 S. Vicentia Ave.,,Corona,951-277-0420,,951-277-0042,CA,Suite 125,92882,33.8784386,-117.5759232
C000127,00172,300018,C000127-everett,2930 Wetmore Ave.,,Everett,425-303-8351,,425-303-0114,WA,Suite 9B,98201,47.9781562,-122.2076204
C000127,00172,300018,C000127-richland,825 Jadwin Ave.,,Richland,509-946-6937,,509-946-8106,WA,Suite 206,99352,46.2775762,-119.2760977
C000127,00172,300018,C000127-seattle,915 Second Ave.,,Seattle,206-220-6404,,206-220-6400,WA,Suite 3206,98174,47.6045895,-122.3354608
C000127,00172,300018,C000127-spokane,920 W. Riverside Ave.,,Spokane,509-353-2547,,509-353-2507,WA,Suite 697,99201,47.6585992,-117.4260094
C000127,00172,300018,C000127-tacoma,950 Pacific Ave.,,Tacoma,253-572-5879,,253-572-2281,WA,Suite 615,98402,47.2535757,-122.4390697
C000127,00172,300018,C000127-vancouver,1313 Officers Row,,Vancouver,360-696-7844,,360-696-7838,WA,,98661,45.628864,-122.6641029
C000141,00174,400064,C000141-baltimore,100 S. Charles St.,Tower 1,Baltimore,410-962-4156,,410-962-4436,MD,Suite 1710,21201,39.2871649,-76.6156372
C000141,00174,400064,C000141-bowie,10201 Martin Luther King Jr. Highway,,Bowie,301-860-0416,Monday - Friday: 9:00 AM - 5:00 PM,301-860-0414,MD,Suite 210,20720,38.9550571,-76.82809809999999
C000141,00174,400064,C000141-cumberland,13 Canal St.,,Cumberland,301-777-2959,,301-777-2957,MD,Room 305,21502,39.6495579,-78.76360249999999
C000141,00174,400064,C000141-rockville,451 Hungerford Dr.,,Rockville,301-762-2976,,301-762-2974,MD,Suite 230,20850,39.0895234,-77.1511348
C000141,00174,400064,C000141-salisbury,212 W. Main St.,Plaza Gallery Building,Salisbury,202-224-1651,,410-546-4250,MD,Suite 301C,21801,38.3652837,-75.6023764
C000174,00179,300019,C000174-dover,500 W. Loockerman St.,,Dover,302-674-5464,M-F 8:30 a.m. to 5:30 p.m.,302-674-3308,DE,Suite 470,19904,39.15666239999999,-75.5311574
C000174,00179,300019,C000174-georgetown,12 The Circle,,Georgetown,302-856-3001,M-F 8:30 a.m. to 5:30 p.m.,302-856-7690,DE,,19947,38.6902745,-75.3852914
C000174,00179,300019,C000174-wilmington,301 N. Walnut St.,,Wilmington,302-573-6434,M-F 8:30 a.m. to 5:30 p.m.,302-573-6291,DE,Suite 102L-1,19801-3974,39.739183,-75.5492666
C000266,00186,400071,C000266-cincinnati,441 Vine St.,,Cincinnati,513-421-8722,9 a.m. - 5 p.m.,513-684-2723,OH,Rm. 3003,45202,39.100836,-84.513238
C000266,00186,400071,C000266-lebanon,11 S. Broadway,,Lebanon,513-421-8722,9am-5pm,513-421-8704,OH,,45036,39.4341674,-84.2086104
C000537,00208,400075,C000537-columbia,1225 Lady St.,,Columbia,803-799-9060,Mon-Fri 9am-5pm,803-799-1100,SC,Suite 200,29201,34.0032484,-81.03302830000001
C000537,00208,400075,C000537-kingstree,130 W. Main St.,,Kingstree,843-355-1232,Monday-Friday 9:00AM-5:00PM,843-355-1211,SC,,29556,33.6637604,-79.8313355
C000537,00208,400075,C000537-santee,176 Brooks Blvd.,,Santee,803-854-4900,Mon-Fri 9:00AM-5:00PM,803-854-4700,SC,,29142,33.4737478,-80.4819747
C000754,00231,400081,C000754-nashville,605 Church St.,,Nashville,615-736-7479,M-F 8am - 5pm,615-736-5295,TN,,37219,36.1623269,-86.7817797
C000880,00250,300030,C000880-boise,251 E. Front St.,,Boise,208-334-9044,,208-334-1776,ID,Suite 205,83702,43.6086015,-116.1956172
C000880,00250,300030,C000880-coeur_d_alene,610 Hubbard Ave,,Coeur d'Alene,208-664-0889,,208-664-5490,ID,Suite 209,83814,47.6826921,-116.7920799
C000880,00250,300030,C000880-idaho_falls,410 Memorial Dr.,,Idaho Falls,208-529-8367,,208-522-9779,ID,Suite 204,83402,43.4936265,-112.0425928
C000880,00250,300030,C000880-lewiston,313 'D' St.,,Lewiston,208-743-6484,,208-743-1492,ID,Suite 105,83501,46.422158,-117.028638
C000880,00250,300030,C000880-pocatello,275 S. 5th Ave.,,Pocatello,208-236-6935,,208-236-6775,ID,Suite 100,83201,42.8649373,-112.4428822
C000880,00250,300030,C000880-twin_falls,202 Falls Ave.,,Twin Falls,208-733-0414,,208-734-2515,ID,Suite 2,83301,42.5776169,-114.47751
C001035,01541,300025,C001035-augusta,68 Sewall St.,,Augusta,,,207-622-8414,ME,Room 507,04330,44.310824,-69.783697
C001035,01541,300025,C001035-bangor,202 Harlow St.,,Bangor,,,207-945-0417,ME,Room 20100,04401,44.8046399,-68.7737891
C001035,01541,300025,C001035-biddeford,160 Main St.,,Biddeford,,,207-283-1101,ME,,04005,43.493177,-70.4548329
C001035,01541,300025,C001035-caribou,25 Sweden St.,,Caribou,,,207-493-7873,ME,Suite A,04736,46.860458,-68.013198
C001035,01541,300025,C001035-lewiston,55 Lisbon St.,,Lewiston,,,207-784-6969,ME,,04240,44.097439,-70.217972
C001035,01541,300025,C001035-portland,One Canal Plaza,,Portland,,,207-780-3575,ME,Suite 802,04101,43.6566885,-70.2551294
C001047,01676,400061,C001047-beckley,220 N. Kanawha St.,,Beckley,,Appointments are required at this location.,304-347-5372,WV,Suite 1,25801,37.779625,-81.188172
C001047,01676,400061,C001047-charleston,500 Virgina Street East,,Charleston,,,304-347-5372,WV,Suite 950,25301,38.3511449,-81.6380602
C001047,01676,400061,C001047-martinsburg,300 Foxcroft Ave.,,Martinsburg,,,304-262-9285,WV,Suite 202A,25401,39.4607489,-77.986887
C001047,01676,400061,C001047-morgantown,48 Donley St.,,Morgantown,,,304-292-2310,WV,Suite 504,26501,39.6256581,-79.96312549999999
C001049,01654,400074,C001049-florissant,1281 Graham Rd.,,Florissant,314-383-8020,,314-383-5240,MO,Suite 202,63031,38.7764554,-90.33554869999999
C001049,01654,400074,C001049-st__louis,111 S. 10th St.,,St. Louis,314-367-1341,,314-367-1970,MO,Suite 24.344,63102,38.6254195,-90.1970195
C001049,01654,400074,C001049-st__louis-1,6830 Gravois,,St. Louis,314-669-9398,,314-669-9393,MO,,63116,38.5704092,-90.28441289999999
C001051,01752,400068,C001051-round_rock,1717 North IH 35,,Round Rock,,,512-246-1600,TX,Suite 303,78664,30.5234565,-97.688835
C001051,01752,400068,C001051-temple,6544 S General Bruce Dr,,Temple,,,254-933-1392,TX,B,76502,31.0718016,-97.4233588
C001053,01742,400077,C001053-lawton,711 SW. D Ave.,,Lawton,580-357-7477,,580-357-2131,OK,Suite 201,73501,34.6044481,-98.3995211
C001053,01742,400077,C001053-norman,2424 Springer Dr.,,Norman,405-321-7369,,405-329-6500,OK,Suite 201,73069,35.2053158,-97.47880409999999
C001053,01742,400077,C001053-ada,100 E. 13th St.,,Ada,580-436-5451,,580-436-5375,OK,Suite 213,74820,34.7723614,-96.6790693
C001055,01693,400069,C001055-honolulu,1132 Bishop St,,Honolulu,,,808-650-6688,HI,Suite 1910,96813-2807,21.30973,-157.86005
C001056,01692,300027,C001056-austin,221 W. Sixth St.,Chase Tower,Austin,512-469-6020,,512-469-6034,TX,Suite 1530,78701,30.2681008,-97.7448471
C001056,01692,300027,C001056-dallas,5001 Spring Valley Rd.,,Dallas,972-239-2110,,972-239-1310,TX,Suite 1125 E,75244,32.9400414,-96.82359749999999
C001056,01692,300027,C001056-harlingen,222 E. Van Buren,,Harlingen,956-423-0193,,956-423-0162,TX,Suite 404,78550,26.1914148,-97.69402009999999
C001056,01692,300027,C001056-houston,5300 Memorial Dr.,,Houston,713-572-3777,,713-572-3337,TX,Suite 980,77007,29.7620629,-95.41595319999999
C001056,01692,300027,C001056-lubbock,1500 Broadway,Wells Fargo Center,Lubbock,806-472-7536,,806-472-7533,TX,Suite 1230,79401,33.5849492,-101.8519083
C001056,01692,300027,C001056-san_antonio,600 Navarro,,San Antonio,210-224-8569,,210-224-7485,TX,Suite 210,78205,29.4267857,-98.48957639999999
C001056,01692,300027,C001056-tyler,100 E. Ferguson St.,Regions Bank Building,Tyler,903-593-0920,,903-593-0902,TX,Suite 1004,75702,32.3522862,-95.30028709999999
C001059,01774,400618,C001059-fresno,855 M St.,,Fresno,,,559-495-1620,CA,Suite 940,93721,36.7345489,-119.7858717
C001059,01774,400618,C001059-merced,2222 M St.,,Merced,,,209-384-1620,CA,Suite 305,95340,37.3070723,-120.4812216
C001061,01790,400639,C001061-higginsville,1923 Main St,,Higginsville,660-584-7227,Mon-Fri 8-5:00pm,660-584-7373,MO,,64037,39.0754557,-93.7170832
C001061,01790,400639,C001061-independence,411 W Maple Ave,,Independence,816-833-2991,M-F 9-6:00pm,816-833-4545,MO,F,64050-2840,39.09278,-94.4201
C001061,01790,400639,C001061-kansas_city,101 W. 31 St.,,Kansas City,816-471-5215,Mon-Fri 9:00am-6:00pm,816-842-4545,MO,,64108,39.070874,-94.587124
C001062,01805,400655,C001062-brownwood,501 Center Ave.,Brownwood City Hall,Brownwood,325-646-2979,,325-646-1950,TX,,76801,31.7197496,-98.98361140000002
C001062,01805,400655,C001062-granbury,132 Houston St.,,Granbury,682-936-2567,,682-936-2577,TX,,76048,32.44305,-97.78790599999999
C001062,01805,400655,C001062-llano,104 W. Sandstone,County Annex,Llano,325-247-2676,,325-247-2826,TX,,78643,30.7492439,-98.6764682
C001062,01805,400655,C001062-midland,6 Desta Dr.,,Midland,432-687-0277,,432-687-2390,TX,Suite 2000,79705,32.0303053,-102.0856792
C001062,01805,400655,C001062-odessa,411 W. 8th St.,City Hall,Odessa,432-332-6538,,432-331-9667,TX,5th Floor,79761,31.848779,-102.3748667
C001062,01805,400655,C001062-san_angelo,33 E. Twohig,,San Angelo,325-659-4014,,325-659-4010,TX,Suite 307,76903,31.4614147,-100.4355616
C001063,01807,400657,C001063-laredo,602 E. Calton Rd.,,Laredo,956-725-2647,Monday - Friday 8:00 a.m. CST to 5:30 p.m. CST,956-725-0639,TX,Suite 2,78041,27.5423782,-99.4887937
C001063,01807,400657,C001063-mission,117 E. Tom Landry,,Mission,956-424-3936,,956-424-3942,TX,,78572,26.2161009,-98.32499899999999
C001063,01807,400657,C001063-rio_grande_city,100 N. F.M. 3167,,Rio Grande City,956-488-0952,,956-487-5603,TX,,78582,26.3834188,-98.85823049999999
C001063,01807,400657,C001063-san_antonio,615 E. Houston St.,,San Antonio,210-277-6671,,210-271-2851,TX,Suite 563,78205,29.4270611,-98.48622759999999
C001066,01839,412195,C001066-tampa,4144 N. Armenia Ave.,,Tampa,813-871-2864,8:30 a.m. - 5 p.m.,813-871-2817,FL,Suite 300,33607,27.9771817,-82.48520649999999
C001067,01864,412221,C001067-brooklyn,222 Lenox Rd.,,Brooklyn,718-287-1223,,718-287-1142,NY,Suites 1 & 2,11226,40.6536853,-73.9516805
C001068,01878,412236,C001068-memphis,167 N. Main St.,The Clifford Davis/Odell Horton Federal Building,Memphis,901-544-4329,Monday-Friday 8am-5pm CT,901-544-4131,TN,Suite 369,38103,35.1497482,-90.0517538
C001069,01836,412193,C001069-enfield,77 Hazard Ave.,,Enfield,860-741-6036,,860-741-6011,CT,Unit J,06082,41.9904484,-72.5723972
C001069,01836,412193,C001069-norwich,55 Main St.,,Norwich,860-886-2974,,860-886-0139,CT,Suite 250,06360,41.524272,-72.07896800000002
C001070,01828,412246,C001070-allentown,840 Hamilton St.,,Allentown,610-782-9474,,610-782-9470,PA,Suite 301,18101,40.6010783,-75.47499979999999
C001070,01828,412246,C001070-bellefonte,817 E. Bishop St.,,Bellefonte,814-357-0318,,814-357-0314,PA,Suite C,16823,40.9138418,-77.7641528
C001070,01828,412246,C001070-erie,17 S. Park Row.,,Erie,814-874-5084,,814-874-5080,PA,Suite B-150,16501,42.1289745,-80.08406889999999
C001070,01828,412246,C001070-harrisburg,200 N. Third St.,,Harrisburg,717-231-7542,,717-231-7540,PA,Suite 14A,17101,40.2619774,-76.8829619
C001070,01828,412246,C001070-philadelphia,2000 Market St.,,Philadelphia,215-405-9669,,215-405-9660,PA,Suite 610,19103,39.9532694,-75.1736461
C001070,01828,412246,C001070-pittsburgh,310 Grant St.,Grant Building,Pittsburgh,412-803-7379,,412-803-7370,PA,Suite 2415,15219,40.4376694,-79.99749159999999
C001070,01828,412246,C001070-scranton,417 Lackawanna Ave.,,Scranton,570-941-0937,,570-941-0930,PA,Suite 303,18503,41.4073687,-75.6654743
C001072,01889,412258,C001072-indianapolis,300 E. Fall Creek Pkwy N Dr.,,Indianapolis,317-283-6567,M-F 9-5:30pm,317-283-6516,IN,Suite 300,46205,39.8063243,-86.1513962
C001075,01925,412269,C001075-alexandria,3600 Jackson St.,,Alexandria,318-448-5175,,318-448-7176,LA,Suite 115A,71303,31.2852075,-92.47677350000001
C001075,01925,412269,C001075-baton_rouge,5555 Hilton Ave.,,Baton Rouge,225-929-7688,,225-929-7711,LA,Suite 100,70808,30.423884,-91.1325791
C001075,01925,412269,C001075-lake_charles,1 Lakeshore Dr.,,Lake Charles,337-493-5629,,337-493-5398,LA,Suite 1155,70629,30.2305579,-93.2196294
C001075,01925,412269,C001075-lafayette,101 La Rue France,,Lafayette,337-261-1490,,337-261-1400,LA,Suite 505,70508,30.1948666,-92.014654
C001075,01925,412269,C001075-metairie,3421 N. Causeway Blvd.,,Metairie,504-838-0133,,504-838-0130,LA,Suite 204,70002,30.0112259,-90.15417479999999
C001075,01925,412269,C001075-monroe,1651 Louisville Ave.,,Monroe,318-324-2197,,318-324-2111,LA,Suite 123,70201,32.5175209,-92.1087384
C001075,01925,412269,C001075-shreveport,6425 Youree Dr.,,Shreveport,318-798-6959,,318-798-3215,LA,Suite 415,71105,32.448457,-93.71986679999999
C001078,01959,412272,C001078-annandale,4115 Annandale Rd.,,Annandale,703-354-1284,,703-256-3071,VA,Suite 103,22003,38.8338994,-77.1967528
C001078,01959,412272,C001078-woodbridge,2241-D Tacketts Mill Drive,,Woodbridge,571-408-4708,,571-408-4407,VA,,22192,38.6752583,-77.2815925
C001080,01970,412379,C001080-claremont,415 W. Foothill Blvd.,,Claremont,909-399-0198,Only open Tuesdays and Thursdays,909-625-5394,CA,Suite 122,91711,34.1079585,-117.7212331
C001080,01970,412379,C001080-pasadena,527 S. Lake Ave.,,Pasadena,626-304-0132,,626-304-0110,CA,Suite 106,91101,34.1367185,-118.1327226
C001084,02055,412470,C001084-pawtucket,1070 Main St.,,Pawtucket,401-729-5608,Mon-Fri 8:30am-5:30pm,401-729-5600,RI,Suite 300,02860,41.8610791,-71.3986461
C001087,01989,412400,C001087-cabot,112 S. 1st,,Cabot,501-843-4955,Mon-Fri 8:00AM-5:00PM,501-843-3043,AR,,72023,34.9730598,-92.0167235
C001087,01989,412400,C001087-dumas,101 E Waterman St,,Dumas,,"M,W,F 2:00PM-5:00PM CT ; T, TH 8:00 AM-5:00PM CT",870-377-5571,AR,,71639-2226,33.88781,-91.49025
C001087,01989,412400,C001087-jonesboro,2400 Highland Dr.,,Jonesboro,870-203-0542,Mon-Fri 8:00AM-5:00PM CT,870-203-0540,AR,Suite 300,72401,35.8220219,-90.6760171
C001087,01989,412400,C001087-mountain_home,1001 Highway 62 E,,Mountain Home,870-424-3149,Mon-Fri 8:00AM-5:00PM CT,870-424-2075,AR,Suite 9,72653,36.3499306,-92.3707731
C001088,01984,412390,C001088-dover,500 W. Loockerman St.,,Dover,302-736-5609,,302-736-5601,DE,Suite 450,19904,39.15666239999999,-75.5311574
C001088,01984,412390,C001088-wilmington,1105 N. Market St.,,Wilmington,302-573-6351,,302-573-6345,DE,Suite 100,19801-1233,39.7473432,-75.5471367
C001090,02159,412571,C001090-scranton,226 Wyoming Ave.,,Scranton,570-341-1055,"9:00am - 5:00pm, M-F",570-341-1050,PA,,18503,41.4093981,-75.66439729999999
C001090,02159,412571,C001090-wilkes_barre,20 N. Pennsylvania Ave.,,Wilkes-Barre,,"Tuesday and Thursday, 9:00am - 5:00pm",570-371-0317,PA,Suite 201,18711,41.2441677,-75.87917089999999
C001091,02163,412576,C001091-san_antonio,727 E. Chavez Blvd.,,San Antonio,210-979-0737,"Monday-Friday, 9:00 am- 6:00 pm CT",210-348-8216,TX,Suite B-128,78206,29.4175269,-98.4846276
C001093,02121,412531,C001093-gainesville,210 Washington St. NW,,Gainesville,770-297-3390,Monday-Friday: 9 a.m. - 5 p.m.,770-297-3388,GA,Suite 202,30501,34.299434,-83.8282158
C001094,02103,412513,C001094-apple_valley,14955 Dale Evans Parkway,Apple Valley Town Hall,Apple Valley,,9:00am - 5:00pm,760-247-1815,CA,,92307,34.5243014,-117.2144307
C001094,02103,412513,C001094-yucaipa,34282 Yucaipa Boulevard,,Yucaipa,,,909-797-4900,CA,,92399,34.0344717,-117.0567352
C001095,02098,412508,C001095-el_dorado,106 W. Main St.,,El Dorado,870-864-8571,,870-864-8582,AR,Suite 410,71730,33.2120448,-92.664046
C001095,02098,412508,C001095-jonesboro,300 S. Church,,Jonesboro,870-933-6596,,870-933-6223,AR,Suite 338,72401,35.8404281,-90.70368549999999
C001095,02098,412508,C001095-little_rock,1401 W. Capitol Ave.,,Little Rock,501-223-9105,,501-223-9081,AR,Suite 235,72201,34.7456872,-92.2865752
C001095,02098,412508,C001095-springdale,1108 S. Old Missouri Rd.,,Springdale,479-927-1092,,479-751-0879,AR,Suite B,72764,36.17457100000001,-94.1176151
C001096,02144,412555,C001096-bismarck,220 E. Rosser Ave.,328 Federal Building,Bismarck,701-224-0431,M-F 8-5:00pm,701-224-0355,ND,,58501,46.80901129999999,-100.7882597
C001096,02144,412555,C001096-fargo,3217 Fiechtner Dr.,,Fargo,701-356-2217,,701-356-2216,ND,Suite D,58103,46.8653775,-96.83148949999999
C001096,02144,412555,C001096-grand_forks,4200 James Ray Dr.,,Grand Forks,,,701-738-4880,ND,Office 600,58202,47.921087,-97.090537
C001096,02144,412555,C001096-minot,315 Main St.,,Minot,,,701-839-0255,ND,Suite 203,58701,48.23281009999999,-101.2926299
C001097,02107,412517,C001097-panorama_city,9612 Van Nuys Blvd.,,Panorama City,818-221-3809,Monday-Friday 9:00 a.m. - 6:00 p.m. PACIFIC TIME,818-221-3718,CA,Suite 201,91402,34.2449325,-118.4495976
C001098,02175,412573,C001098-austin,300 E 8th,,Austin,512-916-5839,,512-916-5834,TX,Suite 961,78701,30.269401,-97.7390867
C001098,02175,412573,C001098-dallas,3626 N. Hall St.,Lee Park Tower II,Dallas,214-361-3518,,214-599-8749,TX,Suite 410,75219,32.8092691,-96.8059281
C001098,02175,412573,C001098-houston,1919 Smith St.,The Mickey Leland Federal Building,Houston,713-209-3459,,713-718-3057,TX,Suite 9047,77002,29.758844,-95.3650242
C001098,02175,412573,C001098-mcallen,200 S. 10th St.,,McAllen,,,956-686-7339,TX,Suite 1603,78501,26.2019273,-98.2313667
C001098,02175,412573,C001098-san_antonio,9901 Ih-10w,,San Antonio,210-349-6753,,210-340-2885,TX,Suite 950,78230,29.533858,-98.5619881
C001098,02175,412573,C001098-tyler,305 S. Broadway,,Tyler,,,903-593-5130,TX,Suite 501,75702,32.3480097,-95.3009807
C001101,02196,412600,C001101-cambridge,701 Concord Ave.,,Cambridge,,Mon-Fri 9am-5:30pm,617-354-0292,MA,Suite 101,02138,42.390572,-71.151338
C001101,02196,412600,C001101-framingham,116 Concord St.,,Framingham,,M-F 9-5:30,508-319-9757,MA,Suite 1,01702,42.2787415,-71.41700349999999
C001103,02236,412622,C001103-brunswick,1510 Newcastle St.,,Brunswick,912-265-9013,,912-265-9010,GA,Suite 200,31520,31.149693,-81.49532
C001103,02236,412622,C001103-savannah,6602 Abercorn St.,,Savannah,912-352-0105,,912-352-0101,GA,Suite 105B,31405,32.017594,-81.11040299999999
C001108,,412676,C001108-paducah,300 S. 3rd St.,,Paducah,,,270-408-1865,KY,,42003,37.0851283,-88.595174
C001108,,412676,C001108-tompkinsville,200 N. Main St.,,Tompkinsville,,,270-487-9509,KY,Suite F,42167,36.7006713,-85.6929017
C001108,,412676,C001108-madisonville,67 North Main St.,,Madisonville,,Call to schedule appointment,270-487-9509,KY,,42431,37.3296043,-87.498937
C001109,,412732,C001109-casper,100 East B Street,,Casper,307-261-6597,,307-261-6595,WY,Room 4003,82602,42.8524124,-106.3248373
C001109,,412732,C001109-cheyenne,2120 Capitol Ave.,,Cheyenne,307-772-2597,,307-772-2595,WY,Suite 8005,82001,41.1374591,-104.8189674
C001109,,412732,C001109-gillette,300 S. Gillette Ave.,,Gillette,307-414-1711,,307-414-1677,WY,Suite 2001,82716,44.2920649,-105.5066014
C001109,,412732,C001109-sheridan,45 E. Loucks St.,,Sheridan,307-261-6597,,307-673-4608,WY,Suite 300 F,82801,44.7974845,-106.9548869
C001112,,412686,C001112-san_luis_obispo,1411 Marsh St.,,San Luis Obispo,805-439-3574,,805-546-8348,CA,Suite 205,93401,35.2838648,-120.6538213
C001112,,412686,C001112-santa_barbara,360 S. Hope Ave.,,Santa Barbara,,,805-546-8348,CA,Suite C-301,93105,34.434901,-119.746862
C001112,,412686,C001112-santa_maria,1619 S. Thornburg St.,,Santa Maria,,,805-730-1710,CA,,93458,34.434901,-120.4405464
C001117,,412775,C001117-west_chicago,2700 International Dr,,West Chicago,,,,IL,Suite 304,60185-1670,41.8672,-88.25793
C001118,,412832,C001118-harrisonburg,70 N Mason St,,Harrisonburg,540-432-6593,,540-432-2391,VA,Suite 110,22802-4126,38.44978,-78.86637
C001118,,412832,C001118-lynchburg,916 Main St,,Lynchburg,434-845-8245,,434-845-8306,VA,Suite 300,24504-1600,37.41441,-79.14153
C001118,,412832,C001118-roanoke,10 Franklin Rd SE,,Roanoke,540-857-2675,,540-857-2672,VA,Suite 510,24011-2133,37.2694,-79.94051
C001118,,412832,C001118-staunton,117 S Lewis St,,Staunton,540-885-3930,,540-885-3861,VA,Suite 215,24401-4282,38.14838,-79.07444
C001119,,412789,C001119-burnsville,12940 Harriet Ave S,,Burnsville,,,651-846-2120,MN,Suite 238,55337-2680,44.7684,-93.2863
C001120,,412820,C001120-kingwood,1801 Kingwood Dr,,Kingwood,,,713-860-1330,TX,Suite 240,77339-3060,30.05138,-95.22975
C001121,,412762,C001121-aurora,3300 S Parker Rd,,Aurora,,,720-748-7514,CO,Suite 100,80014-3518,39.65758,-104.83538
C001122,,412814,C001122-beaufort,710 Boundary St,,Beaufort,,,843-521-2530,SC,1D,29902-4187,32.43928,-80.67047
C001122,,412814,C001122-mt_pleasant,530 Johnnie Dodds Blvd,,Mt Pleasant,,,843-352-7572,SC,Suite 201,29464-3083,32.80623,-79.88752
C001123,,412757,C001123-fullerton,1440 N Harbor Blvd,,Fullerton,,,,CA,Suite 601,92835-4127,33.88561,-117.92383
C001124,,412755,C001124-bakersfield,2700 M St,,Bakersfield,,,661-864-7736,CA,250B,93301-2374,35.38349,-119.01425
D000096,01477,400093,D000096-chicago,2813-15 W. Fifth Ave.,,Chicago,773-533-7530,,773-533-7520,IL,,60612,41.8807415,-87.6990211
D000191,00279,400100,D000191-coos_bay,125 Central Ave.,,Coos Bay,541-269-5760,M-F 8:00am-5:00pm,541-269-2609,OR,Suite 350,97420,43.367748,-124.213429
D000191,00279,400100,D000191-eugene,405 E. 8th Ave.,,Eugene,541-465-6458,M-F 8:00am-5:00pm,541-465-6732,OR,#2030,97401,44.0516985,-123.0857882
D000191,00279,400100,D000191-roseburg,612 SE. Jackson St.,,Roseburg,541-465-6458,M-F 8:00am-5:00pm,541-440-3523,OR,Room 9,97470,43.2087597,-123.3445182
D000197,01479,400101,D000197-denver,600 Grant St.,,Denver,303-844-4996,M-F 8:00 - 5:00,303-844-4988,CO,Suite 202,80203,39.7260392,-104.9832743
D000216,00281,400103,D000216-new_haven,59 Elm St.,,New Haven,203-772-2260,,203-562-3718,CT,,06510,41.3080224,-72.92267679999999
D000399,00303,400111,D000399-austin,300 E. 8th St.,,Austin,,,512-916-5921,TX,Suite 763,78701,30.269401,-97.7390867
D000399,00303,400111,D000399-san_antonio,217 W. Travis St.,,San Antonio,,,210-704-1080,TX,,78205,29.427604,-98.4951151
D000482,00316,400114,D000482-bethel_park,4705 Library Rd,,Bethel Park,412-283-4465,,412-283-4451,PA,,15102-2969,40.34915,-80.02294
D000482,00316,400114,D000482-mckeesport,627 Lysle Blvd.,,McKeesport,412-664-4053,8:30 AM to 5:30 PM,412-664-4049,PA,,15132,40.352477,-79.858547
D000482,00316,400114,D000482-pittsburgh,2637 E. Carson St.,,Pittsburgh,412-390-2118,8:30 AM to 5:30 PM,412-390-1499,PA,,15203,40.4273525,-79.9675163
D000563,00326,300038,D000563-carbondale,250 W. Cherry St.,,Carbondale,618-351-1124,8:30 am to 5:00 pm,618-351-1122,IL,Suite 115-D,62901,37.7233822,-89.21730319999999
D000563,00326,300038,D000563-chicago,230 S. Dearborn St.,,Chicago,312-353-0150,8:30 am to 5:00 pm,312-353-4952,IL,Suite 3892,60604,41.8784454,-87.63
D000563,00326,300038,D000563-rock_island,1504 Third Ave.,,Rock Island,309-786-5404,8:30 am to 4:30 pm,309-786-5173,IL,Suite 227,61201,41.5090535,-90.5782533
D000563,00326,300038,D000563-springfield,525 S. 8th St.,,Springfield,217-492-4382,8:30 am to 5:00 pm,217-492-4062,IL,,62703,39.7965137,-89.6451404
D000598,01641,400097,D000598-san_diego,2700 Adams Ave.,,San Diego,619-280-5311,,619-280-5353,CA,Suite 102,92116,32.7631233,-117.1348898
D000600,01717,400108,D000600-doral,8669 NW. 36th St.,,Doral,305-470-8575,M-F 9 am-5 pm,305-470-8555,FL,Suite 100,33166,25.8109245,-80.3361915
D000600,01717,400108,D000600-naples,4715 Golden Gate Pkwy.,,Naples,239-348-3569,Mon-Fri 9am-5pm,239-348-1620,FL,Suite 1,34116,26.1833954,-81.70380209999999
D000610,01976,412385,D000610-boca_raton,7900 Glades Rd.,,Boca Raton,561-470-5446,,561-470-5440,FL,Suite 250,33434,26.365483,-80.1673666
D000610,01976,412385,D000610-coral_springs,9500 W Sample Rd,Coral Springs City Hall,Coral Springs,,By appointment only.,954-255-8336,FL,Suite 201,33065-4104,26.27311,-80.25343
D000610,01976,412385,D000610-fort_lauderdale,111 East Las Olas Blvd.,,Fort Lauderdale,,By appointment only.,,FL,,33301,26.1194405,-80.1439123
D000610,01976,412385,D000610-margate,5790 Margate Blvd.,,Margate,,By appointment only.,954-972-6454,FL,,33063,26.2420954,-80.2050177
D000615,02057,412472,D000615-anderson,303 W. Beltline Blvd.,,Anderson,864-225-7049,Mon-Fri 8:30am - 5:00 pm,864-224-7401,SC,,29625,34.5490603,-82.6746057
D000615,02057,412472,D000615-clinton,100 Plaza Circle,,Clinton,864-681-1030,Monday-Friday 9:00AM-5:00PM Closed on Federal Holidays,864-681-1028,SC,Suite A1,29325,34.4772923,-81.9380738
D000616,02062,412477,D000616-cleveland,301 Keith St.,,Cleveland,423-472-7800,By appointment only,423-472-7500,TN,Suite 212,37311,35.160062,-84.88402219999999
D000616,02062,412477,D000616-columbia,711 N. Garden St.,,Columbia,931-381-9945,By appointment only,931-381-9920,TN,,38401,35.61587,-87.035826
D000616,02062,412477,D000616-murfreesboro,305 W. Main St.,,Murfreesboro,615-896-8218,By appointment only,615-896-1986,TN,,37130,35.8461158,-86.39409649999999
D000616,02062,412477,D000616-winchester,200 S. Jefferson St.,Federal Building,Winchester,931-962-3435,By appointment only,931-962-3180,TN,Suite 311,37398,35.1850086,-86.1112284
D000617,02096,412505,D000617-bothell,22121 17th Ave SE,"Canyon Park Business Center, Bldg E",Bothell,425-485-0083,M-F 8:30am-5pm,425-485-0085,WA,Suite 220,98021,47.7965458,-122.2097757
D000617,02096,412505,D000617-mount_vernon,204 W. Montgomery St.,,Mount Vernon,425-485-0083,,360-416-7879,WA,,98273,48.41949899999999,-122.3357879
D000618,02138,412549,D000618-billings,222 N. 32nd St.,,Billings,,,406-245-6822,MT,Suite 100,59101,45.7810512,-108.5125313
D000618,02138,412549,D000618-bozeman,13 S. Willson Ave.,,Bozeman,,,406-587-3446,MT,Suite 8,59718,45.6788798,-111.0390251
D000618,02138,412549,D000618-great_falls,104 4th Street North,,Great Falls,,,406-453-0148,MT,Suite 302,59401,47.5067244,-111.3009733
D000618,02138,412549,D000618-hardin,310 N Ctr.,,Hardin,,,406-665-4126,MT,,59034,45.731817,-107.606432
D000618,02138,412549,D000618-helena,30 W. 14th St.,,Helena,,,406-443-3189,MT,Suite 206,59601,46.596642,-112.036443
D000618,02138,412549,D000618-kalispell,40 2nd St East,KM Building,Kalispell,,,406-257-3765,MT,Suite 211,59901,48.19663569999999,-114.3118812
D000618,02138,412549,D000618-missoula,218 E. Front St.,,Missoula,,,406-549-8198,MT,Suite 103,59802,46.8699041,-113.9930208
D000618,02138,412549,D000618-sidney,609 S. Central Ave.,Central Plaza Building,Sidney,,,406-482-9010,MT,Suite #4,59270,47.7106368,-104.1606344
D000619,02126,412536,D000619-champaign,2004 Fox Dr.,,Champaign,217-403-4691,"Monday - Friday, 8:30am - 5:00pm",217-403-4690,IL,,61280,40.090932,-88.25012439999999
D000619,02126,412536,D000619-decatur,243 S. Water St.,,Decatur,217-791-6168,Mon-Fri 8:30am-5pm,217-791-6224,IL,Suite 100,62523,39.8396384,-88.954852
D000619,02126,412536,D000619-maryville,15 Professional Park Dr.,,Maryville,618-205-8662,"Monday-Friday, 8:30am-5:00pm",618-205-8660,IL,,62062,38.737077,-89.95489859999999
D000619,02126,412536,D000619-normal,104 W. North St.,,Normal,,By appointment only,309-252-8834,IL,,61761,40.5094581,-88.9846312
D000619,02126,412536,D000619-springfield,2833 S Grand Ave. East,,Springfield,217-791-6166,By appointment only,217-791-6224,IL,,62703,39.7888553,-89.6124109
D000619,02126,412536,D000619-taylorville,108 W. Market St.,,Taylorville,217-824-5121,"Monday - Friday, 8:30am - 5:00pm",217-824-5117,IL,,62568,39.5480891,-89.29549949999999
D000623,02227,412613,D000623-richmond,440 Civic Center Plz.,,Richmond,510-620-1005,,510-620-1000,CA,2nd Floor,94804,37.9367699,-122.3428337
D000623,02227,412613,D000623-walnut_creek,3100 Oak Road,,Walnut Creek,925-933-2677,,925-933-2660,CA,Suite 110,94597,37.9043441,-122.0583137
D000624,02251,412637,D000624-dearborn,19855 West Outer Drive,,Dearborn,,,313-278-2936,MI,Suite 103-E,48124,42.3034918,-83.2627983
D000624,02251,412637,D000624-ypsilanti,301 W. Michigan Ave.,,Ypsilanti,,,734-481-1100,MI,Suite 400,48197,42.24069780000001,-83.6164891
D000626,02296,412675,D000626-springfield,76 E. High St.,,Springfield,,"part-time, please call ahead",937-322-1120,OH,3rd Floor,45502,39.9237363,-83.80971939999999
D000626,02296,412675,D000626-troy,20 Dotcom Drive,,Troy,,,937-339-1524,OH,,45373,40.0578289,-84.2463325
D000626,02296,412675,D000626-west_chester,8857 Cincinnati-Dayton Rd.,,West Chester,,,513-779-5400,OH,Suite #102,45069,39.33175850000001,-84.4066223
D000627,,412696,D000627-orlando,2295 S. Hiawassee Rd.,,Orlando,,,321-388-9808,FL,Suite 301,32835,28.517804,-81.48186439999999
D000628,,412691,D000628-panama_city,840 W. 11th St.,,Panama City,850-763-3764,,850-785-0812,FL,Suite 2250,32401,30.167961,-85.67189499999999
D000628,,412691,D000628-tallahassee,300 S. Adams St.,,Tallahassee,850-891-8620,,850-891-8610,FL,,32301,30.4395286,-84.2826688
D000629,,412780,D000629-overland_park,7325 W 79th St,,Overland Park,913-621-1533,,913-621-0832,KS,,66204-2908,38.9858,-94.67027
D000630,,412805,D000630-delhi,111 Main St,,Delhi,,"Tuesdays & Wednesdays, 10AM – 4PM",,NY,,13753-1233,42.27706,-74.91709
D000630,,412805,D000630-kingston,256 Clinton Ave,,Kingston,,"Monday to Friday, 9AM - 5PM",845-443-2930,NY,,12401-2909,41.93346,-74.01604
D000630,,412805,D000630-oneonta,189 Main St,,Oneonta,,"Thursdays & Fridays, 10AM - 4 PM",,NY,Suite 500,13820-3510,42.45476,-75.06093
D000631,,412809,D000631-glenside,115 E Glenside Ave,,Glenside,215-884-3640,,215-884-4300,PA,Suite 1,19038-4618,40.10015,-75.15143
D000631,,412809,D000631-norristown,101 E Main St,,Norristown,610-275-1759,,610-382-1250,PA,A,19401-4916,40.11381,-75.34223
E000179,00344,400122,E000179-bronx,177 Dreiser Loop,,Bronx,718-320-2047,Monday-Friday 9 am - 5 pm,718-320-2314,NY,Rm 3,10475,40.8777838,-73.82924609999999
E000179,00344,400122,E000179-bronx-1,3655 Johnson Ave.,,Bronx,718-796-5134,Monday-Friday 9 am - 5 pm,718-796-9700,NY,,10463,40.8881337,-73.90958499999999
E000179,00344,400122,E000179-mt__vernon,6 Gramatan Ave.,,Mt. Vernon,914-699-3646,Monday-Friday 9 am - 5 pm,914-699-4100,NY,Suite 205,10550,40.9124845,-73.8376727
E000215,00355,400124,E000215-palo_alto,698 Emerson St.,,Palo Alto,650-323-3498,,650-323-2984,CA,,94301,37.4431725,-122.1606451
E000285,01542,300041,E000285-casper,100 E. B St.,Dick Cheney Federal Building,Casper,307-261-6574,,307-261-6572,WY,Suite 3201,82601,42.8524124,-106.3248373
E000285,01542,300041,E000285-cheyenne,2120 Capitol Ave.,Federal Center,Cheyenne,307-772-2480,,307-772-2477,WY,Suite 2007,82001,41.1374591,-104.8189674
E000285,01542,300041,E000285-cody,1285 Sheridan Ave.,,Cody,307-527-9476,,307-527-9444,WY,Suite 210,82414,44.52606979999999,-109.0624068
E000285,01542,300041,E000285-gillette,222 S. Gillette Ave.,,Gillette,307-682-6501,,307-682-6268,WY,Suite 503,82716,44.2924295,-105.5045976
E000285,01542,300041,E000285-jackson,1110 Maple Way,P.O. Box 12470,Jackson,307-739-9520,,307-739-9507,WY,Suite G,83002,43.47006589999999,-110.7872894
E000294,02253,412639,E000294-otsego,9201 Quaday Ave. NE,,Otsego,763-241-7955,,763-241-6848,MN,Suite 206,55330,45.2839958,-93.5648066
E000295,02283,412667,E000295-cedar_rapids,111 Seventh Ave. SE,,Cedar Rapids,319-365-4683,8am-5pm CT,319-365-4504,IA,Suite 480,52401,41.9731139,-91.6645212
E000295,02283,412667,E000295-council_bluffs,8 S 6th St,Federal Building,Council Bluffs,712-352-0087,Please call to schedule an appointment,712-352-1167,IA,Suite 221,51501,41.2608863,-95.8525576
E000295,02283,412667,E000295-davenport,201 W. Second St.,,Davenport,563-322-0854,8am-5pm CT,563-322-0677,IA,Suite 806,52801,41.5213296,-90.5758645
E000295,02283,412667,E000295-des_moines,210 Walnut St.,733 Federal Building,Des Moines,515-284-4937,8am-5pm CT,515-284-4574,IA,,50309,41.5864152,-93.62015319999999
E000295,02283,412667,E000295-sioux_city,320 Sixth St.,194 Federal Building,Sioux City,712-252-1638,8am-5pm CT,712-252-1550,IA,,51101,42.4963261,-96.40758369999999
E000296,,412677,E000296-philadelphia,7174 Ogontz Ave.,,Philadelphia,215-276-2939,,215-276-0340,PA,,19138,40.063831,-75.153345
E000299,,412825,E000299-el_paso,221 N Kansas St,Wells Fargo Plaza,El Paso,,,915-541-1400,TX,Suite 1500,79901-1443,31.76012,-106.48618
F000062,01332,300043,F000062-fresno,2500 Tulare St.,,Fresno,559-485-9689,9AM-5PM,559-485-7430,CA,Suite 4290,93721,36.7374775,-119.7836709
F000062,01332,300043,F000062-los_angeles,11111 Santa Monica Blvd.,,Los Angeles,310-914-7318,9AM-5PM,310-914-7300,CA,Suite 915,90025,34.0476223,-118.444656
F000062,01332,300043,F000062-san_diego,880 Front St.,,San Diego,619-231-1108,9AM-5PM,619-231-9712,CA,Suite 4236,92101,32.7143481,-117.1647085
F000062,01332,300043,F000062-san_francisco,One Post Street,,San Francisco,415-393-0710,9AM-5PM,415-393-0707,CA,Suite 2450,94104,37.7887748,-122.4026656
F000449,01793,400640,F000449-fremont,641 N. Broad St.,,Fremont,,,402-727-0888,NE,,68026,41.43559459999999,-96.49880739999999
F000449,01793,400640,F000449-lincoln,301 S. 13th St.,,Lincoln,402-438-1604,,402-438-1598,NE,Suite 100,68508,40.8108404,-96.7033345
F000449,01793,400640,F000449-norfolk,506 W. Madison Ave.,,Norfolk,,,402-379-2064,NE,Suite 2,68701,42.0317036,-97.4144702
F000450,01791,400643,F000450-boone,400 Shadowline Dr.,,Boone,828-265-0390,Mon-Fri 9am-5pm,828-265-0240,NC,Suite 205,28607,36.2033658,-81.65849589999999
F000450,01791,400643,F000450-clemmons,3540 Clemmons Rd.,,Clemmons,336-778-2290,"Monday - Friday, 9am - 5pm",336-778-0211,NC,Suite 125,27012,36.0225285,-80.3758084
F000454,01888,412257,F000454-aurora,2711 E. New York St.,,Aurora,,M-F 9-5:00 PM,630-585-7672,IL,Suite 204,60502,41.758276,-88.249771
F000454,01888,412257,F000454-joliet,195 Springfield Ave.,,Joliet,,M-F 9-5:00 PM,815-280-5876,IL,Suite 102,60435,41.52538759999999,-88.1380854
F000455,01895,412327,F000455-akron,1225 Lawton St.,,Akron,330-835-4863,,330-835-4758,OH,,44320,41.080905,-81.565018
F000455,01895,412327,F000455-warrensville_heights,4834 Richmond Rd.,,Warrensville Heights,216-522-4908,,216-522-4900,OH,Suite 150,44128,41.4286825,-81.4985324
F000459,02061,412476,F000459-athens,6 E. Madison Ave.,,Athens,423-745-6025,Monday-Friday 9:00AM-5:00PM,423-745-4671,TN,,37303,35.441192,-84.594681
F000459,02061,412476,F000459-chattanooga,900 Georgia Ave.,,Chattanooga,423-756-6613,Monday-Friday 9:00AM-5:00PM,423-756-2342,TN,Suite 126,37402,35.0450875,-85.3082146
F000459,02061,412476,F000459-oak_ridge,200 Administration Rd.,,Oak Ridge,865-576-3221,Monday-Friday 9:00AM-5:00PM,865-576-1976,TN,Suite 100,37830,36.02409,-84.23490799999999
F000461,02065,412480,F000461-austin,14205 Burnet Rd,,Austin,512-373-3511,,512-373-3378,TX,Suite 230,78728,30.4436527,-97.69572099999999
F000461,02065,412480,F000461-bryan,3000 Briarcrest Dr.,,Bryan,979-703-8845,,979-703-4037,TX,Suite 406,77802,30.6609467,-96.328648
F000461,02065,412480,F000461-waco,400 Austin Ave.,,Waco,254-732-1755,,254-732-0748,TX,Suite 302,76701,31.5572533,-97.130924
F000462,02119,412529,F000462-boca_raton,2500 N. Military Trl.,,Boca Raton,561-998-9048,,561-998-9045,FL,Suite 490,33431,26.3730924,-80.1203093
F000463,02179,412556,F000463-kearney,20 W. 23rd St.,,Kearney,308-234-3684,,308-234-2361,NE,,68847,40.6986843,-99.0819184
F000463,02179,412556,F000463-lincoln,440 N. 8th St.,,Lincoln,402-476-8753,,402-441-4600,NE,Suite 120,68508,40.8177383,-96.7095183
F000463,02179,412556,F000463-omaha,11819 Miracle Hills Drive,,Omaha,402-391-4725,,402-391-3411,NE,Suite 205,68154,41.26733180000001,-96.0980857
F000463,02179,412556,F000463-scottsbluff,120 East 16th St.,,Scottsbluff,308-630-2321,,308-630-2329,NE,Suite 203,69361,41.8680501,-103.6483008
F000465,,412700,F000465-newnan,1601 E Hwy 34,,Newnan,,,770-683-2033,GA,Suite B,30265,33.3996108,-84.72636159999999
F000466,,412721,F000466-langhorne,1717 Langhorne-Newtown Rd.,,Langhorne,215-579-8109,,215-579-8102,PA,Suite 400,19047,40.2162341,-74.9308492
F000467,,412771,F000467-cedar_rapids,308 3rd St SE,,Cedar Rapids,,,319-364-2288,IA,Suite 200,52401-1849,41.97765,-91.66568
F000468,,412824,F000468-houston,5599 San Felipe St,,Houston,,,,TX,Suite 950,77056-2724,29.74946,-95.47373
F000469,,412773,F000469-coeur_d_alene,1250 W Ironwood Dr,,Coeur D Alene,208-667-0310,,208-667-0127,ID,Suite 241,83814-2679,47.69725,-116.80272
F000469,,412773,F000469-lewiston,313 D St,,Lewiston,,,208-743-1388,ID,Suite 107,83501-1894,46.42199,-117.02845
F000469,,412773,F000469-meridian,33 E Broadway Ave,,Meridian,208-888-0894,,208-888-3188,ID,Suite 251,83642-2619,43.61003,-116.3929
G000359,00452,300047,G000359-columbia,508 Hampton St.,,Columbia,803-933-0957,,803-933-0112,SC,Suite 202,29201,34.0016459,-81.0461408
G000359,00452,300047,G000359-florence,401 W. Evans St.,McMillan Federal Building,Florence,843-669-9015,,843-669-1505,SC,Suite 111,29501,34.1974074,-79.7733804
G000359,00452,300047,G000359-greenville,130 S. Main St.,,Greenville,864-250-4322,,864-250-1417,SC,7th Floor,29601,34.84875359999999,-82.4004437
G000359,00452,300047,G000359-mt__pleasant,530 Johnnie Dodds Blvd.,,Mt. Pleasant,843-971-3669,,843-849-3887,SC,Suite 202,29464,32.8060149,-79.88793369999999
G000359,00452,300047,G000359-pendleton,124 Exchange St.,,Pendleton,864-646-8609,,864-646-4090,SC,Suite A,29670,34.65072,-82.782997
G000359,00452,300047,G000359-rock_hill,235 E. Main St.,,Rock Hill,803-366-5353,,803-366-2828,SC,Suite 100,29730,34.9245162,-81.0247705
G000377,01487,400157,G000377-fort_worth,1701 River Run Rd.,,Fort Worth,817-335-5852,M-F 8:30AM - 5:00PM,817-338-0909,TX,Suite 407,76107,32.7270777,-97.3597301
G000386,00457,300048,G000386-cedar_rapids,111 7th Ave. SE,,Cedar Rapids,319-363-7179,,319-363-6832,IA,Suite 6800,52401,41.9731139,-91.6645212
G000386,00457,300048,G000386-council_bluffs,8 S. 6th St.,Federal Building,Council Bluffs,712-322-7196,,712-322-7103,IA,307,51501,41.2608863,-95.8525576
G000386,00457,300048,G000386-davenport,201 W. 2nd St.,,Davenport,563-322-8552,,563-322-4331,IA,Suite 720,52801,41.5213296,-90.5758645
G000386,00457,300048,G000386-des_moines,210 Walnut St.,Federal Building,Des Moines,515-288-5097,,515-288-1145,IA,721,50309,41.5864152,-93.62015319999999
G000386,00457,300048,G000386-sioux_city,320 6th St.,Federal Building,Sioux City,712-233-1634,,712-233-1860,IA,120,51101,42.4963261,-96.40758369999999
G000386,00457,300048,G000386-waterloo,531 Commercial St.,Waterloo Building,Waterloo,319-232-9965,,319-232-6657,IA,210,50701,42.4953784,-92.339384
G000546,01656,400158,G000546-hannibal,906 Broadway,,Hannibal,,By Appointment,573-221-3400,MO,,63401,39.7065377,-91.36431680000001
G000546,01656,400158,G000546-kansas_city,11724 NW Plaza Circle,,Kansas City,816-792-0694,,816-792-3976,MO,Suite 900,64153,39.3060799,-94.68496599999999
G000546,01656,400158,G000546-st__joseph,411 Jules St.,,St. Joseph,816-749-0801,,816-749-0800,MO,Room 111,64501,39.7685973,-94.8548563
G000551,01708,400162,G000551-avondale,1412 N. Central Ave.,,Avondale,623-535-7479,,623-536-3388,AZ,Suite B,85323,33.4487419,-112.3501093
G000551,01708,400162,G000551-somerton,146 N. State Ave.,,Somerton,928-343-7949,,928-343-7933,AZ,,85350,32.5960917,-114.7109846
G000551,01708,400162,G000551-tucson,101 W. Irvington Road,El Pueblo Community Center,Tucson,520-622-0198,,520-622-6788,AZ,Buildings 4 and 5,85714,32.163554,-110.969568
G000552,01801,400651,G000552-longview,101 E. Methvin,,Longview,903-561-7110,,903-236-8597,TX,Suite 302,75601,32.4970151,-94.73894650000001
G000552,01801,400651,G000552-lufkin,300 E. Shepherd,,Lufkin,903-561-7110,,936-632-3180,TX,Suite 210,75901,31.3368848,-94.7268845
G000552,01801,400651,G000552-marshall,102 W. Houston St.,,Marshall,903-561-7110,,903-938-8386,TX,,75670,32.5447093,-94.36734899999999
G000552,01801,400651,G000552-nacogdoches,101 W. Main,,Nacogdoches,903-561-7110,,936-715-9514,TX,Suite 160,75961,31.6036806,-94.6565524
G000552,01801,400651,G000552-tyler,1121 ESE Loop 323,,Tyler,903-561-7110,,903-561-6349,TX,Suite 206,75701,32.3031236,-95.28684349999999
G000553,01803,400653,G000553-houston,3003 South Loop West,,Houston,713-383-9202,M-F 9AM-5PM CST,713-383-9234,TX,Suite 460,77054,29.6765115,-95.4252617
G000555,01866,412223,G000555-albany,11A Clinton Avenue,Leo W. O’Brien Federal Office Building,Albany,518-431-0128,,518-431-0120,NY,Room 821,12207,42.655222,-73.7492819
G000555,01866,412223,G000555-buffalo,726 Exchange St.,Larkin At Exchange,Buffalo,716-854-9731,,716-854-9725,NY,Suite 511,14210,42.8747911,-78.851165
G000555,01866,412223,G000555-lowville,PO Box 273,,Lowville,315-376-6118,,315-376-6118,NY,,13367,,
G000555,01866,412223,G000555-new_york,780 Third Ave.,,New York,866-824-6340,,212-688-6262,NY,Suite 2601,10017,40.7550353,-73.97185879999999
G000555,01866,412223,G000555-melville,155 Pinelawn Rd.,,Melville,631-249-2847,,631-249-2825,NY,Suite 250 North,11747,40.7707877,-73.41024759999999
G000555,01866,412223,G000555-rochester,100 State St.,Kenneth B. Keating Federal Office Building,Rochester,585-263-6247,,585-263-6250,NY,Room 4195,14614,43.1576631,-77.613515
G000555,01866,412223,G000555-syracuse,100 S. Clinton St.,James M. Hanley Federal Building,Syracuse,315-448-0476,,315-448-0470,NY,Room 1470,13261,43.0501042,-76.1543204
G000555,01866,412223,G000555-yonkers,PO Box 749,,Yonkers,845-875-9099,,845-875-4585,NY,,10710-0749,,
G000558,01922,412278,G000558-bowling_green,996 Wilkinson Trce.,,Bowling Green,270-842-9081,,270-842-9896,KY,Suite B2,42103,36.9671412,-86.4282633
G000558,01922,412278,G000558-owensboro,2200 Airport Rd.,,Owensboro,,,,KY,,42301,37.7493662,-87.1617598
G000558,01922,412278,G000558-radcliff,411 W. Lincoln Trail Blvd.,,Radcliff,,,,KY,,40160,37.8379989,-85.9440374
G000559,01973,412382,G000559-davis,412 G St.,,Davis,530-753-5614,Mon-Fri 9AM-5PM,530-753-5301,CA,,95616,38.5466673,-121.7395708
G000559,01973,412382,G000559-fairfield,1261 Travis Blvd.,,Fairfield,707-438-0523,M-F 9AM-5PM PT,707-438-1822,CA,Suite 130,94533,38.2576953,-122.0494716
G000560,01979,412388,G000560-dalton,702 S. Thornton Ave.,,Dalton,706-278-0840,,706-226-5320,GA,,30720,34.7627274,-84.9720332
G000560,01979,412388,G000560-rome,600 E. First St.,,Rome,706-232-7864,,706-290-1776,GA,Suite 301,30161,34.2553159,-85.1670568
G000562,01998,412406,G000562-colorado_springs,102 S. Tejon St.,,Colorado Springs,,,719-632-6706,CO,Suite 930,80903,38.83199949999999,-104.8240571
G000562,01998,412406,G000562-denver,721 19th St.,,Denver,,,303-391-5777,CO,Suite 150,80202,39.7485943,-104.9908558
G000562,01998,412406,G000562-durango,329 S. Camino Del Rio,,Durango,,,970-259-1231,CO,Suite I,81303,37.2508296,-107.880109
G000562,01998,412406,G000562-fort_collins,2001 S. Shields St.,"Building H, Suite 104",Fort Collins,,,970-484-3502,CO,,80526,40.5607326,-105.0969106
G000562,01998,412406,G000562-grand_junction,400 Rood Ave.,Federal Bldg.,Grand Junction,,,970-245-9553,CO,Suite 220,81501,39.06856490000001,-108.5657085
G000562,01998,412406,G000562-greeley,801 8th St.,,Greeley,,,970-352-5546,CO,Suite 140A,80631,40.425174,-104.6910459
G000562,01998,412406,G000562-pueblo,503 N. Main St.,,Pueblo,,,719-543-1324,CO,Suite 426,81003,38.27203069999999,-104.60937
G000562,01998,412406,G000562-yuma,529 N. Albany St.,,Yuma,,,970-848-3095,CO,Suite 1220,80759,40.1304123,-102.7221695
G000563,02049,412463,G000563-ashland,110 Cottage St.,,Ashland,419-207-0655,Monday to Friday  9AM to 5PM,419-207-0650,OH,,44805,40.86905120000001,-82.31826099999999
G000563,02049,412463,G000563-canton,110 Central Plaza South,,Canton,,Monday to Friday  By Appointment Only,330-737-1631,OH,,44702,40.797956,-81.37428899999999
G000565,01992,412397,G000565-kingman,220 N. 4th St.,,Kingman,,,,AZ,,86401,35.1904088,-114.0525545
G000565,01992,412397,G000565-gold_canyon,6499 S. Kings Ranch Rd.,,Gold Canyon,,,480-882-2697,AZ,#4,85118,33.3557193,-111.4526421
G000565,01992,412397,G000565-prescott,122 N. Cortez St.,,Prescott,,,928-445-1683,AZ,Suite 104,86301,34.5427185,-112.4690897
G000568,02070,412485,G000568-abingdon,323 W. Main St.,,Abingdon,276-525-1444,,276-525-1405,VA,,24210,36.7086253,-81.98113049999999
G000568,02070,412485,G000568-big_stone_gap,322 E. Wood Ave,Federal Courthouse,Big Stone Gap,,By Appointment Only,276-525-1405,VA,,24219,36.8667619,-82.77537319999999
G000568,02070,412485,G000568-christiansburg,17 W. Main St.,,Christiansburg,540-381-5675,,540-381-5671,VA,,24073,37.1296267,-80.4095978
G000571,02122,412532,G000571-honolulu,300 Ala Moana Blvd.,,Honolulu,808-538-0233,,808-541-1986,HI,Rm. 5-104,96850,21.3036893,-157.862353
G000574,02226,412612,G000574-phoenix,411 N. Central Ave.,,Phoenix,602-257-9103,,602-256-0551,AZ,Suite 150,85004,33.452957,-112.0734511
G000576,02276,412661,G000576-fond_du_lac,24 W. Pioneer Rd.,,Fond du Lac,,,920-907-0624,WI,,54935,43.7522376,-88.4509945
G000577,02245,412631,G000577-baton_rouge,2351 Energy Dr.,,Baton Rouge,225-442-1736,,225-442-1731,LA,Suite 1200,70808,30.4265187,-91.1316524
G000577,02245,412631,G000577-livingston,29261 Frost Rd.,Livingston Parish Government Building,Livingston,225-442-1736,,225-686-4413,LA,2nd Floor,70754,30.48302409999999,-90.7486419
G000577,02245,412631,G000577-thibodaux,908 E. 1st St.,"NSU Campus, Candies Hall",Thibodaux,225-442-1736,,985-448-4103,LA,Suite 405,70301,29.795623,-90.8011997
G000578,,412690,G000578-fort_walton_beach,"1170 Martin Luther King, Jr. Blvd.",Building 4,Fort Walton Beach,,Call for an appointment,850-479-1183,FL,Room 454,32547,30.4533965,-86.6552739
G000578,,412690,G000578-pensacola,226 S Palafox Place,,Pensacola,,9am-4pm,850-479-1183,FL,6th Floor,32502,30.4670273,-87.2032093
G000579,,412731,G000579-de_pere,1702 Scheuring Rd,,De Pere,,,920-301-4500,WI,B,54115-9567,44.43087,-88.1046
G000581,,412725,G000581-benavides,131 W. Main St.,,Benavides,,Wednesday 9-12 and 1-5 CT,888-217-0261,TX,,78341,27.5968913,-98.4176561
G000581,,412725,G000581-san_diego,404 S. Mier St.,,San Diego,,Monday 9-12 & 1-5 CT,888-217-0261,TX,,78384,27.7605991,-98.2413715
G000581,,412725,G000581-falfurrias,217 E. Miller St.,,Falfurrias,,Tuesday 9 a.m.- 12 p.m. & 1 p.m.-5 p.m. CT,361-209-3027,TX,Suite 200,78355,27.2260914,-98.1424972
G000581,,412725,G000581-mcallen,1305 W Hackberry Ave,,McAllen,,9 a.m.-6 p.m. CT,956-682-5545,TX,,78501-4306,26.21101,-98.23214
G000581,,412725,G000581-seguin,1243 Cardinal Ln,,Seguin,,8 a.m. - 12 p.m. CT,830-358-0497,TX,,78155-3915,29.57597,-97.94818
G000582,,412723,G000582-san_juan,P.O. Box 9023958,,San Juan,787-729-7738,,787-723-6333,PR,,00902-3958,,
G000583,,412714,G000583-glen_rock,65 Harristown Rd.,,Glen Rock,,9AM-5PM,201-389-1100,NJ,Suite 104,07452,40.9506625,-74.143801
G000583,,412714,G000583-newton,93 Spring St.,,Newton,,"M,W,F 9AM-5PM",973-940-1117,NJ,Suite 408,07860,41.0581593,-74.7544134
G000583,,412714,G000583-ringwood,60 Margaret King Ave.,,Ringwood,,TH 1PM-4:30PM,973-814-4076,NJ,,07456,41.129452,-74.2672991
G000583,,412714,G000583-washington,100 Belvidere Ave,,Washington,,TH 9AM-1PM,973-814-4076,NJ,,07882,40.7599515,-74.9823375
G000583,,412714,G000583-hackensack,65 Central Ave,,Hackensack,,W 12-4PM,973-814-4076,NJ,,07601,40.8857964,-74.046227
G000583,,412714,G000583-vernon_township,21 Church St.,,Vernon Township,,T 9AM-1PM,973-814-4076,NJ,,07462,41.2025042,-74.4855857
G000586,,412774,G000586-chicago,3240 W Fullerton Ave,,Chicago,,,773-342-0774,IL,,60647-2512,41.92478,-87.70907
G000587,,412827,G000587-houston,11811 East Fwy,,Houston,,,832-325-3150,TX,Suite 430,77029-1974,29.77243,-95.22857
G000588,,412807,G000588-canton,4150 Belden Village St NW,,Canton,,,330-599-7037,OH,Suite 607,44718-2595,40.85516,-81.42644
G000588,,412807,G000588-strongsville,13477 Prospect Rd,,Strongsville,,,440-783-3696,OH,Suite 212,44149-3867,41.31615,-81.85719
G000589,,412822,G000589-mesquite,18601 Lyndon B Johnson Fwy,,Mesquite,,,214-765-6789,TX,Suite 725,75150-5600,32.80522,-96.62753
G000590,,412819,G000590-clarksville,128 N 2nd St,House Office,Clarksville,,,202-225-2811,TN,Suite 104,37040-6458,36.52823,-87.35903
G000590,,412819,G000590-franklin,305 Public Sq,,Franklin,,,,TN,Suite 212,37064-2580,35.92501,-86.86902
G000591,,412793,G000591-brandon,308B E Government St,,Brandon,,,769-241-6120,MS,,39042-3262,32.27296,-89.98226
G000591,,412793,G000591-meridian,2214 5th St,,Meridian,,,601-693-6681,MS,Suite 2170,39301-5809,32.36409,-88.70031
G000591,,412793,G000591-starkville,600 Russell St,,Starkville,,,662-324-0007,MS,Suite 160,39759-8505,33.45683,-88.68608
G000592,,412842,G000592-bangor,6 State St,,Bangor,,,207-249-7400,ME,Suite 101,04401-5112,44.8023,-68.77015
G000592,,412842,G000592-caribou,7 Hatch Dr,,Caribou,,,207-492-6009,ME,Suite 230,04736-2159,46.85918,-68.01637
G000592,,412842,G000592-lewiston,179 Lisbon St,,Lewiston,,,207-241-6767,ME,,04240-7248,44.09552,-70.21691
H000324,00511,400170,H000324-fort_lauderdale,2701 W. Oakland Park Blvd.,,Fort Lauderdale,954-735-9444,,954-733-2800,FL,Suite 200,33311,26.165965,-80.1797155
H000324,00511,400170,H000324-mangonia_park,1755 E. Tiffany Dr.,Town of Mangonia Park Municipal Center,Mangonia Park,,,561-469-7048,FL,,33407,26.7555179,-80.081968
H000874,00566,400189,H000874-greenbelt,6500 Cherrywood Ln.,U.S. District Courthouse,Greenbelt,301-474-4697,Mon-Fri 9am-5pm,301-474-0119,MD,Suite 310,20770,39.0089504,-76.8952351
H000874,00566,400189,H000874-white_plains,4475 Regency Pl.,,White Plains,301-843-1331,Mon-Fri 9am-5pm,301-843-1577,MD,Suite 203,20695,38.5923982,-76.9415779
H001038,01794,400641,H001038-buffalo,726 Exchange St.,Larkin at Exchange,Buffalo,716-852-3929,,716-852-3501,NY,Suite 601,14210,42.8747911,-78.851165
H001038,01794,400641,H001038-niagara_falls,800 Main St.,,Niagara Falls,716-282-2479,,716-282-1274,NY,Suite 3C,14301,43.09677019999999,-79.0554227
H001042,01844,412200,H001042-honolulu,300 Ala Moana Blvd.,Prince Kuhio Federal Building,Honolulu,808-545-4683,,808-522-8970,HI,Rm. 3-106,96850,21.3036893,-157.862353
H001046,01937,412281,H001046-albuquerque,400 Gold Ave. SW,,Albuquerque,505-346-6780,,505-346-6601,NM,Suite 1080,87102,35.0833514,-106.6521937
H001046,01937,412281,H001046-farmington,7450 E. Main St.,,Farmington,505-325-6035,,505-325-5030,NM,Suite A,87402,36.7863602,-108.1112628
H001046,01937,412281,H001046-las_cruces,505 S. Main St.,Loretto Towne Center,Las Cruces,575-523-6584,,575-523-6561,NM,Suite 148,88001,32.3041597,-106.7758242
H001046,01937,412281,H001046-roswell,200 E. 4th St.,,Roswell,575-622-3538,,575-622-7113,NM,Suite 300,88201,33.39647,-104.521106
H001046,01937,412281,H001046-santa_fe,123 E. Marcy St.,,Santa Fe,505-992-8435,,505-988-6647,NM,Suite 103,87501,35.6889043,-105.9354058
H001047,01913,412282,H001047-bridgeport,211 State St.,,Bridgeport,203-333-6655,M - F 9:00 am to 5:00 pm,203-333-6600,CT,2nd Floor,06604,41.1763593,-73.1898756
H001047,01913,412282,H001047-stamford,888 Washington Blvd.,,Stamford,203-323-1793,Mon-Fri 9:00 am to 5:00 pm,203-353-9400,CT,10th Floor,06901,41.0514745,-73.5428955
H001048,01909,412283,H001048-el_cajon,1611 N. Magnolia Ave.,,El Cajon,619-449-2251,M-F 9am-5pm,619-448-5201,CA,Suite 310,92020,32.820926,-116.9614599
H001048,01909,412283,H001048-temecula,41000 Main St.,,Temecula,,"Tues, Wed, Thurs, 10am-3pm",951-695-5108,CA,,92590,33.4941712,-117.1470449
H001052,02026,412434,H001052-bel_air,15 E. Churchville Rd.,,Bel Air,410-588-5673,By appointment only,410-588-5670,MD,Suite 102B,21014,39.535151,-76.34646289999999
H001052,02026,412434,H001052-chester,100 Olde Point Village,KENT ISLAND OFFICE,Chester,410-643-5429,By appointment only,410-643-5425,MD,Suite 101,21619,38.975324,-76.28993
H001052,02026,412434,H001052-salisbury,100 E. Main St.,,Salisbury,443-944-8625,By appointment only,443-944-8624,MD,Suite 702,21801,38.3652997,-75.600858
H001053,02032,412444,H001053-columbia,2415 Carter Ln.,,Columbia,573-442-9309,,573-442-9311,MO,Suite 4,65201,38.9230515,-92.3365352
H001053,02032,412444,H001053-harrisonville,1909 N. Commercial St.,,Harrisonville,816-884-3163,,816-884-3411,MO,,64701,38.6630256,-94.36446319999999
H001053,02032,412444,H001053-lebanon,219 N. Adams St.,,Lebanon,417-532-3886,,417-532-5582,MO,,65536,37.6821821,-92.6645922
H001056,02071,412486,H001056-chehalis,350 N. Market Blvd.,Chehalis City Hall Building,Chehalis,,Tuesdays from 11:30am - 1:00pm,,WA,,98532,46.6639928,-122.9672327
H001056,02071,412486,H001056-vancouver,750 Anderson St.,O.O. Howard House (Officers' Row),Vancouver,360-695-6197,,360-695-6292,WA,Suite B,98661,45.6281298,-122.6643142
H001058,02028,412437,H001058-grand_haven,1 S. Harbor Ave.,,Grand Haven,616-570-0934,,616-414-5516,MI,Suite 6B,49417,43.0647606,-86.23465929999999
H001058,02028,412437,H001058-grandville,4555 Wilson Ave. SW,,Grandville,616-570-0934,,616-570-0917,MI,Suite 3,49418,42.881882,-85.763622
H001061,02079,412494,H001061-bismarck,220 E. Rosser Ave.,U.S. Federal Building,Bismarck,701-250-4484,,701-250-4618,ND,Room 312,58501,46.80901129999999,-100.7882597
H001061,02079,412494,H001061-fargo,123 Broadway North,,Fargo,202-228-5112,,701-239-5389,ND,Suite 201,58102,46.8778235,-96.7894805
H001061,02079,412494,H001061-grand_forks,102 N. Fourth St.,Federal Building,Grand Forks,,,701-746-8972,ND,Room 108,58203,47.9255358,-97.03273929999999
H001061,02079,412494,H001061-minot,100 1st St. SW,,Minot,701-838-1381,,701-838-1361,ND,Suite 107,58701,48.2351551,-101.2950057
H001061,02079,412494,H001061-watford_city,,,Watford City,,,701-609-2727,ND,,,,
H001064,02170,412584,H001064-lacey,420 College St. SE,Lacey City Hall,Lacey,,M-F 8-5:00pm PST,360-459-8514,WA,Suite 3000,98503,47.04487049999999,-122.8223848
H001064,02170,412584,H001064-lakewood,6000 Main St. SW,,Lakewood,,call first to make an appointment,253-533-8332,WA,Suite 3B,98499,47.1615029,-122.51552
H001065,02143,412553,H001065-raleigh,6404 Falls of Neuse Rd.,,Raleigh,919-782-4490,Mon - Fri: 8:30 to 5:30 pm,919-782-4400,NC,Suite 103,27615,35.8702107,-78.6230659
H001066,02147,412559,H001066-north_las_vegas,2250 Las Vegas Blvd N,,North Las Vegas,,,702-963-9360,NV,Suite 500,89030-5877,36.19944,-115.1215
H001067,02140,412550,H001067-concord,"325 Mcgill Ave, NW",,Concord,704-782-1004,M-F 8:30-5:30pm,704-786-1612,NC,Suite 500,28027,35.4150032,-80.6027893
H001067,02140,412550,H001067-fayetteville,225 Green Street,,Fayetteville,910-817-7202,Mon-Fri 8:30am-5:30pm,910-997-2070,NC,Suite 202,28301,35.054944,-78.877151
H001067,02140,412550,H001067-pinehurst,3395 Airport Rd,Sandhills Community College Van Dusen Building,Pinehurst,,Tues and Thurs 8:30am-5:30pm and by appointment,910-246-5374,NC,Suite 114,28374,35.219259,-79.405317
H001068,02101,412511,H001068-eureka,317 Third St.,,Eureka,707-407-3559,,707-407-3585,CA,Suite 1,95501,40.8035929,-124.1682054
H001068,02101,412511,H001068-fort_bragg,430 N. Franklin St.,,Fort Bragg,707-962-0905,,707-962-0933,CA,P.O. Box 2208,95437,39.44613289999999,-123.8042883
H001068,02101,412511,H001068-petaluma,206 G St.,,Petaluma,,,707-981-8967,CA,Unit #3,94952,38.2315024,-122.6330448
H001068,02101,412511,H001068-san_rafael,999 Fifth Ave.,,San Rafael,415-258-9913,,415-258-9657,CA,Suite 290,94901,37.9738069,-122.5267
H001068,02101,412511,H001068-ukiah,559 Low Gap Rd.,,Ukiah,707-671-7449,,707-962-0905,CA,,95482,39.1598605,-123.2154259
H001071,02237,412623,H001071-milledgeville,3015 Heritage Rd.,,Milledgeville,478-451-2911,,478-457-0007,GA,Suite 6,31061,33.1204264,-83.2592841
H001071,02237,412623,H001071-monroe,100 Court St.,,Monroe,770-266-6751,,770-207-1776,GA,,30655,33.7942004,-83.71309769999999
H001071,02237,412623,H001071-thomson,210 Railroad St.,City-County Administration,Thomson,770-266-6751,,770-207-1776,GA,Room 2401,30824,33.4671424,-82.4986906
H001072,02223,412609,H001072-conway,1105 Deer St.,,Conway,501-358-3494,,501-358-3481,AR,Suite 12,72032,35.0868894,-92.4381401
H001072,02223,412609,H001072-little_rock,1501 N. University Ave.,,Little Rock,501-324-6029,,501-324-5941,AR,Suite 630,72207,34.76512630000001,-92.3397715
H001073,02269,412654,H001073-del_rio,1104 West 10th,,Del Rio,,Call to make an appointment,830-422-2040,TX,,78840,29.3705708,-100.9202206
H001073,02269,412654,H001073-eagle_pass,100 S. Monroe St.,,Eagle Pass,,Call to make an appointment,210-784-5023,TX,,78852,28.706671,-100.50032
H001073,02269,412654,H001073-fort_stockton,103 West Callaghan,Pecos County Courthouse,Fort Stockton,,"Third Tuesday, Wednesday, and Thursday of the month from 8am-5pm, or call to make an appointment",210-245-1961,TX,First Floor,79735,30.8834552,-102.881413
H001073,02269,412654,H001073-san_antonio,727 E Cesar E Chavez Blvd,San Antonio Federal Building,San Antonio,210-927-4903,,210-921-3130,TX,,78206-1209,29.41656,-98.48416
H001073,02269,412654,H001073-socorro,124 S. Horizon,,Socorro,,Call to make an appointment,915-235-6421,TX,,79927,31.6495216,-106.2845808
H001074,,412703,H001074-jeffersonville,321 Quartermaster Ct.,,Jeffersonville,,,812-288-3999,IN,,47130,38.2842586,-85.7435028
H001074,,412703,H001074-franklin,100 E Jefferson St,,Franklin,,,317-851-8710,IN,,46131-2323,39.48083,-86.05373
H001080,,412800,H001080-albuquerque,400 Gold Ave SW,,Albuquerque,,,505-346-6781,NM,Suite 680,87102-3283,35.08338,-106.65274
H001081,,412763,H001081-waterbury,108 Bank St,,Waterbury,,,860-223-8412,CT,2nd Floor,06702-2233,41.55442,-73.04104
H001083,,412808,H001083-oklahoma_city,400 N Walker Ave,,Oklahoma City,,,405-602-3074,OK,Suite 210,73102-1886,35.47102,-97.5212
H001085,,412810,H001085-reading,815 Washington St,,Reading,,,610-295-0815,PA,2-48,19601-3615,40.33695,-75.92123
H001088,,412788,H001088-mankato,11 Civic Center Plz,,Mankato,,,507-323-6090,MN,Suite 301,56001-7710,44.19115,-93.94899
H001088,,412788,H001088-rochester,1530 Greenview Dr SW,,Rochester,,,507-323-6090,MN,Ste. 207,55902-4286,44.00307,-92.48603
H001090,,412754,H001090-modesto,4701 Sisk Rd,,Modesto,,,209-579-5458,CA,Suite 202,95356-9320,37.70589,-121.07707
I000024,00583,300055,I000024-enid,302 N. Independence,,Enid,580-234-5094,,580-234-5105,OK,#104,73701,36.3993287,-97.8803343
I000024,00583,300055,I000024-mcalester,215 E. Choctaw Ave.,,McAlester,918-426-0935,,918-426-0933,OK,#106,74501,34.931573,-95.7671124
I000024,00583,300055,I000024-oklahoma_city,3817 NW Expressway,,Oklahoma City,405-208-8841,,405-604-0917,OK,#780,73112,35.5361791,-97.5879455
I000024,00583,300055,I000024-tulsa,1924 S. Utica Ave.,,Tulsa,918-748-5119,,918-748-5111,OK,#530,74104-6511,36.13417190000001,-95.96760839999999
I000055,01608,400194,I000055-atlanta,3625 Cumberland Blvd.,One Overton Park,Atlanta,770-661-0768,,770-661-0999,GA,Suite 970,30339,33.8841172,-84.4539174
J000032,00588,400199,J000032-houston,4300 Lyons Ave.,,Houston,,M-F 9-5:30pm,713-227-7740,TX,,77020,29.7758442,-95.3269342
J000032,00588,400199,J000032-houston-1,1919 Smith St.,,Houston,713-655-1612,M-F 9-5:30pm,713-655-0050,TX,Suite 1180,77002,29.7519042,-95.37360579999999
J000032,00588,400199,J000032-houston-2,6719 W Montgomery Rd,,Houston,,M-F 9-5:30pm,713-691-4882,TX,Suite 204,77091-3105,29.85686,-95.42124
J000032,00588,400199,J000032-houston-3,420 W 19th St,,Houston,,M-F 9-5:30pm,713-861-4070,TX,,77008-3914,29.8026,-95.4038
J000126,00599,400204,J000126-dallas,1825 Market Center Blvd.,,Dallas,214-922-7028,M-F 9-6pm,214-922-8885,TX,Suite 440,75207,32.7946832,-96.8263983
J000288,01843,412199,J000288-decatur,5240 Snapfinger Park Dr.,,Decatur,770-987-8721,,770-987-2291,GA,Suite 130,30035,33.704214,-84.1763731
J000289,01868,412226,J000289-bucyrus,500 S. Sandusky Ave.,,Bucyrus,,Tu/Th - 8am to 4:30pm,419-663-1426,OH,,44820,40.8042672,-82.9752194
J000289,01868,412226,J000289-lima,3121 W. Elm Plz.,,Lima,419-999-4238,M-F 8:30AM-5PM,419-999-6455,OH,,45805,40.7369756,-84.161425
J000289,01868,412226,J000289-norwalk,13 B E. Main St.,,Norwalk,419-668-3015,M-F 8:30AM-5PM,419-663-1426,OH,,44857,41.2425971,-82.6150462
J000292,02046,412460,J000292-cambridge,116 Southgate Pkwy.,,Cambridge,740-432-2587,,740-432-2366,OH,,43725,40.0243891,-81.5899869
J000292,02046,412460,J000292-ironton,202 Park Ave.,,Ironton,740-534-9482,,740-534-9431,OH,Suite C,45638,38.5344281,-82.68547079999999
J000292,02046,412460,J000292-marietta,246 Front St.,,Marietta,740-376-0886,,740-376-0868,OH,,45750,39.413511,-81.45460899999999
J000292,02046,412460,J000292-salem,192 E. State St.,,Salem,330-337-7125,,330-337-6951,OH,,44460,40.9010799,-80.8561222
J000293,02086,412496,J000293-milwaukee,517 E. Wisconsin Ave.,,Milwaukee,414-276-7284,,414-276-7282,WI,Suite 408,53202,43.0382241,-87.90455999999999
J000293,02086,412496,J000293-oshkosh,219 Washington Ave.,,Oshkosh,920-230-7262,,920-230-7250,WI,Suite 100,54901,44.0174081,-88.5343632
J000293,02086,412496,J000293-madison,5315 Wall St.,,Madison,608-240-9646,,608-240-9629,WI,Suite 110,53718,43.1317039,-89.289711
J000294,02149,412561,J000294-brooklyn,445 Neptune Ave,,Brooklyn,,Mon-Fri 9 am to 5pm,718-373-0033,NY,"1st Floor, Community Room 2C",11224,40.5809199,-73.9696891
J000294,02149,412561,J000294-brooklyn-1,55 Hanson Pl.,,Brooklyn,,M-F 9 am - 5pm,718-237-2211,NY,Suite 603,11217,40.6856283,-73.97577559999999
J000295,02154,412566,J000295-mentor,8500 Station St,,Mentor,440-266-9004,,440-352-3939,OH,Suite 390,44060,41.679062,-81.335902
J000295,02154,412566,J000295-twinsburg,10075 Ravenna Road,Twinsburg Gov. Center,Twinsburg,330-425-7071,,330-357-4139,OH,,44087,41.3183054,-81.4478297
J000298,,412730,J000298-seattle,1904 3rd Ave.,,Seattle,,,206-674-0040,WA,Suite 510,98101,47.6119653,-122.3397313
J000299,,412706,J000299-bossier_city,2250 Hospital Dr.,,Bossier City,,,318-840-0309,LA,Suite 248,71111,32.5579513,-93.7228425
J000299,,412706,J000299-natchitoches,444 Caspari Dr.,South Hall,Natchitoches,,By appointment,318-357-5731,LA,Room 224,71497,31.7479383,-93.0970551
J000299,,412706,J000299-leesville,3329 University Parkway,Building 552,Leesville,,,337-392-3146,LA,Room 24,71446,31.0884912,-93.2312895
J000301,,412816,J000301-aberdeen,304 6th Ave SE,,Aberdeen,605-262-0150,,605-622-1060,SD,,57401-6102,45.45894,-98.48235
J000301,,412816,J000301-rapid_city,2525 W Main St,,Rapid City,,,605-646-6454,SD,Suite 310,57702-0901,44.08216,-103.26037
J000301,,412816,J000301-sioux_falls,300 N Dakota Ave,,Sioux Falls,,,605-275-2868,SD,Suite 314,57104-6037,43.55057,-96.72981
J000302,,412812,J000302-altoona,5414 6th Ave,,Altoona,,,814-656-6081,PA,,16602-1203,40.4756,-78.42257
J000302,,412812,J000302-chambersburg,100 Lincoln Way E,,Chambersburg,,,717-753-6344,PA,B,17201-2291,39.93775,-77.66387
J000302,,412812,J000302-somerset,451 Stoystown Rd,,Somerset,,,,PA,Suite 102,15501-6927,40.01453,-79.0702
K000009,00616,400211,K000009-cleveland,17021 Lorain,,Cleveland,419-255-9623,,216-767-5933,OH,,44111,41.4502564,-81.8160502
K000009,00616,400211,K000009-lorain,200 W. Erie,,Lorain,419-255-9623,,440-288-1500,OH,Room 310,44052,41.4685695,-82.1792684
K000009,00616,400211,K000009-toledo,One Maritime Plaza,,Toledo,419-255-9623,,419-259-7500,OH,Room 600,43604,41.6538759,-83.528238
K000188,01498,400218,K000188-eau_claire,131 S. Barstow St.,,Eau Claire,715-831-9272,,715-831-9214,WI,Suite 301,54701,44.8120136,-91.500022
K000188,01498,400218,K000188-la_crosse,205 Fifth Ave. S.,,La Crosse,608-782-4588,,608-782-2558,WI,Suite 400,54601,43.8109182,-91.24976400000001
K000210,00635,400219,K000210-massapequa_park,1003 Park Blvd.,,Massapequa Park,516-541-6602,,516-541-4225,NY,,11762,40.6785193,-73.4556272
K000362,01724,400220,K000362-ames,1421 S. Bell Ave.,,Ames,515-232-2844,,515-232-2885,IA,Suite 102,50010,42.009659,-93.57592199999999
K000362,01724,400220,K000362-fort_dodge,723 Central Ave.,,Fort Dodge,515-576-7141,,515-573-2738,IA,,50501,42.50478529999999,-94.1875913
K000362,01724,400220,K000362-mason_city,202-1st Street SE,,Mason City,641-201-1523,,641-201-1624,IA,Suite 126,50401,43.1511623,-93.1974843
K000362,01724,400220,K000362-sioux_city,320 6th St,Federal Building,Sioux City,712-224-4693,,712-224-4692,IA,Room 122,51101,42.4960314,-96.4075814
K000362,01724,400220,K000362-spencer,306 Grand Ave.,,Spencer,712-580-3354,,712-580-7754,IA,,51301,43.1407023,-95.144286
K000367,01826,412242,K000367-minneapolis,1200 Washington Avenue South,,Minneapolis,612-727-5223,,612-727-5220,MN,Room 250,55415,44.9751443,-93.2505863
K000367,01826,412242,K000367-moorhead,121 4th Street South,,Moorhead,218-287-2930,,218-287-2219,MN,,56560,46.873119,-96.774188
K000367,01826,412242,K000367-rochester,1130 1/2 7th Street NW,,Rochester,507-288-2922,,507-288-5321,MN,Room 212,55901,44.0314822,-92.479679
K000367,01826,412242,K000367-virginia,820 9th Street North,Olcott Plaza,Virginia,218-741-3692,,218-741-9690,MN,Room 105,55792,47.5302888,-92.5465059
K000368,01907,412286,K000368-sierra_vista,77 Calle Portal,,Sierra Vista,,,,AZ,B160,85635-2967,31.55364,-110.26691
K000368,01907,412286,K000368-tucson,1636 N Swan Rd,,Tucson,,,,AZ,Suite 200,85712-4067,32.24289,-110.89202
K000375,02025,412435,K000375-hyannis,259 Stevens St.,,Hyannis,508-790-1959,,508-771-6868,MA,Suite E,02601,41.6511319,-70.2939487
K000375,02025,412435,K000375-new_bedford,128 Union Street,,New Bedford,508-999-6468,,508-999-6462,MA,Suite 103,02740,41.6339983,-70.9267013
K000375,02025,412435,K000375-plymouth,170 Court St.,,Plymouth,508-732-0072,,508-746-9000,MA,,02360,41.9636518,-70.6753841
K000376,02051,412465,K000376-butler,101 E. Diamond St.,,Butler,724-282-3682,Monday-Friday 9:00AM-5:00PM,724-282-2557,PA,Suite 218,16001,40.8580044,-79.8948869
K000376,02051,412465,K000376-erie,208 E. Bayfront Pkwy.,,Erie,814-454-8197,Monday-Friday 9:00AM-5:00PM,814-454-8190,PA,Suite 102,16507,42.1373875,-80.0848493
K000376,02051,412465,K000376-sharon,33 Chestnut Ave.,,Sharon,724-342-7242,"Monday through Friday, 9 a.m. to 5 p.m.",724-342-7170,PA,,16146,41.2315486,-80.5079773
K000378,02014,412421,K000378-ottawa,628 Columbus St.,,Ottawa,815-431-9383,8:30 AM - 5:00 PM,815-431-9271,IL,Suite 507,61350,41.346247,-88.841051
K000378,02014,412421,K000378-rockford,725 N. Lyford Rd.,,Rockford,,Meetings by appointment only.,815-708-8032,IL,Suite 3,61107,42.2743104,-88.96018389999999
K000378,02014,412421,K000378-watseka,342 W. Walnut,,Watseka,,Meetings by appointment.,815-432-0580,IL,,60970,40.7762446,-87.7383019
K000379,02172,412543,K000379-attleboro,8 N. Main St.,,Attleboro,508-431-1101,M-F 9-5:30PM,508-431-1110,MA,Suite 200,02703,41.9449626,-71.2846799
K000379,02172,412543,K000379-newton,29 Crafts St.,,Newton,617-332-3308,M-F 9-5:30PM,617-332-3333,MA,Suite 375,02458,42.3548224,-71.1999166
K000380,02134,412546,K000380-flint,601 S Saginaw St,,Flint,,,810-238-8627,MI,Suite 403,48502-1513,43.01504,-83.68977
K000381,02169,412583,K000381-bremerton,345 6th St.,,Bremerton,,M-F: 9:00am - 5:00pm (PST),360-373-9725,WA,Suite 500,98337,47.5669568,-122.6258917
K000381,02169,412583,K000381-port_angeles,332 E. 5th St.,,Port Angeles,,Tues: 9:00am-Noon (PST) Wed: 12:00pm-4:00pm (PST) Thurs: 9:00am-Noon (PST),360-797-3623,WA,,98362,48.113181,-123.431753
K000381,02169,412583,K000381-tacoma,950 Pacific Ave.,,Tacoma,,M-F: 9:00am - 5:00pm (PST),253-272-3515,WA,Suite 1230,98402,47.2535757,-122.4390697
K000382,02145,412557,K000382-concord,18 N. Main St.,,Concord,603-226-1010,"8:30 AM - 5:00 PM, Monday - Friday",603-226-1002,NH,Fourth Floor,03301,43.2048069,-71.5355091
K000382,02145,412557,K000382-littleton,33 Main St.,,Littleton,,,603-444-7700,NH,Suite 202,03561,44.3063587,-71.7713705
K000382,02145,412557,K000382-nashua,184 Main Street,,Nashua,603-595-2016,"8:30 AM - 5:00 PM, Monday - Friday",603-595-2006,NH,Suite 222,03060,42.7606386,-71.4647244
K000383,02185,412545,K000383-augusta,4 Gabriel Dr.,,Augusta,,,207-622-8292,ME,Suite 3,04330,44.3676495,-69.7940768
K000383,02185,412545,K000383-bangor,202 Harlow St.,,Bangor,,,207-945-8000,ME,Suite 20350,04401,44.8046399,-68.7737891
K000383,02185,412545,K000383-presque_isle,169 Academy St.,,Presque Isle,,,207-764-5124,ME,Suite A,04769,46.6766073,-67.9956649
K000383,02185,412545,K000383-scarborough,383 Route 1,,Scarborough,,,207-883-1588,ME,Suite 1C,04074,43.5854463,-70.3582263
K000384,02176,412582,K000384-abingdon,121 Russell Rd.,,Abingdon,276-525-4792,,276-525-4790,VA,Suite 2,24210,36.709042,-81.981768
K000384,02176,412582,K000384-danville,308 Craghead Street,,Danville,434-792-0978,,434-792-0976,VA,Suite 102A,24541,36.5867166,-79.38939599999999
K000384,02176,412582,K000384-manassas,9408 Grant Avenue,,Manassas,703-361-3198,,703-361-3192,VA,Suite 202,20110,38.7515843,-77.4755912
K000384,02176,412582,K000384-richmond,919 E. Main St.,,Richmond,804-771-8313,,804-771-2221,VA,Suite 970,23219,37.5374358,-77.4362913
K000384,02176,412582,K000384-roanoke,611 S. Jefferson St.,,Roanoke,540-682-5697,,540-682-5693,VA,Suite 5B,24011,37.268654,-79.9408098
K000384,02176,412582,K000384-virginia_beach,222 Central Park Ave.,,Virginia Beach,757-518-1679,,757-518-1674,VA,Suite 120,23462,36.842768,-76.13327699999999
K000385,02190,412595,K000385-chicago,1000 E. 111th St.,,Chicago,,9:00am-5:00pm,773-321-2001,IL,,60628,41.6944193,-87.6012886
K000385,02190,412595,K000385-kankakee,304 S. Indiana Ave.,Kankakee City Hall,Kankakee,,"Open on the second and fourth Wednesdays of each month, from 9am - 4pm",708-679-0078,IL,lower level,60901,41.117146,-87.861261
K000385,02190,412595,K000385-matteson,600 Holiday Plaza Dr.,,Matteson,708-679-0216,9:00am-5:00pm,708-679-0078,IL,Suite 505,60443,41.5042785,-87.7382453
K000386,02264,412649,K000386-auburn,71 Genesee St.,,Auburn,315-253-2435,,315-253-4068,NY,,13021,42.9318995,-76.5664577
K000386,02264,412649,K000386-lyons,7376 State Route 31,,Lyons,,Please call to make an appointment,315-253-4068,NY,,14489,43.072187,-77.03685779999999
K000386,02264,412649,K000386-oswego,13 W. Oneida St.,,Oswego,,Please call to make an appointment,315-423-5657,NY,2nd Floor,13126,43.4554199,-76.511258
K000386,02264,412649,K000386-syracuse,440 S. Warren St.,,Syracuse,315-423-5604,,315-423-5657,NY,"7th Floor, Suite 711",13202,43.04611939999999,-76.15161669999999
K000388,02294,412673,K000388-columbus,318 N. 7th St.,,Columbus,662-328-5982,,662-327-0748,MS,Suite D,39701,33.4985949,-88.42587759999999
K000388,02294,412673,K000388-corinth,4135 County Road 200,,Corinth,662-841-8845,,662-687-1525,MS,,38844,34.9303984,-88.43363889999999
K000388,02294,412673,K000388-eupora,855 S. Dunn St.,,Eupora,662-258-7240,,662-258-7240,MS,,39744,33.5403014,-89.2688098
K000388,02294,412673,K000388-hernando,2565 Caffey St.,,Hernando,662-449-4836,,662-449-3090,MS,#200,38632,34.8226252,-89.9956387
K000388,02294,412673,K000388-tupelo,431 W. Main St.,,Tupelo,662-841-8845,,662-841-8808,MS,,38804,34.2570023,-88.70811259999999
K000389,,412684,K000389-santa_clara,900 Lafayette St.,,Santa Clara,408-436-2721,,408-436-2720,CA,Suite 206,95050,37.3494432,-121.9434873
K000391,,412701,K000391-schaumburg,1701 E. Woodfield Rd.,,Schaumburg,,,847-413-1959,IL,Suite 704,60173,42.042839,-88.0382131
K000392,,412724,K000392-dyersburg,425 W Court St,,Dyersburg,,,731-412-1037,TN,,38024-4616,36.03304,-89.38925
K000392,,412724,K000392-memphis,5900 Poplar Ave.,,Memphis,901-682-8973,,901-682-4422,TN,Suite 202,38119,35.1034459,-89.8641093
K000392,,412724,K000392-jackson,117 North Liberty Street,,Jackson,731-427-1537,,731-423-4848,TN,,38301,35.6149736,-88.81841440000001
K000394,,412797,K000394-marlton,535 E Main St,,Marlton,,,,NJ,,08053-2301,39.88539,-74.89656
K000394,,412797,K000394-toms_river,33 Washington St,,Toms River,,,,NJ,,08753-7642,39.95223,-74.19681
L000174,01383,300065,L000174-burlington,199 Main St,,Burlington,800-642-3193,,802-863-2525,VT,4th Floor,05401,44.47553140000001,-73.21128259999999
L000174,01383,300065,L000174-montpelier,87 State St.,,Montpelier,,,802-229-0569,VT,Room 338,05602,44.260997,-72.5775843
L000287,00688,400240,L000287-atlanta,100 Peachtree St. NW,,Atlanta,,,404-659-0116,GA,Suite 1920,30303,33.7568505,-84.38859939999999
L000397,00701,400245,L000397-san_jose,635 N. First St.,,San Jose,,,408-271-8700,CA,Suite B,95112,37.3475248,-121.8993988
L000480,00709,400246,L000480-new_city,67 N. Main St.,,New City,845-634-4079,M-F 9am-6pm,845-639-3485,NY,#101,10956,41.1497079,-73.98993
L000480,00709,400246,L000480-white_plains,222 Mamaroneck Ave.,,White Plains,914-328-1505,Mon-Fri: 9 am-6 pm,914-428-1707,NY,#312,10605,41.0270474,-73.76478879999999
L000491,00711,400247,L000491-yukon,10952 NW Expressway,,Yukon,405-373-2046,,405-373-1958,OK,Suite B,73099,35.5916684,-97.71702800000001
L000551,01501,400237,L000551-alameda,1550 Oak St.,,Alameda,,Every 2nd & 4th Thurs. 3 pm – 5 pm (PST),,CA,2nd Floor Staff Room,94501,37.7667491,-122.2422766
L000551,01501,400237,L000551-albany,1249 Marin Ave.,Albany Community Center,Albany,,Every 1st & 3rd Wed 3pm - 5pm,,CA,,94706,37.8879742,-122.2932172
L000551,01501,400237,L000551-oakland,1301 Clay St.,,Oakland,510-763-6538,M-F 9am - 5pm,510-763-0370,CA,Suite 1000-N,94612,37.8052016,-122.2745116
L000551,01501,400237,L000551-oakland-1,1470 Fruitvale Ave.,,Oakland,,Every 1st & 3rd Thurs. 3pm-5pm (PST),,CA,,94601,37.7784791,-122.2250837
L000551,01501,400237,L000551-san_leandro,300 Estudillo Ave.,Room C,San Leandro,,Every 1st & 3rd Tues. 3 pm – 5 pm (PST),,CA,,94577,37.7260242,-122.1540198
L000557,01583,400233,L000557-hartford,221 Main St.,,Hartford,860-278-2111,,860-278-8888,CT,2nd Floor,06106,41.7584184,-72.6757241
L000559,01668,400230,L000559-warwick,300 Centerville Rd.,,Warwick,401-737-2982,Mon-Fri 8AM-5PM,401-732-9400,RI,Suite 200 South,02886,41.6944274,-71.4705546
L000560,01675,400232,L000560-bellingham,119 N. Commercial St.,,Bellingham,360-733-5144,Monday-Friday 8 a.m. to 5 p.m.,360-733-4500,WA,Suite 275,98225,48.7523829,-122.4785173
L000560,01675,400232,L000560-everett,2930 Wetmore Ave.,Wall Street Building,Everett,425-252-6606,Monday-Friday 8 a.m. to 5 p.m,425-252-3188,WA,Suite 9F,98201,47.9781562,-122.2076204
L000562,01686,400249,L000562-boston,One Harbor Street,,Boston,617-428-2011,,617-428-2000,MA,Suite 304,02210,42.3455095,-71.035511
L000562,01686,400249,L000562-brockton,37 Belmont Street,,Brockton,508-580-4692,,508-586-5555,MA,"2nd Floor, Suite 3",02301,42.080643,-71.023661
L000562,01686,400249,L000562-quincy,1245 Hancock St.,,Quincy,617-773-0955,,617-657-6305,MA,Suite 41,02169,42.2526962,-71.0049509
L000563,01781,400630,L000563-chicago,6245 S. Archer Ave.,,Chicago,773-767-9395,,773-948-6223,IL,,60638,41.7934493,-87.77626830000001
L000563,01781,400630,L000563-lockport,222 E. 9th St.,Central Square Building,Lockport,815-838-1993,,815-838-1990,IL,#109,60441,41.5895597,-88.05500169999999
L000563,01781,400630,L000563-oak_lawn,5210 W. 95th St.,,Oak Lawn,708-424-1855,,708-424-0853,IL,Suite 104,60453,41.7201892,-87.751137
L000563,01781,400630,L000563-orland_park,14700 S. Ravinia Avenue,Orland Park Village Hall,Orland Park,708-403-5963,,708-403-4379,IL,,60462,41.6232433,-87.8573538
L000564,01834,412191,L000564-colorado_springs,1125 Kelly Johnson Blvd.,,Colorado Springs,719-520-0840,,719-520-0055,CO,Suite 330,80920,38.94831500000001,-104.807763
L000564,01834,412191,L000564-buena_vista,415 Main St.,,Buena Vista,719-520-0840,By appointment only,719-520-0055,CO,,81211,38.842985,-106.128575
L000565,01846,412209,L000565-davenport,209 W. 4th St.,,Davenport,563-323-5231,,563-323-5988,IA,#104,52801,41.5235231,-90.5756888
L000565,01846,412209,L000565-iowa_city,125 S. Dubuque St.,,Iowa City,319-351-5789,,319-351-0789,IA,,52240,41.6592803,-91.5334445
L000566,01885,412256,L000566-bowling_green,1045 N. Main St.,,Bowling Green,,,419-354-8700,OH,Suite 6,43402,41.3891803,-83.65120619999999
L000566,01885,412256,L000566-defiance,101 Clinton St.,,Defiance,,,419-782-1996,OH,Suite 1200,43512,41.2881704,-84.36089869999999
L000566,01885,412256,L000566-findlay,318 Dorney Plz.,,Findlay,,,419-422-7791,OH,Room 302,45840,41.038435,-83.6516735
L000569,01931,412292,L000569-jefferson_city,2117 Missouri Blvd.,,Jefferson City,573-635-8347,,573-635-7232,MO,,65109,38.5813109,-92.20679520000002
L000569,01931,412292,L000569-washington,516 Jefferson St.,,Washington,636-239-0478,,636-239-2276,MO,,63090,38.5560438,-91.0132469
L000569,01931,412292,L000569-wentzville,113 E. Pearce Blvd.,,Wentzville,,,636-327-7055,MO,,63385,38.8122807,-90.85187169999999
L000570,01939,412293,L000570-farmington,800 Municipal Dr.,,Farmington,505-324-1026,,505-324-1005,NM,,87401,36.7378735,-108.2167002
L000570,01939,412293,L000570-gallup,110 W. Aztec Ave.,,Gallup,505-863-0678,,505-863-0582,NM,,87301,35.5265052,-108.7413892
L000570,01939,412293,L000570-las_vegas,1103 National Ave,NMHU Hewett Hall,Las Vegas,505-454-3265,,505-454-3038,NM,Suite 210,87701-4024,35.59437,-105.22224
L000570,01939,412293,L000570-rio_rancho,3200 Civic Center NE,,Rio Rancho,505-994-0550,,505-994-0499,NM,Suite 330,87144,35.3109178,-106.6851151
L000570,01939,412293,L000570-santa_fe,1611 Calle Lorca,,Santa Fe,505-986-5047,,505-984-8950,NM,Suite A,87505,35.6605914,-105.9630964
L000570,01939,412293,L000570-tucumcari,404 W. Route 66 Blvd.,,Tucumcari,575-461-3192,,575-461-3029,NM,,88401,35.1718132,-103.7221881
L000575,02050,412464,L000575-oklahoma_city,1015 N. Broadway Ave.,,Oklahoma City,,,405-231-4941,OK,Suite 310,73102,35.4776534,-97.5145337
L000575,02050,412464,L000575-tulsa,224 South Boulder,,Tulsa,,,918-581-7651,OK,Suite 210,74103,36.1533467,-95.992873
L000576,02033,412445,L000576-joplin,2727 E. 32nd St.,,Joplin,417-781-2832,,417-781-1041,MO,Suite 2,64804,37.0555214,-94.4831701
L000576,02033,412445,L000576-springfield,3232 E. Ridgeview St.,,Springfield,417-889-4915,,417-889-1800,MO,,65804,37.1590571,-93.22940179999999
L000577,02080,412495,L000577-ogden,324 25th St.,James V. Hansen Federal Building,Ogden,801-392-9630,,801-392-9633,UT,Suite 1410,84401,41.2206774,-111.9726125
L000577,02080,412495,L000577-salt_lake_city,125 S. State,Wallace F. Bennett Federal Building,Salt Lake City,801-524-5730,,801-524-5933,UT,Suite 4225,84138,40.7667476,-111.8871382
L000577,02080,412495,L000577-st__george,285 W. Tabernacle,,St. George,,,435-628-5514,UT,Suite 200,84770,37.1079122,-113.5893448
L000578,02100,412510,L000578-auburn,2399 Rickenbacker Way,,Auburn,,,530-878-5035,CA,,95602,38.9527935,-121.0815891
L000578,02100,412510,L000578-chico,120 Independence Cir,,Chico,,,530-343-1000,CA,B,95973-4925,39.77249,-121.87422
L000578,02100,412510,L000578-redding,2885 Churn Creek Rd.,,Redding,,,530-223-5898,CA,Suite C,96002,40.565758,-122.351892
L000579,02111,412521,L000579-long_beach,100 W. Broadway,West Tower,Long Beach,562-437-6434,M-F 9AM-5PM,562-436-3828,CA,Suite 600,90802,33.7689325,-118.1930229
L000579,02111,412521,L000579-garden_grove,12865 Main St.,,Garden Grove,562-437-6434,M-F 9AM-5PM,714-243-4088,CA,Suite 200,92840,33.775733,-117.941206
L000581,02252,412638,L000581-southfield,26700 Lahser Road,,Southfield,248-356-4532,,248-356-2052,MI,Suite 330,48033,42.483811,-83.25988629999999
L000582,02230,412616,L000582-los_angeles,5055 Wilshire Blvd.,,Los Angeles,,,323-651-1040,CA,Suite 310,90036,34.062551,-118.3402319
L000582,02230,412616,L000582-manhattan_beach,1600 Rosecrans Ave.,,Manhattan Beach,,by appointment only,310-321-7664,CA,4th Floor,90266,33.9015419,-118.383875
L000583,02238,412624,L000583-atlanta,600 Galleria Pkwy.,,Atlanta,678-556-5184,,770-429-1776,GA,Suite 120,30339,33.8852658,-84.46130289999999
L000583,02238,412624,L000583-cartersville,135 W. Cherokee Ave.,,Cartersville,,,770-429-1776,GA,Suite 122,30120,34.1658228,-84.7997815
L000583,02238,412624,L000583-woodstock,9898 Highway 92,,Woodstock,770-517-7427,,770-429-1776,GA,Suite 100,30188,34.085747,-84.523949
L000585,02295,412674,L000585-bloomington,3004 G.E. Rd.,,Bloomington,,Open Tuesdays and Thursdays,309-205-9556,IL,Suite 1B,61704,40.5029607,-88.9230848
L000585,02295,412674,L000585-jacksonville,201 W. Morgan St.,,Jacksonville,217-243-6852,,217-245-1431,IL,,62650,39.7336397,-90.22998150000001
L000585,02295,412674,L000585-peoria,100 NE Monroe St.,,Peoria,309-671-7309,,309-671-7027,IL,Room 100,61602,40.6949004,-89.591743
L000585,02295,412674,L000585-springfield,235 S. Sixth St.,,Springfield,217-670-1806,,217-670-1653,IL,,62701,39.79957450000001,-89.648127
L000586,,412693,L000586-tallahassee,435 N. Macomb St.,,Tallahassee,850-577-0633,,850-558-9450,FL,,32301,30.4463425,-84.28819759999999
L000586,,412693,L000586-jacksonville,1010 N. Davis St.,,Jacksonville,904-379-0309,,904-354-1652,FL,Suite 206,32209,30.336823,-81.667581
L000590,,412802,L000590-las_vegas,8872 S Eastern Ave,,Las Vegas,,,702-963-9336,NV,s 210 & 220,89123-4900,36.02796,-115.11836
L000591,,412830,L000591-virginia_beach,283 Constitution Dr,One Columbus Center,Virginia Beach,757-687-8298,,757-364-7650,VA,Suite 900,23462-6722,36.84256,-76.13213
L000592,,412785,L000592-warren,30500 Van Dyke Ave,,Warren,,,586-498-7122,MI,Suite 306,48093-2195,42.51766,-83.0287
L000593,,412760,L000593-dana_point,33282 Golden Lantern St,,Dana Point,,,949-281-2449,CA,Suite 102,92629-1805,33.48052,-117.69774
L000593,,412760,L000593-oceanside,2204 S El Camino Real,,Oceanside,,,760-599-5000,CA,Suite 314,92054-6306,33.18403,-117.32722
M000087,00729,400251,M000087-astoria,31-19 Newtown Ave.,,Astoria,718-932-1805,Monday 9:30am – 2:00pm; Tuesday – Thursday 9:30am – 5:00pm; Friday 10:00am – 4:00pm,718-932-1804,NY,,11102-1391,40.7672194,-73.9223996
M000087,00729,400251,M000087-brooklyn,619 Lorimer St.,,Brooklyn,718-349-5973,Tuesday 9:00am – 5:00pm,718-349-5972,NY,,11211-2228,40.7155784,-73.94987139999999
M000087,00729,400251,M000087-new_york,1651 3rd Ave.,,New York,212-860-0704,Monday – Friday 9:00am – 6:00pm,212-860-0606,NY,Suite 311,10128-3679,40.7828262,-73.95068410000002
M000133,00735,400253,M000133-boston,15 Sudbury St.,JFK Federal Building,Boston,617-248-3870,,617-565-8519,MA,975,02203,42.3613091,-71.0593927
M000133,00735,400253,M000133-fall_river,222 Milliken Blvd.,,Fall River,,,508-677-0523,MA,Suite 312,02721,41.6999176,-71.15872660000001
M000133,00735,400253,M000133-springfield,1550 Main St.,,Springfield,,,413-785-4610,MA,4th Floor,01103,42.10321649999999,-72.5929441
M000312,01504,400263,M000312-leominster,24 Church St.,,Leominster,978-466-3973,M-F 9-5:00pm,978-466-3552,MA,Room 27,01453,42.5279312,-71.7607974
M000312,01504,400263,M000312-northampton,94 Pleasant St.,,Northampton,413-584-1216,M-F 9-5:00pm,413-341-8700,MA,,01060,42.3185388,-72.6283162
M000312,01504,400263,M000312-worcester,12 E. Worcester St.,,Worcester,508-754-0982,M-F 9-5:00pm,508-831-7356,MA,Suite 1,01604,42.2628409,-71.7903444
M000355,01395,300072,M000355-bowling_green,241 E. Main St.,Federal Building,Bowling Green,,,270-781-1673,KY,Room 102,42101,36.9948956,-86.4430273
M000355,01395,300072,M000355-fort_wright,1885 Dixie Hwy.,,Fort Wright,,,859-578-0188,KY,Suite 345,41011,39.0575706,-84.542929
M000355,01395,300072,M000355-lexington,771 Corporate Dr.,,Lexington,,,859-224-8286,KY,Suite 108,40503,38.0134107,-84.5524557
M000355,01395,300072,M000355-london,300 S. Main St.,,London,,,606-864-2026,KY,Suite 310,40741,37.1258183,-84.0809548
M000355,01395,300072,M000355-louisville,601 W. Broadway,,Louisville,,,502-582-6304,KY,Room 630,40202,38.2469833,-85.7624677
M000355,01395,300072,M000355-paducah,100 Fountain Ave.,,Paducah,,,270-442-4554,KY,Suite 300,42001,37.07925609999999,-88.6172508
M000639,00791,400272,M000639-barrington,208 White Horse Pike,,Barrington,856-546-1526,,856-757-5353,NJ,Suite 18,08007,39.8730588,-75.04718439999999
M000639,00791,400272,M000639-newark,One Gateway Center,,Newark,973-645-0502,,973-645-3030,NJ,Suite 1100,07102,40.7344571,-74.1657213
M000934,01507,400284,M000934-hays,1200 Main St.,,Hays,785-628-3791,,785-628-6401,KS,Suite 402,67601,38.8728651,-99.3296381
M000934,01507,400284,M000934-manhattan,923 Westport Pl.,,Manhattan,785-587-0789,,785-539-8973,KS,Suite 210,66502,39.1928877,-96.6064052
M000934,01507,400284,M000934-olathe,23600 College Blvd.,,Olathe,913-768-1366,,913-393-0711,KS,Suite 201,66061,38.927647,-94.8584293
M000934,01507,400284,M000934-pittsburg,306 N. Broadway,,Pittsburg,620-232-2284,,620-232-2286,KS,Suite 125,66762,37.4105276,-94.7044411
M000934,01507,400284,M000934-wichita,100 North Broadway,,Wichita,316-269-9257,,316-269-9259,KS,Suite 210,67202,37.6865773,-97.3371211
M001111,01409,300076,M001111-everett,2930 Wetmore Ave.,,Everett,425-259-7152,,425-259-6515,WA,Suite 9D,98201,47.9781562,-122.2076204
M001111,01409,300076,M001111-seattle,915 2nd Ave.,Jackson Federal Building,Seattle,206-553-0891,,206-553-5545,WA,#2988,98174,47.6045895,-122.3354608
M001111,01409,300076,M001111-spokane,10 N. Post St.,,Spokane,509-624-9561,,509-624-9515,WA,Suite 600,99201,47.65759629999999,-117.4232771
M001111,01409,300076,M001111-tacoma,950 Pacific Ave.,,Tacoma,253-572-9488,,253-572-3636,WA,Suite 650,98402,47.2535757,-122.4390697
M001111,01409,300076,M001111-vancouver,1323 Officer's Row,The Marshall House,Vancouver,360-696-7798,,360-696-7797,WA,,98661,45.6276649,-122.657351
M001111,01409,300076,M001111-yakima,402 E. Yakima Ave.,,Yakima,509-453-7731,,509-453-7462,WA,Suite 420,98901,46.6030785,-120.5008956
M001137,01506,400271,M001137-arverne,67-12 Rockaway Beach Blvd.,,Arverne,347-230-4045,"Tuesdays 10am-2pm, Wednesday-Friday- 9am-5pm",347-230-4032,NY,,11692,40.5907811,-73.798273
M001137,01506,400271,M001137-jamaica,153-01 Jamaica Ave.,,Jamaica,718-725-9868,9 am – 5:00 pm Mon – Thurs and Fri. 9:00 am – 3:00 pm (close at 3:00 pm for administrative purposes),718-725-6000,NY,2nd floor,11432,40.7030995,-73.80205
M001143,01653,400259,M001143-st__paul,661 LaSalle Street,,St. Paul,651-224-3056,8:30 AM - 5:30 PM (Central),651-224-9191,MN,Suite 110,55114,44.9605297,-93.1943159
M001153,01694,300075,M001153-anchorage,510 L St.,,Anchorage,877-857-0322,,907-271-3735,AK,Suite 600,99501,61.2171561,-149.9043364
M001153,01694,300075,M001153-fairbanks,250 Cushman Ave.,Courthouse Square,Fairbanks,907-451-7146,,907-456-0233,AK,Suite 2D,99701,64.8427991,-147.7219443
M001153,01694,300075,M001153-juneau,800 Glacier Ave.,,Juneau,907-586-7201,,907-586-7277,AK,Suite 101,99801,58.30033239999999,-134.4205554
M001153,01694,300075,M001153-ketchikan,1900 First Ave.,,Ketchikan,907-225-0390,,907-225-6880,AK,Suite 225,99901,55.3492023,-131.6673863
M001153,01694,300075,M001153-soldotna,44539 Sterling Hwy.,,Soldotna,907-283-4363,,907-262-4220,AK,Suite 203,99669,60.4804766,-151.0725394
M001153,01694,300075,M001153-wasilla,851 E. Westpoint Dr.,,Wasilla,907-376-8526,,907-376-7665,AK,Suite 307,99654,61.5826697,-149.4286826
M001156,01792,400644,M001156-black_mountain,160 Midland Ave.,,Black Mountain,,"Mondays & Wednesdays, 12 PM to 5 PM",828-669-0600,NC,,28711,35.619814,-82.3197859
M001156,01792,400644,M001156-gastonia,128 W. Main Ave.,Gaston County Administrative Building,Gastonia,704-833-0887,,704-833-0096,NC,Suite 115,28052,35.2641049,-81.1825879
M001156,01792,400644,M001156-hickory,1990 Main Ave. SE,,Hickory,828-327-8311,,828-327-6100,NC,PO Box 1830,28603,35.7313122,-81.3022794
M001157,01804,400654,M001157-austin,9009 Mountain Ridge Dr.,Austin Building,Austin,512-473-0514,By appointment only,512-473-2357,TX,Suite 230,78759,30.3864963,-97.7528485
M001157,01804,400654,M001157-brenham,2000 S. Market St.,,Brenham,979-830-1984,Tuesday and Thursday 8-5pm,979-830-8497,TX,Suite 303,77833,30.1510408,-96.3912448
M001157,01804,400654,M001157-katy,1773 Westborough Dr.,Katy Commerce Center,Katy,,By Appointment Only,281-398-1247,TX,Suite 223,77449,29.7918796,-95.7318468
M001157,01804,400654,M001157-tomball,990 Village Sq.,Rosewood Professional Building,Tomball,281-255-0034,M-F 8am-5:00pm,281-255-8372,TX,Suite B,77375,30.096319,-95.625406
M001158,01806,400656,M001158-irving,9901 E. Valley Ranch Pkwy.,,Irving,972-409-9704,,972-556-0162,TX,Suite 2060,75063,32.9399753,-96.95149119999999
M001159,01809,400659,M001159-colville,555 S. Main St.,,Colville,,,509-684-3481,WA,,99114,48.5392665,-117.9052868
M001159,01809,400659,M001159-spokane,10 North Post Street,,Spokane,,,509-353-2374,WA,Suite 625,99201,47.65759629999999,-117.4232771
M001159,01809,400659,M001159-walla_walla,26 E. Main St.,,Walla Walla,,,509-529-9358,WA,Suite 2,99362,46.0668398,-118.3382053
M001160,01811,400661,M001160-milwaukee,316 N. Milwaukee St.,,Milwaukee,414-297-1086,,414-297-1140,WI,Suite 406,53202,43.0344363,-87.90565280000001
M001163,01814,400663,M001163-sacramento,501 I St.,Robert T. Matsui U.S. Courthouse,Sacramento,916-444-6117,Mon-Fri 8am-5pm,916-498-5600,CA,Suite 12-600,95814,38.583455,-121.4987519
M001165,01833,412190,M001165-bakersfield,4100 Empire Dr.,,Bakersfield,661-637-0867,M-F 8:30am - 5:00pm,661-327-3611,CA,Suite 150,93309,35.3750182,-119.0467701
M001166,01832,412189,M001166-antioch,4703 Lone Tree Way,Antioch Community Center,Antioch,925-754-0728,,925-754-0716,CA,,94531,37.9662464,-121.7741565
M001166,01832,412189,M001166-stockton,2222 Grand Canal Blvd.,,Stockton,209-476-8587,,209-476-8552,CA,#7,95207,37.9845267,-121.3334181
M001169,01837,412194,M001169-hartford,120 Huyshope Ave.,Colt Gateway,Hartford,860-524-5091,,860-549-8463,CT,Suite 401,06106,41.7559191,-72.6646397
M001176,01900,412325,M001176-bend,131 NW. Hawthorne Ave.,,Bend,,,541-318-1298,OR,Suite 208,97701,44.0577537,-121.3095974
M001176,01900,412325,M001176-eugene,405 E. 8th Ave.,,Eugene,,,541-465-6750,OR,Suite 2010,97401,44.0516985,-123.0857882
M001176,01900,412325,M001176-medford,10 S. Bartlett St.,,Medford,,,541-608-9102,OR,Suite 201,97501,42.3266304,-122.8712245
M001176,01900,412325,M001176-pendleton,310 SE. Second St.,,Pendleton,,,541-278-1129,OR,Suite 105,97801,45.6721567,-118.7845998
M001176,01900,412325,M001176-portland,121 SW Salmon St.,,Portland,503-326-2900,,503-326-3386,OR,Suite 1400,97204,45.5160884,-122.6748937
M001176,01900,412325,M001176-salem,161 High St. SE,,Salem,,,503-362-8102,OR,Suite 250,97301,44.9389422,-123.0380741
M001177,01908,412295,M001177-roseville,2200A Douglas Blvd,,Roseville,916-786-6364,,916-786-5560,CA,Suite 240,95661,38.74380590000001,-121.2464852
M001180,02074,412487,M001180-morgantown,709 Beechurst Ave.,,Morgantown,304-284-8505,M-F: 9:00 a.m. to 5:00 p.m,304-284-8506,WV,Suite 29,26505,39.6414678,-79.962809
M001180,02074,412487,M001180-parkersburg,408 Market St.,,Parkersburg,304-422-5974,,304-422-5972,WV,,26101,39.2653465,-81.56126309999999
M001180,02074,412487,M001180-wheeling,1100 Main St.,Horne Building,Wheeling,304-232-3813,Mon- friday 9.00 am to 5.00 pm,304-232-3801,WV,Suite 101,26003,40.068749,-80.723545
M001183,01983,412391,M001183-charleston,900 Pennsylvania Ave.,,Charleston,304-343-7144,,304-342-5855,WV,Suite 629,25302,38.3590792,-81.6350089
M001183,01983,412391,M001183-fairmont,230 Adams St.,,Fairmont,304-368-0198,,304-368-0567,WV,,26554,39.4846406,-80.1429364
M001183,01983,412391,M001183-martinsburg,261 Aikens Ctr.,,Martinsburg,304-262-3039,,304-264-4626,WV,Suite 305,25404,39.486004,-77.95891259999999
M001184,02094,412503,M001184-ashland,1700 Greenup Ave.,,Ashland,,Monday-Friday 9:00AM-5:00PM,606-324-9898,KY,Suite 505,41101,38.4791287,-82.6379039
M001184,02094,412503,M001184-crescent_springs,541 Buttermilk Pike,,Crescent Springs,859-426-0061,Monday-Friday 9:00AM-5:00PM,859-426-0080,KY,Suite 208,41017,39.0486598,-84.5777416
M001184,02094,412503,M001184-la_grange,108 W. Jefferson St.,,La Grange,,Call for an appointment,502-265-9119,KY,Suite 100,40031,38.4084825,-85.37938489999999
M001185,02150,412562,M001185-newburgh,123 Grand St.,,Newburgh,845-561-2890,,845-561-1259,NY,2nd Floor,12550,41.5036879,-74.010127
M001187,02142,412552,M001187-asheville,9 Miller Rd.,Skyland Fire Department,Asheville,828-693-5603,Thursday 2PM-5PM,828-765-0573,NC,,28776,35.4846372,-82.5240931
M001187,02142,412552,M001187-asheville-1,90 Elk Mountain Rd.,Woodfin Town Hall,Asheville,828-693-5603,Thursday 9AM-12PM,828-765-0573,NC,,28804,35.631458,-82.5859027
M001187,02142,412552,M001187-brevard,98 E. Morgan St.,"Community Services Building Second Floor, Conference Room A",Brevard,828-693-5603,"2nd Tuesday of the 1st month of each quarter, 9AM-12PM",828-693-5660,NC,,28712,35.2312324,-82.7340135
M001187,02142,412552,M001187-bryson_city,101 Mitchell St.,Swain County Administration Building,Bryson City,,"2nd Tuesday of the 2nd month of each quarter, 2PM-5PM",828-452-6022,NC,,28713,35.4284337,-83.44769629999999
M001187,02142,412552,M001187-burnsville,2 Town Sq.,Burnsville Town Hall,Burnsville,,"2nd Tuesday of the 1st month of each quarter, 2PM-5PM",828-765-0573,NC,,28714,35.91698,-82.300495
M001187,02142,412552,M001187-cherokee,810 Acquoni Rd.,Ginger Lynn Welch Building,Cherokee,,"4th Tuesday of the 1st month of each quarter, 9AM-12PM",828-452-6022,NC,,28719,35.4889529,-83.31281460000001
M001187,02142,412552,M001187-franklin,5 W. Main St.,Macon County Courthouse,Franklin,,"1st Tuesday of the 3rd month of each quarter, 9AM-12PM",828-452-6022,NC,Room 332,28734,35.181994,-83.3816781
M001187,02142,412552,M001187-hayesville,261 Courthouse Dr.,Clay County Courthouse,Hayesville,,"1st Tuesday of the 1st month of each quarter, 9AM-12PM",828-452-6022,NC,Paul Jordan Conference Room,28904,35.041118,-83.829076
M001187,02142,412552,M001187-hendersonville,200 N. Grove St.,Henderson County Courthouse,Hendersonville,828-693-5603,"M-F, 9:00 AM-5:00 PM",828-693-5660,NC,Suite 90,28792,35.3159633,-82.45688779999999
M001187,02142,412552,M001187-lenoir,2345 Morganton Blvd.,Health and Human Services Bldg.,Lenoir,828-426-8710,M-F 9:00 AM - 5:00 PM,828-426-8701,NC,,28645,35.8920346,-81.5724283
M001187,02142,412552,M001187-marion,100 Spaulding Road,McDowell County Senior Center,Marion,828-693-5603,"1st Wednesday of the 1st month of each quarter, 9AM-12PM",828-432-2699,NC,,28752,35.6661262,-82.02352800000001
M001187,02142,412552,M001187-mars_hill,280 N. Main St.,Mars Hill Town Hall,Mars Hill,,"2nd Tuesday of the 1st month of each quarter, 9AM-12PM",828-765-0573,NC,,28754,35.8306609,-82.5496506
M001187,02142,412552,M001187-morganton,305 E. Union St.,City of Morganton Town Hall,Morganton,828-426-8710,M-F 9AM-5PM,828-432-2699,NC,Suite A100,28655,35.7480974,-81.6863355
M001187,02142,412552,M001187-murphy,107 Peachtree St.,Murphy Power Board,Murphy,,"1st Tuesday of the 1st month of each quarter, 2PM-5PM",828-452-6022,NC,,28906,35.0865265,-84.0326446
M001187,02142,412552,M001187-robbinsville,12 N. Main St.,Graham County Courthouse,Robbinsville,,"1st Tuesday of the 2nd month of each quarter, 9AM-12PM",828-452-6022,NC,,28771,35.323017,-83.80684699999999
M001187,02142,412552,M001187-spruce_pine,11 Crystal St.,Mitchell Country Chamber of Commerce Building,Spruce Pine,,"Mon-Wed and Fri, 9:00 AM - 5:00 PM",828-765-0573,NC,,28777,35.91595,-82.068939
M001187,02142,412552,M001187-sylva,125 Bonnie Ln.,Southwestern Commission Building,Sylva,,"1st Tuesday of the 3rd month of each quarter, 2PM-5PM",828-452-6022,NC,,28779,35.3514788,-83.208622
M001187,02142,412552,M001187-waynesville,285 N. Main St.,Haywood County Justice Center,Waynesville,,M-F 9AM-5PM,828-452-6022,NC,Suite 1300,28786,35.4932599,-82.98666940000001
M001188,02148,412560,M001188-flushing,40-13 159th St.,,Flushing,718-445-7868,,718-358-6364,NY,Suite A,11358,40.76260720000001,-73.8062197
M001188,02148,412560,M001188-forest_hills,118-35 Queens Blvd.,,Forest Hills,718-445-7868,By appointment only,718-358-6364,NY,17th Floor,11375,40.7148445,-73.8310816
M001190,02156,412568,M001190-claremore,223 W Patti Page Blvd,,Claremore,918-923-6451,"Monday-Friday, 8:00am-5:00pm CT",918-283-6262,OK,,74017-8046,36.30985,-95.61233
M001190,02156,412568,M001190-mcalester,1 E. Choctaw,,McAlester,918-423-1940,"Monday-Friday, 8:00am-5:00pm CT",918-423-5951,OK,Suite 175,74501,34.9325288,-95.76939100000001
M001190,02156,412568,M001190-muskogee,811 N York St Ste A,,Muskogee,918-686-0128,"Monday-Friday, 8:00am-5:00pm CT",918-687-2533,OK,,74403-3860,35.75024,-95.34046
M001194,02248,412634,M001194-cadillac,201 N. Mitchell St.,,Cadillac,231-876-9505,,231-942-5070,MI,Suite 301,49601,44.2512349,-85.4006138
M001194,02248,412634,M001194-midland,200 E. Main St.,,Midland,989-631-6271,,989-631-2552,MI,Suite 230,48640,43.6125894,-84.2447609
M001195,02277,412662,M001195-charleston,405 Capitol St.,,Charleston,,9AM - 5PM Mon-Fri,304-925-5964,WV,Suite 514,25301,38.3517371,-81.6320052
M001195,02277,412662,M001195-martinsburg,300 Foxcroft Ave.,,Martinsburg,,Mon-Fri 9:00am-5:00pm,304-264-8810,WV,Suite 101,25401,39.4607489,-77.986887
M001196,02246,412632,M001196-salem,21 Front St.,,Salem,978-224-2270,,978-531-1669,MA,,01970,42.5204343,-70.8944236
M001197,02225,412611,M001197-phoenix,2201 E Camelback Rd,,Phoenix,,,602-952-2410,AZ,Suite 115,85016-3431,33.50826,-112.03395
M001197,02225,412611,M001197-tucson,407 W Congress St,,Tucson,,,520-670-6334,AZ,Suite 103,85701-1310,32.21986,-110.97729
M001198,,412704,M001198-salina,200 E. Iron Ave.,,Salina,,,785-829-9000,KS,,67401,38.8403082,-97.60774119999999
M001198,,412704,M001198-garden_city,816 Campus Dr.,,Garden City,,,620-765-7800,KS,Suite 500,67846,37.9722335,-100.8489985
M001199,,412698,M001199-port_st__lucie,121 SW. Port St. Lucie Blvd.,,Port St. Lucie,,,772-336-2877,FL,,34984,27.2741604,-80.3430288
M001199,,412698,M001199-north_palm_beach,420 U.S. Highway One,,North Palm Beach,,,561-530-7778,FL,Suite 19,33408,26.8097707,-80.0578969
M001199,,412698,M001199-stuart,171 SW Flagler Ave.,,Stuart,,,772-403-0900,FL,,34994,27.2006096,-80.2582352
M001199,,412698,M001199-riviera_beach,7305 N Military Trl,,Riviera Beach,,Mondays 10 a.m. - 2 p.m.,561-530-7778,FL,1A-366,33410-7417,26.78415,-80.10731
M001200,,412728,M001200-richmond,110 North Robinson Street,,Richmond,804-269-4139,,804-486-1840,VA,Suite 401,23220,37.5534549,-77.4731247
M001200,,412728,M001200-suffolk,131 N. Saratoga Street,,Suffolk,,,757-942-6050,VA,Suite B,23434,36.7299686,-76.5840834
M001201,,412710,M001201-shelby_township,48701 Van Dyke Avenue,,Shelby Township,,,586-997-5010,MI,,48317,42.653045,-83.033869
M001202,,412694,M001202-orlando,225 E. Robinson,,Orlando,,,888-205-5421,FL,Suite 525,32801,28.546165,-81.3744028
M001202,,412694,M001202-sanford,110 W. First Street,,Sanford,,,888-205-5421,FL,Suite 210,32771,28.8121096,-81.26861149999999
M001203,,412798,M001203-somerville,58 E Main St,,Somerville,,,908-547-3307,NJ,1st Floor,08876-2312,40.5674,-74.61027
M001204,,412811,M001204-palmyra,1044 E Main St,,Palmyra,,,,PA,,17078-9501,40.31559,-76.57823
M001204,,412811,M001204-pottsville,121 Progress Ave,Losch Plaza,Pottsville,,,570-871-6370,PA,Suite 110,17901-2968,40.68623,-76.19489
M001205,,412837,M001205-beckley,307 Prince St,,Beckley,,,304-250-6177,WV,,25801-4515,37.77843,-81.17965
M001205,,412837,M001205-bluefield,601 Federal St,Elizabeth Kee Federal Building,Bluefield,,,,WV,,24701-3066,37.26693,-81.22171
M001205,,412837,M001205-huntington,845 5th Ave,Sidney L. Christie FB,Huntington,,,304-522-2201,WV,,25701-2014,38.41913,-82.44445
M001207,,412767,M001207-florida_city,404 W Palm Dr,,Florida City,,,,FL,,33034-3346,25.44833,-80.48265
M001207,,412767,M001207-key_west,1100 Simonton St,,Key West,,,305-292-4485,FL,1-213,33040-3110,24.5504,-81.79733
M001207,,412767,M001207-miami,12851 SW 42nd St,,Miami,,,305-222-0160,FL,Suite 131,33175-3436,25.7297,-80.40262
M001209,,412829,M001209-west_jordan,9067 S 1300 W,,West Jordan,,,801-999-9801,UT,Suite 101,84088-5581,40.58582,-111.92715
N000002,00850,400289,N000002-brooklyn,6605 Fort Hamilton Pkwy.,,Brooklyn,,,718-373-3198,NY,,11219,40.6298149,-74.0100219
N000002,00850,400289,N000002-new_york,201 Varick St.,,New York,,,212-367-7350,NY,Suite 669,10014,40.7283398,-74.00622109999999
N000015,00854,400291,N000015-pittsfield,78 Center St.,,Pittsfield,413-443-2792,,413-442-0946,MA,,01201,42.4521544,-73.25534979999999
N000015,00854,400291,N000015-springfield,300 State St.,,Springfield,413-747-0604,,413-785-0325,MA,Suite 200,01105,42.1049876,-72.58316479999999
N000147,00868,400295,N000147-washington,90 K St. NE,,Washington,202-408-9048,M-F 9-5:30pm,202-408-9041,DC,Suite 100,20002-4203,38.90257,-77.00623
N000147,00868,400295,N000147-washington-1,2235 Shannon Place SE,,Washington,202-678-8844,M-F 9-5:30pm,202-678-8900,DC,Suite 2032-A,20020,38.86535,-76.99073
N000179,01602,400290,N000179-el_monte,4401 Santa Anita Ave.,,El Monte,626-350-0450,,626-350-0150,CA,Suite 201,91731,34.0866787,-118.0289184
N000181,01710,400297,N000181-clovis,264 Clovis Ave.,,Clovis,559-323-5528,,559-323-5235,CA,Suite 206,93612,36.8268342,-119.7008959
N000181,01710,400297,N000181-visalia,113 N. Church St.,,Visalia,559-733-3865,,559-733-3861,CA,Suite 208,93291,36.3304563,-119.2914737
N000188,02202,412606,N000188-cherry_hill,10 Melrose Ave.,,Cherry Hill,856-427-4109,"Mon. - Fri., 9:00 am - 5:00 pm",856-427-7000,NJ,Suite 210,08003,39.8719711,-75.0138274
N000189,02275,412660,N000189-richland,3100 George Washington Way,,Richland,509-713-7377,,509-713-7374,WA,#130,99354,46.3444932,-119.2718385
N000189,02275,412660,N000189-twisp,PO Box 823,,Twisp,,,509-433-7760,WA,,98856-0823,,
N000189,02275,412660,N000189-yakima,402 E Yakima Ave,,Yakima,509-452-3438,,509-452-3243,WA,Suite 1000,98901,46.6030785,-120.5008956
N000191,,412761,N000191-boulder,2503 Walnut St,,Boulder,,,303-335-1045,CO,Suite 300,80302-5748,40.02088,-105.26139
N000191,,412761,N000191-fort_collins,1220 S College Ave,,Fort Collins,,,970-372-3971,CO,Unit 100A,80524-3785,40.57127,-105.07662
O000168,01955,412302,O000168-pearland,6117 Broadway St,,Pearland,832-617-8569,,281-485-4855,TX,,77581-7803,29.55954,-95.31433
O000168,01955,412302,O000168-sugar_land,2277 Plaza Dr,,Sugar Land,281-494-2649,,281-494-2690,TX,Suite 195,77479-6600,29.59596,-95.62145
O000171,,412682,O000171-casa_grande,211 N. Florence St.,,Casa Grande,,,520-316-0839,AZ,Suite 1,85122,32.8770219,-111.7541607
O000171,,412682,O000171-flagstaff,405 N. Beaver St.,,Flagstaff,,,928-286-5338,AZ,Suite 6,86001,35.2019797,-111.6486132
O000171,,412682,O000171-tucson,3037 W. Ina Rd,,Tucson,,,928-304-0131,AZ,Suite 101,85741,32.3363922,-111.0318291
O000172,,412804,O000172-jackson_heights,7409 37th Ave,,Jackson Heights,,,,NY,Suite 305,11372-6300,40.74924,-73.89132
O000173,,412791,O000173-minneapolis,404 3rd Ave N,,Minneapolis,,,612-333-1272,MN,Suite 203,55401-1779,44.98287,-93.27497
P000034,00887,400308,P000034-long_branch,504 Broadway,,Long Branch,732-870-3890,,732-571-1140,NJ,,07740,40.299971,-73.99841099999999
P000034,00887,400308,P000034-new_brunswick,67/69 Church St.,,New Brunswick,732-249-1335,,732-249-8892,NJ,,08901,40.4962932,-74.4427577
P000096,01510,400309,P000096-englewood,2-10 N. Van Brunt St.,,Englewood,,"Tues, Thurs 9am-5pm",201-935-2248,NJ,,07631,40.8946254,-73.97540300000001
P000096,01510,400309,P000096-lyndhurst,367 Valley Brook Ave.,,Lyndhurst,,"Wed, Fri 9am-5pm",201-935-2248,NJ,,07071,40.8126716,-74.1243659
P000096,01510,400309,P000096-passaic,330 Passaic St.,1st Street,Passaic,,"Mon, Wed 9am-5pm",973-472-4510,NJ,,07055,40.8612025,-74.12380890000001
P000096,01510,400309,P000096-paterson,200 Federal Plz.,Robert A. Roe Federal Building,Paterson,973-523-0637,M-F 9am-5:30pm,973-523-5152,NJ,Suite 500,07505,40.9151292,-74.1699154
P000197,00905,400314,P000197-san_francisco,90 7th St.,,San Francisco,,M-F 9-5:30pm,415-556-4862,CA,Suite 2-800,94103,37.7791976,-122.4121784
P000258,00910,400316,P000258-detroit_lakes,714 Lake Ave.,,Detroit Lakes,218-847-5109,,218-847-5056,MN,Suite 101,56501,46.81886249999999,-95.84703619999999
P000258,00910,400316,P000258-marshall,1420 E. College Dr.,,Marshall,507-537-2298,Mon - Thurs: 8:30AM to 4:00PM,507-537-2299,MN,,56258,44.447474,-95.7610983
P000258,00910,400316,P000258-redwood_falls,230 E. 3rd St.,,Redwood Falls,,First Wednesday of the month until 12pm and by appointment,507-637-2270,MN,,56283,44.5395952,-95.11752489999999
P000258,00910,400316,P000258-thief_river_falls,13892 Airport Dr,,Thief River Falls,218-847-5109,,218-683-5405,MN,,56701-8437,48.0823,-96.20309
P000258,00910,400316,P000258-willmar,1700 Technology Dr NE,,Willmar,320-235-2651,,320-235-1061,MN,Suite 119,56201-2284,45.09921,-95.09127
P000449,00924,400325,P000449-cincinnati,312 Walnut St.,,Cincinnati,,,513-684-3265,OH,Suite 3425,45202,39.0993058,-84.5103687
P000449,00924,400325,P000449-cleveland,1240 E. 9th St.,,Cleveland,,,216-522-7095,OH,Room 3061,44199,41.50477110000001,-81.69179849999999
P000449,00924,400325,P000449-columbus,37 W. Broad St.,,Columbus,,,614-469-6774,OH,Room 300,43215,39.9617817,-83.00202759999999
P000449,00924,400325,P000449-toledo,420 Madison Ave.,,Toledo,,,419-259-3895,OH,Room 1210,43604,41.6518781,-83.53530549999999
P000523,00930,400326,P000523-chapel_hill,1777 Fordham Blvd.,,Chapel Hill,919-967-8324,,919-967-7924,NC,Suite 204,27514,35.9455529,-79.0136236
P000523,00930,400326,P000523-raleigh,436 N. Harrington St.,,Raleigh,919-859-5998,,919-859-5999,NC,Suite 100,27603,35.7866594,-78.6442275
P000593,01835,412192,P000593-lakewood,12600 West Colfax Avenue,,Lakewood,303-274-6455,,303-274-7944,CO,Suite B-400,80215,39.7390492,-105.1404146
P000595,01929,412305,P000595-detroit,477 Michigan Ave.,Patrick V. McNamara Federal Building,Detroit,,,313-226-6020,MI,Suite 1837,48226,42.3311478,-83.0532168
P000595,01929,412305,P000595-grand_rapids,110 Michigan St. NW,Gerald R. Ford Federal Building,Grand Rapids,,,616-233-9150,MI,Suite 720,49503,42.96997460000001,-85.67097419999999
P000595,01929,412305,P000595-lansing,124 W. Allegan St.,,Lansing,,,517-377-1508,MI,Suite 1400,48933,42.73289279999999,-84.553479
P000595,01929,412305,P000595-marquette,857 W. Washington St.,,Marquette,,,906-226-4554,MI,Suite 308,49855,46.545668,-87.413111
P000595,01929,412305,P000595-rochester,407 6th St.,,Rochester,,,248-608-8040,MI,Suite C,48307,42.682816,-83.137692
P000595,01929,412305,P000595-saginaw,515 N. Washington Ave.,,Saginaw,,,989-754-0112,MI,Suite 401,48607,43.438206,-83.93773879999999
P000595,01929,412305,P000595-traverse_city,818 Red Dr.,,Traverse City,,,231-947-7773,MI,Suite 40,49684,44.7556947,-85.64489909999999
P000597,01927,412307,P000597-portland,2 Portland Fish Pier,,Portland,207-871-0720,,207-774-5019,ME,Suite 304,04101,43.651525,-70.25413499999999
P000597,01927,412307,P000597-waterville,1 Silver St.,,Waterville,207-873-5717,,207-873-5713,ME,,04901,44.5488273,-69.62960439999999
P000599,01915,412309,P000599-melbourne,2725 Judge Fran Jamieson Way,Building C,Melbourne,321-639-8595,,321-632-1776,FL,,32940,28.246385,-80.736905
P000601,02035,412443,P000601-gulfport,84 48th St,,Gulfport,228-864-3099,,228-864-7670,MS,,39507-4052,30.40959,-89.05056
P000601,02035,412443,P000601-hattiesburg,641 Main St.,,Hattiesburg,601-582-3452,,601-582-3246,MS,Suite 142,39401,31.32792959999999,-89.2911006
P000601,02035,412443,P000601-pascagoula,3118 Pascagoula St.,,Pascagoula,228-202-8105,,228-202-8104,MS,Suite 181,39567,30.3652731,-88.5554872
P000603,02082,412492,P000603-bowling_green,1029 State St.,,Bowling Green,,,270-782-8303,KY,,42101,36.991545,-86.44277609999999
P000604,02097,412506,P000604-hillside,1455 Liberty Ave.,,Hillside,862-225-2941,Mon-Fri 9am-6pm,862-229-2994,NJ,,07205,40.70234809999999,-74.228127
P000604,02097,412506,P000604-jersey_city,253 Martin Luther King Dr.,,Jersey City,201-369-0395,,201-369-0392,NJ,,07305,40.7077679,-74.0826434
P000604,02097,412506,P000604-newark,60 Nelson Pl.,"LeRoy F. Smith, Jr. Public Safety Building",Newark,973-645-5902,9:00 am - 6:00pm,973-645-3213,NJ,14th Floor,07102,40.73821,-74.182222
P000605,02157,412569,P000605-harrisburg,800 Corporate Cir,,Harrisburg,,"9:00 a.m. - 5:00 p.m., M-F",717-603-4980,PA,Suite 202,17110-9346,40.30758,-76.84917
P000605,02157,412569,P000605-wormleysburg,730 N. Front St.,,Wormleysburg,717-635-9861,"9:00 a.m. - 5:00 p.m., M-F",717-635-9504,PA,,17043,40.26472500000001,-76.909221
P000607,02171,412585,P000607-beloit,100 State St.,,Beloit,,"Second Thursday of the Month, 9:30 - 11:30 AM",608-365-8001,WI,3rd floor,53511,42.49752240000001,-89.03699309999999
P000607,02171,412585,P000607-madison,10 E. Doty St.,,Madison,608-258-0377,"Monday - Friday, 8:00 AM - 5:00 PM",608-258-9800,WI,Suite 405,53703,43.0737508,-89.3816999
P000608,02113,412523,P000608-san_diego,4350 Executive Dr.,,San Diego,,M-F 8:30am-5:00pm,858-455-5550,CA,Suite 105,92121,32.8755637,-117.2121916
P000609,02221,412608,P000609-birmingham,3535 Grandview Pkwy.,,Birmingham,205-968-1294,,205-968-1290,AL,Suite 525,35243,33.4391291,-86.7225137
P000609,02221,412608,P000609-clanton,703 2nd Ave North,,Clanton,,,205-280-6846,AL,Box 502,35045,32.8389716,-86.63128739999999
P000609,02221,412608,P000609-oneonta,220 2nd Ave E,Blount County Courthouse,Oneonta,,,205-625-4160,AL,,35121,33.9464211,-86.4781082
P000610,02274,412659,P000610-frederiksted,60 King St.,,Frederiksted,340-778-5111,8:30 - 5pm,340-778-5900,VI,,00840,17.712475,-64.882701
P000610,02274,412659,P000610-st__thomas,9100 Havensight,Port of Sale Mall,St. Thomas,340-774-8033,8:30-5pm,340-774-4408,VI,Suite 22,00802,18.334264,-64.919169
P000612,02286,412666,P000612-atlanta,3280 Peachtree Road NE,,Atlanta,404-816-3435,,404-865-0087,GA,Suite 2640,30305,33.8444244,-84.3710444
P000613,,412685,P000613-salinas,100 W. Alisal St.,,Salinas,831-424-7099,,831-424-2229,CA,,93901,36.6737182,-121.6575375
P000613,,412685,P000613-santa_cruz,701 Ocean St.,,Santa Cruz,831-424-7099,,831-429-1976,CA,Room 318C,95060,36.9778501,-122.0226351
P000614,,412795,P000614-dover,660 Central Ave,,Dover,,,603-285-4300,NH,Suite 101,03820-3491,43.20588,-70.87583
P000615,,412778,P000615-columbus,555 1st St,,Columbus,,,812-799-5230,IN,B,47201-6703,39.19891,-85.91904
P000616,,412790,P000616-bloomington,1800 W Old Shakopee Rd,Bloomington Civic Plaza,Bloomington,,"Monday - Friday, 9:00 a.m. - 5:00 p.m.",952-563-4593,MN,Second Floor,55431-3071,44.82514,-93.30211
P000617,,412782,P000617-boston,1700 Dorchester Ave,,Boston,,,,MA,,02122-1373,42.2987,-71.05997
P000618,,412758,P000618-irvine,2151 Michelson Dr,,Irvine,,M-F 9AM-6PM PT,949-668-6600,CA,Suite 195,92612-1330,33.67771,-117.8568
Q000023,01967,412331,Q000023-chicago,4345 N. Milwaukee Ave.,Portage Park Office,Chicago,773-267-6583,Monday - Friday 9am - 5:30pm,773-267-5926,IL,,60641,41.9600352,-87.7536327
Q000023,01967,412331,Q000023-chicago-1,3223 N. Sheffield Ave.,,Chicago,,Monday - Friday 9am - 5pm,773-267-5926,IL,,60657,41.94076279999999,-87.6538984
R000122,00949,300081,R000122-cranston,1000 Chapel View Blvd.,,Cranston,401-464-6837,,401-943-3100,RI,Suite 290,02920,41.7566184,-71.4607281
R000122,00949,300081,R000122-providence,One Exchange Terrace,U.S. District Courthouse,Providence,202-224-4680,,401-528-5200,RI,Suite 408,02903-1744,41.8262057,-71.4109836
R000307,00968,300083,R000307-dodge_city,100 Military Plz.,,Dodge City,620-227-2264,,620-227-2244,KS,PO Box 550,67801,37.7540807,-100.0164714
R000307,00968,300083,R000307-overland_park,11900 College Boulevard,,Overland Park,913-451-9446,,913-451-9343,KS,Suite 203,66210,38.9280229,-94.7243276
R000307,00968,300083,R000307-topeka,444 SE. Quincy,Frank Carlson Federal Bldg.,Topeka,785-235-3665,,785-295-2745,KS,Room 392,66683,39.0529221,-95.670288
R000307,00968,300083,R000307-wichita,125 N. Market St.,,Wichita,316-263-0273,,316-263-0416,KS,Suite 1120,67202,37.6870978,-97.3372521
R000395,00977,400340,R000395-hazard,48 S. KY Hwy. 15,,Hazard,606-439-4647,,606-439-0794,KY,,41701,37.3598755,-83.2591463
R000395,00977,400340,R000395-prestonsburg,110 Resource Ct.,,Prestonsburg,606-889-0371,,606-886-0844,KY,Suite A,41653,37.6921145,-82.7793413
R000395,00977,400340,R000395-somerset,551 Clifty St.,,Somerset,606-678-4856,,800-632-8588,KY,,42503,37.0976576,-84.6167349
R000486,00997,400347,R000486-commerce,500 Citadel Dr.,,Commerce,323-721-8789,,323-721-8790,CA,Suite 320,90040,34.0062357,-118.1519972
R000515,01003,400350,R000515-chicago,11750 S. Western Ave.,,Chicago,773-779-2401,"Monday – Friday, 9 a.m. – 6 p.m., Central",773-779-2400,IL,,60643-4732,41.6793889,-87.6811963
R000575,01704,400341,R000575-anniston,1129 Noble St.,,Anniston,256-237-9203,Monday-Friday 9:00AM-5:00PM,256-236-5655,AL,# 104,36201,33.6595488,-85.8294458
R000575,01704,400341,R000575-opelika,701 Avenue A,G.W. Andrews Federal Building,Opelika,334-742-0109,Monday-Friday 8:00AM-5:00PM,334-745-6221,AL,Suite 300,36801,32.6481909,-85.3772489
R000576,01728,400349,R000576-timonium,375 W. Padonia Rd.,The Atrium,Timonium,410-628-2708,,410-628-2701,MD,Suite 200,21093,39.454911,-76.640205
R000577,01756,400352,R000577-akron,1030 Tallmadge Ave.,,Akron,330-630-7314,M-F 9AM-5PM EST,330-630-7311,OH,,44310,41.099949,-81.478217
R000577,01756,400352,R000577-warren,197 W. Market St.,,Warren,330-373-0098,M-F 9AM-5PM EST,800-856-4152,OH,,44481,41.235888,-80.819818
R000577,01756,400352,R000577-youngstown,241 W. Federal St.,,Youngstown,330-740-0182,M-F 9AM-5PM EST,330-740-0193,OH,,44503,41.1012396,-80.6529585
R000582,01954,412310,R000582-kingsport,205 Revere St.,,Kingsport,423-247-0119,,423-247-8161,TN,,37660,36.5481252,-82.56324289999999
R000582,01954,412310,R000582-morristown,1609 Walters State CC Dr.,,Morristown,423-254-1403,,423-254-1400,TN,Suite 4,37813,36.2043221,-83.26019269999999
R000584,01896,412322,R000584-boise,350 N. 9th St.,,Boise,208-343-2458,,208-342-7985,ID,Suite 302,83702,43.618145,-116.2024194
R000584,01896,412322,R000584-coeur_d_alene,610 Hubbard,Harbor Plaza,Coeur d'Alene,208-765-1743,,208-667-6130,ID,Suite 213,83814,47.6826921,-116.7920799
R000584,01896,412322,R000584-idaho_falls,901 Pier View Dr.,,Idaho Falls,208-523-9373,,208-523-5541,ID,Suite 202A,83402,43.4836745,-112.0514001
R000584,01896,412322,R000584-lewiston,313 D St.,,Lewiston,208-746-7275,,208-743-0792,ID,Suite 106,83501,46.422158,-117.028638
R000584,01896,412322,R000584-pocatello,275 S. 5th Ave.,,Pocatello,208-236-6820,,208-236-6817,ID,Suite 290,83201,42.8649373,-112.4428822
R000584,01896,412322,R000584-twin_falls,1411 Falls Avenue East,,Twin Falls,208-734-3905,,208-734-6780,ID,Suite 201,83301,42.5785998,-114.456626
R000585,01982,412393,R000585-corning,89 W. Market St.,,Corning,607-654-7568,,607-654-7566,NY,,14830,42.1441654,-77.0580681
R000585,01982,412393,R000585-geneva,433 Exchange St.,,Geneva,315-325-4045,,315-759-5229,NY,,14456,42.868166,-76.980885
R000585,01982,412393,R000585-jamestown,2 E. 2nd St.,,Jamestown,716-708-6058,,716-708-6369,NY,Suite 208,14701,42.0953958,-79.2406941
R000585,01982,412393,R000585-olean,One Bluebird Square,,Olean,716-806-1069,,716-379-8434,NY,,14760,42.07941,-78.43005699999999
R000588,02023,412432,R000588-baton_rouge,1520 Thomas H Delpit Dr.,,Baton Rouge,225-636-5680,Mon-Fri 8:30am-5pm,225-636-5600,LA,Suite 126,70802,30.4340407,-91.17866599999999
R000588,02023,412432,R000588-gretna,200 Derbigny St.,,Gretna,,Monday-Friday 8:30AM-5:00PM,504-365-0390,LA,Suite 3200,70053,29.9160227,-90.06773629999999
R000588,02023,412432,R000588-new_orleans,2021 Lakeshore Dr.,,New Orleans,504-288-4090,Monday-Friday 8:30AM-5:00PM,504-288-3777,LA,Suite 309,70122,30.0318171,-90.06439449999999
R000591,01986,412394,R000591-andalusia,505 E. Three Notch St.,City Hall,Andalusia,334-222-3342,,334-428-1129,AL,Suite 322,36420,31.3084109,-86.4756474
R000591,01986,412394,R000591-dothan,217 Graceland Dr.,,Dothan,334-671-1480,,334-794-9680,AL,Suite 5,36305,31.232517,-85.452038
R000591,01986,412394,R000591-montgomery,401 Adams Ave.,,Montgomery,334-262-8758,,334-262-7718,AL,Suite 160,36104,32.3749292,-86.3029162
R000595,02084,412491,R000595-fort_myers,2120 Main St.,,Fort Myers,,,239-318-6464,FL,Room 200,33901,26.6426923,-81.8727155
R000595,02084,412491,R000595-jacksonville,300 North Hogan St.,Bryan Simpson U.S. Courthouse,Jacksonville,,M-F 8:30AM-5:30PM,904-354-4300,FL,Suite 8-111,32202,30.32909,-81.65997
R000595,02084,412491,R000595-miami,7400 SW 87th Ave.,,Miami,305-596-4345,,305-596-4224,FL,Suite 270,33173,25.7001209,-80.3372066
R000595,02084,412491,R000595-orlando,201 S. Orange Ave.,,Orlando,407-423-0941,,407-254-2573,FL,Suite 350,32801,28.5400755,-81.3780508
R000595,02084,412491,R000595-palm_beach_gardens,4580 PGA Blvd.,,Palm Beach Gardens,866-630-7106,,561-775-3360,FL,Suite 201,33418,26.8380427,-80.11140940000001
R000595,02084,412491,R000595-pensacola,700 S. Palafox St.,,Pensacola,,,850-433-2603,FL,Suite 125,32502,30.405605,-87.213161
R000595,02084,412491,R000595-tallahassee,402 S. Monroe St.,,Tallahassee,,,850-599-9100,FL,Suite 2105E,32399,30.438114,-84.281289
R000595,02084,412491,R000595-tampa,801 N. Florida Ave.,Sam M. Gibbons U.S. Courthouse,Tampa,866-630-7106,,813-853-1099,FL,Suite 1130,33602,27.9514709,-82.4604482
R000597,02160,412572,R000597-florence,1831 W. Evans St.,,Florence,843-679-9783,,843-679-9781,SC,Suite 300,29501,34.1959092,-79.8017864
R000597,02160,412572,R000597-myrtle_beach,2411 N. Oak St.,,Myrtle Beach,843-445-6418,,843-445-6459,SC,Suite 405,29577,33.7081253,-78.87212720000001
R000599,02109,412519,R000599-hemet,445 E. Florida Ave.,,Hemet,951-765-3784,,951-765-2304,CA,2nd Floor,92543,33.7472608,-116.9677534
R000599,02109,412519,R000599-palm_desert,43875 Washington Street,,Palm Desert,760-424-8993,,760-424-8888,CA,Suite F,92211,33.7302529,-116.3043432
R000600,02222,412664,R000600-pago_pago,1 Fagatogo Square,,Pago Pago,684-633-3607,,684-633-3601,AS,PO Box 5859,96799,-14.2775712,-170.6899787
R000601,02268,412653,R000601-rockwall,6531 Horizon Rd.,,Rockwall,972-771-1222,,972-771-0100,TX,Suite A,75032,32.8672397,-96.4424884
R000601,02268,412653,R000601-sherman,100 W. Houston St.,,Sherman,903-868-8613,,903-813-5270,TX,1st Floor,75090,33.6358717,-96.60972439999999
R000601,02268,412653,R000601-texarkana,2600 N. Robison Rd.,Texarkana College – Health Science Building,Texarkana,903-832-3232,,903-823-3173,TX,Suite 190,75599,33.4436958,-94.0802978
R000602,02262,412647,R000602-garden_city,229 7th St.,,Garden City,516-739-2973,,516-739-3008,NY,Suite 300,11530,40.7258629,-73.63281649999999
R000603,02256,412641,R000603-bolivia,310 Government Center Dr.,,Bolivia,910-253-6114,,910-253-6111,NC,Unit 1,28422,34.0583353,-78.16267719999999
R000603,02256,412641,R000603-four_oaks,4001 US Hwy. 301 South,,Four Oaks,919-938-3540,,919-938-3040,NC,Suite 106,27524,35.46515,-78.387203
R000603,02256,412641,R000603-wilmington,230 Government Center Dr.,,Wilmington,910-395-0209,,910-395-0202,NC,Suite 113,28403,34.2415626,-77.8669625
R000605,02288,412669,R000605-aberdeen,514 S. Main St.,,Aberdeen,,,605-225-0366,SD,Suite 100,57401,45.45953249999999,-98.48834950000001
R000605,02288,412669,R000605-pierre,111 W. Capitol Ave.,,Pierre,605-224-1379,,605-224-1450,SD,Suite 210,57501,44.36917280000001,-100.35182
R000605,02288,412669,R000605-rapid_city,1313 W. Main St.,,Rapid City,605-343-5348,,605-343-5035,SD,,57701,44.0818193,-103.2403111
R000605,02288,412669,R000605-sioux_falls,320 N. Main Ave.,,Sioux Falls,605-336-6624,,605-336-0486,SD,Suite A,57104,43.5506861,-96.7279008
R000606,,412708,R000606-rockville,51 Monroe St.,,Rockville,,,301-354-1000,MD,Suite 503,20850,39.083791,-77.1481645
R000607,,412699,R000607-cape_coral,1039 SE 9th Ave.,,Cape Coral,239-573-7629,,239-599-6033,FL,Suite 308,33990,26.6320987,-81.9561391
R000607,,412699,R000607-naples,3299 Tamiami Trail East,,Naples,,,239-252-6225,FL,Suite 105,34112,26.1270603,-81.7664209
R000608,,412715,R000608-las_vegas,8930 W Sunset Rd,,Las Vegas,,,702-388-0205,NV,Suite 230,89148-5008,36.07191,-115.28661
R000608,,412715,R000608-reno,400 S Virginia St,Bruce Thompson Federal Building,Reno,,,775-337-0110,NV,Suite 738,89501-2132,39.52994,-119.81414
R000609,,412692,R000609-jacksonville,4130 Salisbury Rd.,Suite 2500,Jacksonville,,,904-831-5205,FL,,32216,30.2539737,-81.5959646
R000610,,412813,R000610-greensburg,700 Pellis Rd,,Greensburg,,,724-219-4200,PA,Suite 1,15601-4488,40.29199,-79.52448
R000611,,412831,R000611-charlottesville,686 Berkmar Cir,,Charlottesville,,,434-973-9631,VA,,22901-1464,38.08462,-78.47903
R000611,,412831,R000611-danville,308 Craghead St,,Danville,,,434-791-2596,VA,102-D,24541-1470,36.58699,-79.38951
R000612,,412818,R000612-cookeville,321 E Spring St,,Cookeville,615-206-8980,,931-854-9430,TN,Suite 301,38501-4167,36.16183,-85.50005
R000612,,412818,R000612-gallatin,355 N Belvedere Dr,,Gallatin,615-206-8980,,615-206-8204,TN,Suite 308,37066-5466,36.37974,-86.48063
R000613,,412803,R000613-staten_island,265 New Dorp Ln,,Staten Island,,,718-667-3313,NY,Second Floor,10306-3056,40.57258,-74.1132
R000614,,412826,R000614-san_antonio,1100 NE Loop 410,,San Antonio,210-821-5947,,210-821-5024,TX,Suite 640,78209-1537,29.51566,-98.45396
R000615,,412841,R000615-salt_lake_city,125 S State St,,Salt Lake City,,,801-524-4380,UT,Suite 8402,84138-1102,40.76664,-111.88714
R000616,,412759,R000616-newport_beach,4000 Westerly Pl,,Newport Beach,,,714-960-6483,CA,Suite 270,92660-2328,33.6629,-117.86753
S000033,01010,400357,S000033-burlington,1 Church St.,,Burlington,802-860-6370,,802-862-0697,VT,3rd Floor,05401,44.4802081,-73.21307019999999
S000033,01010,400357,S000033-st__johnsbury,357 Western Ave.,,St. Johnsbury,802-860-6370,,800-339-9834,VT,Suite 1B,05819,44.4173546,-72.02646469999999
S000148,01036,300087,S000148-rochester,100 State St.,,Rochester,585-263-3173,,585-263-5866,NY,Room 3040,14614,43.1576631,-77.613515
S000148,01036,300087,S000148-albany,1 Clinton Ave.,Leo O'Brien Building,Albany,518-431-4076,,518-431-4070,NY,Room 420,12207,42.65513869999999,-73.749201
S000148,01036,300087,S000148-binghamton,15 Henry St.,,Binghamton,607-772-8124,,607-772-6792,NY,Room. 100 A-F,13901,42.1008749,-75.9123579
S000148,01036,300087,S000148-buffalo,130 S. Elmwood Ave.,,Buffalo,716-846-4113,,716-846-4111,NY,#660,14202,42.88902849999999,-78.87954189999999
S000148,01036,300087,S000148-melville,145 Pine Lawn Rd.,,Melville,631-753-0997,,631-753-0978,NY,Suite 300,11747,40.7708436,-73.40787569999999
S000148,01036,300087,S000148-new_york,780 Third Ave.,,New York,202-228-2838,,212-486-4430,NY,Suite 2301,10017,40.7550353,-73.97185879999999
S000148,01036,300087,S000148-peekskill,One Park Place,,Peekskill,914-734-1673,,914-734-1532,NY,Suite 100,10566,41.29051020000001,-73.91672969999999
S000148,01036,300087,S000148-syracuse,100 S. Clinton St.,,Syracuse,315-423-5185,,315-423-5471,NY,Room 841,13261,43.0501042,-76.1543204
S000185,01037,400364,S000185-newport_news,2600 Washington Ave.,,Newport News,757-928-6694,Mon-Fri 8:30am-5:30pm,757-380-1000,VA,Suite 1010,23607,36.9788711,-76.4304902
S000244,01041,400365,S000244-brookfield,120 Bishops Way,,Brookfield,,,262-784-1111,WI,Room 154,53005-6294,43.0288605,-88.0784599
S000248,01042,400366,S000248-bronx,1231 Lafayette Ave.,,Bronx,718-620-0658,,718-620-0084,NY,4th Floor,10474,40.81678230000001,-73.8906744
S000320,01049,300089,S000320-birmingham,1800 5th Avenue North,Robert S. Vance Federal Building,Birmingham,205-731-1386,,205-731-1384,AL,321,35203,33.517386,-86.810488
S000320,01049,300089,S000320-huntsville,1000 Glenn Hearn Blvd.,,Huntsville,256-772-8387,,256-772-0460,AL,#20127,35824,34.6471339,-86.77460219999999
S000320,01049,300089,S000320-mobile,113 St Joseph St.,U.S. Federal Courthouse,Mobile,251-694-4166,,251-694-4164,AL,445,36602,30.6938886,-88.0431615
S000320,01049,300089,S000320-montgomery,15 Lee St.,FMJ Federal Courthouse,Montgomery,334-223-7317,,334-223-7303,AL,Suite 208,36104,32.3752753,-86.3089916
S000320,01049,300089,S000320-tuscaloosa,2005 University Blvd.,,Tuscaloosa,,,205-759-5047,AL,Suite 2100,35401,33.21019640000001,-87.5631689
S000344,01526,400371,S000344-sherman_oaks,5000 Van Nuys Blvd.,,Sherman Oaks,818-501-1554,M-F 9-5:30pm,818-501-9200,CA,Suite 420,91403,34.1615172,-118.4483015
S000364,01527,400373,S000364-danville,201 N. Vermilion St.,,Danville,217-446-0670,"Monday, Wednesday & Friday from 12 p.m. to 5 p.m. and Tuesday & Thursday from 7:30 a.m. to 3 p.m. (central)",217-446-0664,IL,Suite 218,61832,40.1282688,-87.62999789999999
S000364,01527,400373,S000364-effingham,101 N. 4th St.,,Effingham,217-342-1219,M-F 9AM-5PM,217-347-7947,IL,Suite 303,62401,39.1216874,-88.5424005
S000364,01527,400373,S000364-harrisburg,110 E. Locust St.,,Harrisburg,618-252-8317,M-F 8AM-4PM,618-252-8271,IL,Room 12,62946,37.739086,-88.539304
S000364,01527,400373,S000364-maryville,15 Professional Park Dr.,,Maryville,618-288-7219,Monday through Friday from 9 a.m. to 5 p.m,618-288-7190,IL,,62062,38.737077,-89.95489859999999
S000510,01528,400379,S000510-renton,15 S. Grady Way,Evergreen Building,Renton,,8:00 am - 5:00 pm PST,425-793-5180,WA,Suite 101,98057,47.469273,-122.2153306
S000522,01071,400380,S000522-freehold,112 Village Center Dr.,Raintree Shopping Center,Freehold,732-780-3079,,732-780-3035,NJ,Second Floor,07728,40.2402775,-74.30812019999999
S000522,01071,400380,S000522-hamilton,4573 S. Broad St.,,Hamilton,609-585-9155,,609-585-7878,NJ,,08620,40.178635,-74.67184200000001
S000522,01071,400380,S000522-plumsted,405 Route 539 (Pinehurst Rd.),,Plumsted,609-585-9155,,609-585-7878,NJ,,08514,40.1027135,-74.5068462
S000770,01531,300093,S000770-detroit,719 Griswold St.,,Detroit,,,313-961-4330,MI,Suite 700,48226,42.3307555,-83.048152
S000770,01531,300093,S000770-east_lansing,221 W. Lake Lansing Rd.,,East Lansing,,,517-203-1760,MI,Suite 100,48823,42.757677,-84.48539199999999
S000770,01531,300093,S000770-flint,432 N. Saginaw St.,,Flint,,,810-720-4172,MI,Suite 301,48502,43.0201574,-83.69306720000002
S000770,01531,300093,S000770-grand_rapids,3280 E. Beltline Ct. NE,,Grand Rapids,,,616-975-0052,MI,Suite 400,49525,43.037652,-85.588081
S000770,01531,300093,S000770-marquette,1901 W. Ridge,,Marquette,,,906-228-8756,MI,Suite 7,49855,46.5484343,-87.4269822
S000770,01531,300093,S000770-traverse_city,3335 S. Airport Road West,,Traverse City,,,231-929-1031,MI,Suite 6B,49684,44.7222478,-85.642375
S001145,01588,400360,S001145-glenview,1852 Johns Dr.,,Glenview,847-328-3425,,847-328-3409,IL,,60025,42.0884495,-87.8103273
S001145,01588,400360,S001145-chicago,5533 N. Broadway,,Chicago,773-506-9202,,773-506-7100,IL,,60640,41.9827237,-87.6595983
S001145,01588,400360,S001145-evanston,820 Davis St.,,Evanston,847-328-3425,,847-328-3409,IL,Suite 105,60201,42.0466618,-87.6829625
S001148,01590,400376,S001148-boise,802 W. Bannock,,Boise,208-334-9533,,208-334-1953,ID,Suite 600,83702,43.6174275,-116.2020512
S001148,01590,400376,S001148-idaho_falls,410 Memorial Dr.,,Idaho Falls,,,208-523-6701,ID,Suite 203,83402,43.4936265,-112.0425928
S001148,01590,400376,S001148-twin_falls,650 Addison Ave W,,Twin Falls,,,208-734-7219,ID,Suite 1078,83301-5851,42.56422,-114.49355
S001150,01635,400361,S001150-burbank,245 E. Olive Ave.,,Burbank,818-450-2928,,818-450-2900,CA,#200,91502,34.1815906,-118.3083786
S001150,01635,400361,S001150-los_angeles,5500 Hollywood Blvd.,,Los Angeles,,Open Tuesdays 2 pm - 5 pm and by appointment only.,323-315-5555,CA,Suite #416,90028,34.1014609,-118.3095706
S001156,01757,400355,S001156-norwalk,12440 E. Imperial Hwy.,,Norwalk,562-924-2914,,562-860-5050,CA,Suite 140,90650,33.9163272,-118.0663246
S001157,01722,400363,S001157-jonesboro,173 N. Main St.,,Jonesboro,770-210-5673,,770-210-5073,GA,,30236,33.5257191,-84.3547213
S001157,01722,400363,S001157-smyrna,888 Concord Rd.,,Smyrna,770-432-5813,,770-432-5405,GA,Suite 100,30080,33.874631,-84.5279704
S001165,01818,412186,S001165-elizabeth,800 Anna St.,,Elizabeth,908-820-0694,Mon-Fri 8:00am-4:00pm,908-820-0692,NJ,,07201,40.6662148,-74.1968162
S001165,01818,412186,S001165-jersey_city,257 Cornelison Ave.,,Jersey City,201-309-0384,M-F 9-6:00pm,201-309-0301,NJ,Suite 4408,07302,40.7248331,-74.0607631
S001165,01818,412186,S001165-west_new_york,5500 Palisade Ave.,,West New York,201-617-2809,Mon-Fri 9-6:00pm,201-558-0800,NJ,Suite A,07093,40.7850274,-74.0161301
S001168,01854,412212,S001168-annapolis,44 Calvert St.,Arundel Center,Annapolis,410-295-1682,"Tues, 11 a.m. - 1 p.m. or by appointment",410-295-1679,MD,Suite 349,21401,38.9793786,-76.4949839
S001168,01854,412212,S001168-burtonsville,14906 Old Columbia Pike,Marilyn J. Praisner Community Recreation Center,Burtonsville,,"Th, 11 a.m. - 1 p.m., or by appointment",301-421-4078,MD,,20866,39.102063,-76.941686
S001168,01854,412212,S001168-towson,600 Baltimore Ave.,,Towson,410-832-8898,"M-F, 9 a.m. - 5 p.m.",410-832-8890,MD,Suite 303,21204,39.4023248,-76.6073615
S001172,01860,412217,S001172-grand_island,1811 W. Second St.,,Grand Island,308-384-3902,,308-384-3900,NE,Suite 275,68803,40.91689849999999,-98.35834179999999
S001172,01860,412217,S001172-scottsbluff,416 Valley View Dr.,,Scottsbluff,308-633-6335,,308-633-6333,NE,Suite 600,69361,41.8785841,-103.6569419
S001175,01890,412259,S001175-san_mateo,155 Bovet Rd.,,San Mateo,650-375-8270,,650-342-0300,CA,Suite 780,94402,37.5496382,-122.3167359
S001176,01892,412261,S001176-hammond,1514 Martens Dr.,,Hammond,,,985-340-2185,LA,Suite 10,70401,30.517849,-90.47894529999999
S001176,01892,412261,S001176-houma,8026 Main St.,,Houma,,,985-879-2300,LA,Suite 700,70360,29.5979361,-90.71805719999999
S001176,01892,412261,S001176-mandeville,21454 Koop Drive,,Mandeville,,,985-893-9064,LA,Suite 2C,70471,30.4172835,-90.0434162
S001176,01892,412261,S001176-metairie,110 Veterans Blvd.,,Metairie,,,504-837-1259,LA,Suite 500,70005,29.9992548,-90.1242066
S001177,01962,412312,S001177-rota,P.O. Box 1361,,Rota,670-532-2649,,670-532-2647,MP,,96951,,
S001177,01962,412312,S001177-saipan,P.O. Box 504879,,Saipan,670-323-2649,,670-323-2647,MP,,96950,,
S001177,01962,412312,S001177-tinian,PO Box 520394,,Tinian,670-433-2648,,670-433-2647,MP,,96952,,
S001180,01950,412315,S001180-oregon_city,621 High St.,,Oregon City,503-557-1981,,503-557-1324,OR,,97045,45.3571432,-122.6070483
S001180,01950,412315,S001180-salem,530 Center St. NE,,Salem,503-588-5517,,503-588-9100,OR,Suite 415,97301,44.94254830000001,-123.0352226
S001181,01901,412323,S001181-berlin,961 Main St.,,Berlin,,,603-752-6300,NH,,03570,44.4781896,-71.1708276
S001181,01901,412323,S001181-claremont,50 Opera House Sq.,,Claremont,,,603-542-4872,NH,,03743,43.3727196,-72.3373946
S001181,01901,412323,S001181-dover,340 Central Ave.,,Dover,,,603-750-3004,NH,Suite 205,03820,43.1952108,-70.8748699
S001181,01901,412323,S001181-keene,12 Gilbo Ave.,,Keene,,,603-358-6604,NH,Suite C,03431,42.9323699,-72.2794587
S001181,01901,412323,S001181-manchester,2 Wall St.,,Manchester,,Mon-Fri 8:30am-5:00pm,603-647-7500,NH,Suite 220,03101,42.9940731,-71.46386679999999
S001181,01901,412323,S001181-nashua,60 Main St.,,Nashua,,,603-883-0196,NH,Suite 217,03060,42.7633363,-71.4659542
S001183,01994,412399,S001183-scottsdale,14500 N Northsight Blvd,,Scottsdale,480-946-2446,,480-946-2411,AZ,Suite 221,85260-3658,33.61738,-111.89853
S001184,02056,412471,S001184-columbia,1901 Main St.,,Columbia,855-802-9355,8:30am - 5:30pm (M-F),803-771-6112,SC,Suite 1425,29201,34.0108841,-81.0384094
S001184,02056,412471,S001184-greenville,104 S. Main St.,,Greenville,855-802-9355,8:30am - 5:30pm (M-F),864-233-5366,SC,Suite 803,29601,34.849407,-82.40024
S001184,02056,412471,S001184-north_charleston,2500 City Hall Ln.,,North Charleston,855-802-9355,8:30am - 5:30pm (M-F),843-727-4525,SC,3rd Floor Suite,29406,32.8769943,-80.0121928
S001185,01988,412396,S001185-selma,908 Alabama Ave.,Federal Building,Selma,334-877-4489,,334-877-4414,AL,Suite 112,36701,32.4071252,-87.0214629
S001185,01988,412396,S001185-birmingham,Two 20th Street North,,Birmingham,205-254-1974,,205-254-1960,AL,Suite 1130,35203,33.5132889,-86.80582559999999
S001185,01988,412396,S001185-montgomery,101 S. Lawrence St.,Courthouse,Montgomery,334-262-1921,,334-262-1919,AL,Annex 3,36104,32.3759486,-86.3054822
S001185,01988,412396,S001185-tuscaloosa,2501 7th St.,,Tuscaloosa,205-752-5899,,205-752-5380,AL,Suite 300,35401,33.2071459,-87.56926
S001187,02047,412461,S001187-hilliard,3790 Municipal Way,,Hilliard,614-771-3990,,614-771-4968,OH,,43026,40.0297127,-83.150804
S001187,02047,412461,S001187-lancaster,104 East Main St.,,Lancaster,740-654-2482,,740-654-2654,OH,,43130,39.7133714,-82.6038377
S001187,02047,412461,S001187-wilmington,69 N. South St.,,Wilmington,937-283-7052,,937-283-7049,OH,,45177,39.4462521,-83.8288317
S001189,02009,412417,S001189-tifton,127-B N. Central Ave.,,Tifton,229-396-5179,,229-396-5175,GA,,31794,31.4548661,-83.5107367
S001189,02009,412417,S001189-warner_robins,230 Margie Dr.,,Warner Robins,478-971-1778,,478-971-1776,GA,Suite 500,31088,32.6144617,-83.6893055
S001190,02124,412534,S001190-lincolnshire,111 Barclay Blvd.,,Lincolnshire,847-793-0677,,847-383-4870,IL,Suite 200,60069,42.1964098,-87.9362154
S001190,02124,412534,S001190-round_lake_park,433 E Washington St.,,Round Lake Park,,"Monday 8:30AM-4:30PM, Tuesday 8:30AM-12:30PM",,IL,,60073,42.3565821,-88.0740214
S001190,02124,412534,S001190-waukegan,100 N Martin Luther King Jr Ave,,Waukegan,,"Tuesday 12:00-5:00pm,Wednesday 8:00am-5:00pm",,IL,,60085-4328,42.36129,-87.83472
S001191,02099,412509,S001191-phoenix,2200 E Camelback Rd,,Phoenix,,,602-598-7327,AZ,Suite 120,85016-3454,33.50965,-112.03408
S001192,02168,412581,S001192-salt_lake_city,420 East South Temple,,Salt Lake City,801-364-5551,,801-364-5550,UT,#390,84111,40.7686249,-111.8789585
S001192,02168,412581,S001192-st__george,253 W. St George Blvd.,,St. George,435-627-1911,,435-627-1500,UT,Suite 100,84770,37.10961350000001,-113.5887467
S001193,02104,412514,S001193-castro_valley,3615 Castro Valley Blvd.,,Castro Valley,,M-F 9:00 AM to 5:00 PM,510-370-3322,CA,,94546,37.6950519,-122.0722708
S001194,02173,412507,S001194-honolulu,300 Ala Moana Blvd.,,Honolulu,808-523-2065,,808-523-2061,HI,Room 7-212,96850,21.3036893,-157.862353
S001195,02191,412596,S001195-cape_girardeau,2502 Tanner Dr.,,Cape Girardeau,573-335-1931,,573-335-0101,MO,Suite 205,63703,37.30292850000001,-89.55584789999999
S001195,02191,412596,S001195-farmington,22 E. Columbia St.,,Farmington,573-756-9762,,573-756-9755,MO,,63640,37.7803665,-90.4203215
S001195,02191,412596,S001195-poplar_bluff,2725 N. Westwood Blvd.,,Poplar Bluff,,,573-609-2996,MO,Suite 5A,63901,36.7847526,-90.4294579
S001195,02191,412596,S001195-rolla,830A S. Bishop,,Rolla,573-364-1053,,573-364-2455,MO,,65401,37.9315472,-91.7789873
S001195,02191,412596,S001195-west_plains,35 Court Sq.,,West Plains,417-255-2009,,417-255-1515,MO,Suite 300,65775,36.7283104,-91.8529136
S001196,02263,412648,S001196-glens_falls,5 Warren St,,Glens Falls,518-743-1391,,518-743-0964,NY,Suite 4,12801-4565,43.30977,-73.64131
S001196,02263,412648,S001196-plattsburgh,23 Durkee St.,,Plattsburgh,518-561-2408,,518-561-2324,NY,Suite C,12901,44.6964439,-73.45244749999999
S001196,02263,412648,S001196-watertown,88 Public Sq.,,Watertown,315-782-1291,Mon-Fri 9-5,315-782-3150,NY,Suite A,13601,43.974587,-75.907664
S001197,02289,412671,S001197-kearney,4111 Fourth Ave.,,Kearney,,,308-233-3677,NE,Suite 26,68845,40.715284,-99.086211
S001197,02289,412671,S001197-lincoln,1128 Lincoln Mall,,Lincoln,,,402-476-1400,NE,Suite 305,68508,40.8084319,-96.7048142
S001197,02289,412671,S001197-omaha,304 N. 168th Cir.,,Omaha,,,402-550-8040,NE,Suite 213,68118,41.2618733,-96.1778064
S001197,02289,412671,S001197-scottsbluff,115 Railway St.,,Scottsbluff,,,308-632-6032,NE,Suite C102,69361,41.8624626,-103.6650529
S001198,02290,412665,S001198-anchorage,510 L St.,,Anchorage,907-258-9305,,907-271-5915,AK,Suite 750,99501,61.2171561,-149.9043364
S001198,02290,412665,S001198-fairbanks,101 12th Ave.,Federal Building,Fairbanks,907-451-7290,,907-456-0261,AK,Suite 328,99701,64.8383052,-147.7082477
S001198,02290,412665,S001198-juneau,800 Glacier Ave.,,Juneau,907-586-7201,,907-586-7277,AK,Suite 101,99801,58.30033239999999,-134.4205554
S001198,02290,412665,S001198-ketchikan,1900 First Ave.,,Ketchikan,907-225-0390,,907-225-6880,AK,Suite 225,99901,55.3492023,-131.6673863
S001198,02290,412665,S001198-soldotna,44539 Sterling Highway,,Soldotna,907-262-4224,,907-262-4040,AK,Suite 204,99669,60.480503,-151.0747996
S001198,02290,412665,S001198-wasilla,851 E. Westpoint Dr.,,Wasilla,907-357-9964,,907-357-9956,AK,Suite 309,99654,61.5826697,-149.4286826
S001199,,412722,S001199-hanover,118 Carlise Street,,Hanover,,,717-969-6132,PA,,17331,39.8018282,-76.9852327
S001199,,412722,S001199-lancaster,51 S. Duke St.,,Lancaster,717-393-0924,,717-393-0667,PA,Suite 201,17602,40.03689079999999,-76.3031804
S001199,,412722,S001199-red_lion,100 Redco Ave,,Red Lion,,,717-969-6133,PA,,17356-1436,39.90324,-76.59862
S001200,,412695,S001200-kissimmee,804 Bryan St.,,Kissimmee,,,407-452-1171,FL,,34741,28.2906297,-81.4123113
S001200,,412695,S001200-haines_city,620 E Main St.,,Haines City,,Wednesday 9AM-5PM,202-615-1308,FL,,33844,28.1083914,-81.628392
S001200,,412695,S001200-orlando,13800 Veterans Way,VA Medical Center,Orlando,,Tuesdays 9AM-3PM,202-322-4476,FL,s 1F806,32827-7401,28.36525,-81.2749461
S001200,,412695,S001200-lake_wales,201 W Central Avenue,,Lake Wales,202-615-1308,"Monday and Tuesday, 9AM-5PM",202-600-0843,FL,,33853,27.8999663,-81.596459
S001200,,412695,S001200-winter_haven,451 3rd Street NW,,Winter Haven,,Open Thursday and Friday 9AM-5PM,202-600-0843,FL,,33881,28.0263894,-81.732919
S001201,,412717,S001201-huntington,478A Park Avenue,,Huntington,,,631-923-4100,NY,,11743,40.873976,-73.41131899999999
S001201,,412717,S001201-little_neck,250-02 Northern Boulevard,,Little Neck,,"Mon, Tue, and Thurs 9:00AM - 5:30PM by appointment",718-631-0400,NY,,11362,40.7683191,-73.7394598
S001203,,412742,S001203-moorhead,819 Center Avenue,,Moorhead,,,218-284-8721,MN,2A,56560,46.8750559,-96.7677958
S001203,,412742,S001203-duluth,515 W 1st Street,,Duluth,,,218-722-2390,MN,104,55802,46.7825302,-92.1069752
S001203,,412742,S001203-saint_paul,60 Plato Blvd. East,,Saint Paul,,,651-221-1016,MN,220,55107,44.93741180000001,-93.0843115
S001203,,412742,S001203-rochester,1202-1/2 7th Street NW,,Rochester,,,507-288-2003,MN,213,55901,44.0524692,-92.47637809999999
S001204,,412770,S001204-hagatna,330 Hernan Cortez Ave,,Hagatna,,,,GU,Fl 3,96910-5081,13.4763888,144.7455451
S001206,,412768,S001206-miami,4960 SW 72nd Ave,,Miami,,,305-668-2285,FL,Suite 208,33155-5544,25.72398,-80.31299
S001207,,412799,S001207-parsippany,8 Woodhollow Rd,,Parsippany,,,973-526-5668,NJ,Suite 203,07054-2828,40.86193,-74.41507
S001208,,412784,S001208-lansing,1100 W Saginaw St,,Lansing,,,517-993-0510,MI,3a,48915-2033,42.74097,-84.56793
S001209,,412833,S001209-glen_allen,4201 Dominion Blvd,,Glen Allen,,,804-401-4110,VA,Suite 110,23060-6743,37.6518,-77.58431
S001209,,412833,S001209-spotsylvania,9104 Courthouse Rd,,Spotsylvania,,,202-225-2815,VA,Suite 249,22553-1902,38.20557,-77.58501
S001210,,412765,S001210-lakeland,170 Fitzgerald Rd,,Lakeland,,,863-644-8215,FL,Suite 1,33813-2633,27.97002,-81.95722
S001211,,412753,S001211-phoenix,2944 N 44th St,,Phoenix,,,602-956-2463,AZ,Suite 150,85018-7257,33.48161,-111.98764
S001212,,412792,S001212-brainerd,501 Laurel St,Brainerd City Hall,Brainerd,,,218-355-0862,MN,,56401-3595,46.35587,-94.20074
S001212,,412792,S001212-cambridge,300 3rd Ave NE,Cambridge City Hall,Cambridge,,,,MN,,55008-1281,45.57578,-93.22133
S001212,,412792,S001212-chisholm,316 W Lake St,Chisholm City Hall,Chisholm,,,218-355-0726,MN,Suite 7,55719-3708,47.48942,-92.88417
S001212,,412792,S001212-hermantown,5094 Miller Trunk Hwy,,Hermantown,,,218-481-6396,MN,Suite 900,55811-1626,46.83671,-92.21649
S001213,,412836,S001213-janesville,20 S Main St,,Janesville,,"Monday-Friday, 8am-5pm",608-752-4050,WI,Suite 10,53545-3959,42.68247,-89.02214
S001213,,412836,S001213-racine,730 Wisconsin Ave,Racine County Courthouse,Racine,,,262-637-0510,WI,Suite 101,53403-1238,42.72521,-87.78431
S001213,,412836,S001213-somers,7511 12th Street,Somers Village/Town Hall,Somers,,,262-654-1901,WI,,53171,42.6381671,-87.9002263
S001214,,412766,S001214-punta_gorda,226 Taylor St,,Punta Gorda,941-575-9103,,941-575-9101,FL,Suite 230,33950-4457,26.93505,-82.05085
S001215,,412786,S001215-novi,43155 Main St,,Novi,,,202-227-7397,MI,2300B,48375-1777,42.47818,-83.47075
S001216,,412835,S001216-issaquah,1445 NW Mall St,,Issaquah,,,425-657-1001,WA,Suite 4,98027-7900,47.54425,-122.0602
S001217,,412838,S001217-tallahassee,111 N Adams St,,Tallahassee,,,850-942-8415,FL,"208,",32301-7736,30.44252,-84.2819
T000193,01151,400402,T000193-bolton,107 W. Madison St.,,Bolton,601-866-9036,,601-866-9003,MS,,39041,32.348821,-90.459947
T000193,01151,400402,T000193-greenville,910 Courthouse Ln.,,Greenville,662-334-1304,,662-335-9003,MS,,38701,33.4079337,-91.051782
T000193,01151,400402,T000193-greenwood,728 Main Street,,Greenwood,662-453-0118,,662-455-9003,MS,Suite A,38930,33.5146884,-90.1821178
T000193,01151,400402,T000193-jackson,3607 Medgar Evers Blvd.,,Jackson,601-982-5337,,601-946-9003,MS,,39213,32.339995,-90.214478
T000193,01151,400402,T000193-marks,263 E. Main St.,,Marks,,,662-326-9003,MS,,38646,34.2568675,-90.2711465
T000193,01151,400402,T000193-mound_bayou,106 Green Avenue,,Mound Bayou,662-741-9002,,662-741-9003,MS,Suite 106,38762,33.8783982,-90.7298777
T000238,01155,400404,T000238-amarillo,620 S. Taylor St.,,Amarillo,806-371-7044,,806-371-8844,TX,Suite 200,79101,35.2067762,-101.8362037
T000238,01155,400404,T000238-wichita_falls,2525 Kell Blvd.,,Wichita Falls,940-692-0539,8:30 to 5:30,940-692-1700,TX,Suite 406,76308,33.8845789,-98.527689
T000250,01534,400546,T000250-aberdeen,320 S. 1st St.,,Aberdeen,,,605-225-8823,SD,Suite 101,57401,45.4614099,-98.4898984
T000250,01534,400546,T000250-rapid_city,246 Founders Park Dr.,,Rapid City,,,605-348-7551,SD,Suite 102,57701,44.0872508,-103.239745
T000250,01534,400546,T000250-sioux_falls,5015 S. Bur Oak Place,,Sioux Falls,,,605-334-9596,SD,,57108,43.4995298,-96.76391439999999
T000460,01593,400403,T000460-napa,2721 Napa Valley Corporate Dr.,,Napa,707-251-9800,M-F 9-5:30pm,707-226-9898,CA,,94558,38.2491248,-122.2743897
T000460,01593,400403,T000460-santa_rosa,2300 County Center Dr.,,Santa Rosa,707-542-2745,Mon-Fri 9am-5:30pm,707-542-7182,CA,Suite A100,95403,38.4620056,-122.7253838
T000460,01593,400403,T000460-vallejo,420 Virginia St.,,Vallejo,707-645-1870,Mon-Fri 9am-5.30pm,707-645-1888,CA,Suite 1C,94590,38.1023237,-122.2557289
T000461,02085,400408,T000461-allentown,1150 S. Cedar Crest Blvd,,Allentown,202-228-2727,,610-434-1444,PA,Suite 101,18103,40.569891,-75.519529
T000461,02085,400408,T000461-erie,17 S. Park Row.,United States Federal Building,Erie,814-455-9925,,814-453-3010,PA,Suite B-120,16501,42.1289745,-80.08406889999999
T000461,02085,400408,T000461-harrisburg,228 Walnut St.,United States Federal Building,Harrisburg,717-782-4920,,717-782-3951,PA,Suite 1104,17101,40.261919,-76.882739
T000461,02085,400408,T000461-philadelphia,200 Chestnut Street,US Custom House,Philadelphia,215-241-1095,,215-241-1090,PA,Suite 600,19106,39.94829,-75.1441
T000461,02085,400408,T000461-pittsburgh,310 Grant St.,,Pittsburgh,412-803-3504,,412-803-3501,PA,Suite 1440,15219,40.4376735,-79.9996749
T000461,02085,400408,T000461-wilkes_barre,7 North Wilkes-Barre Boulevard,,Wilkes-Barre,570-820-6442,,570-820-4088,PA,Suite 406,18702,41.2419893,-75.8773626
T000461,02085,400408,T000461-johnstown,1397 Eisenhower Blvd,Richland Square III,Johnstown,814-266-5973,,814-266-5970,PA,Suite 302,15904,40.273143,-78.848055
T000463,01741,400411,T000463-dayton,120 W. 3rd St.,,Dayton,937-225-2752,,937-225-2843,OH,Suite 305,45402,39.7586771,-84.19453349999999
T000464,01829,412244,T000464-billings,2900 4th Ave. N,Judge Jameson Federal Building,Billings,406-252-7768,,406-252-0550,MT,Suite 201,59101,45.783552,-108.509375
T000464,01829,412244,T000464-bozeman,1 E. Main St.,Avant Courier Building,Bozeman,406-586-7647,,406-586-4450,MT,Suite 202,59715,45.6795093,-111.0370333
T000464,01829,412244,T000464-butte,125 W. Granite,Silver Bow Center,Butte,406-782-4717,,406-723-3277,MT,Suite 200,59701,46.01461,-112.538136
T000464,01829,412244,T000464-great_falls,119 1st Ave. N,,Great Falls,406-452-9586,,402-452-9585,MT,Suite 102,59401,47.5065688,-111.3040376
T000464,01829,412244,T000464-helena,208 N. Montana Ave.,Capital One Center,Helena,406-449-5462,,406-449-5401,MT,Suite 202,59601,46.5865426,-112.020799
T000464,01829,412244,T000464-kalispell,8 Third St. E,,Kalispell,406-257-3974,,406-257-3360,MT,,59901,48.1958316,-114.3128666
T000464,01829,412244,T000464-missoula,130 W. Front St.,,Missoula,406-728-2193,,406-728-3003,MT,,59802,46.8704714,-113.9961779
T000467,01952,412317,T000467-bellefonte,3555 Benner Pike.,,Bellefonte,814-353-0218,M-F 9:00AM-5:00PM,814-353-0215,PA,Suite 101,16823,40.8956202,-77.7877153
T000467,01952,412317,T000467-oil_city,217 Elm St,,Oil City,814-670-0868,,814-670-0432,PA,B,16301-1412,41.43636,-79.70781
T000468,01940,412318,T000468-las_vegas,495 South Main St.,,Las Vegas,702-220-9841,M-F 8:30-5:30pm,702-220-9823,NV,3rd Floor,89101,36.1673606,-115.1506179
T000469,01942,412319,T000469-albany,19 Dove St.,,Albany,518-427-5107,,518-465-0700,NY,Suite 302,12210,42.6553697,-73.7616111
T000469,01942,412319,T000469-amsterdam,61 Church St.,,Amsterdam,518-843-8874,,518-843-3400,NY,Room 309,12010,42.9387067,-74.1884752
T000469,01942,412319,T000469-schenectady,105 Jay St.,,Schenectady,518-374-7908,,518-374-4547,NY,Room 15,12305,42.8143015,-73.9398087
T000470,01997,412405,T000470-alamosa,609 Main St.,,Alamosa,719-587-5137,Monday-Friday 9:00AM-5:00PM,719-587-5105,CO,#105,81101,37.4685012,-105.8659434
T000470,01997,412405,T000470-durango,835 E. Second Ave.,,Durango,970-259-1563,"Monday-Tuesday, Thursday-Friday 8:30AM-5:00PM",970-259-1490,CO,Suite 230,81301,37.2725939,-107.8799634
T000470,01997,412405,T000470-grand_junction,225 N. 5th St.,,Grand Junction,970-241-3053,Monday-Friday 8:00AM-5:00PM,970-241-2499,CO,Suite 702,81501,39.0688046,-108.5648398
T000470,01997,412405,T000470-pueblo,503 N. Main St.,,Pueblo,719-542-1127,M-F 8:00AM-5:00PM,719-542-1073,CO,Suite 658,81003,38.27203069999999,-104.60937
T000472,02110,412520,T000472-riverside,3403 10th St.,,Riverside,951-222-0217,,951-222-0203,CA,Suite 610,92501,33.9787895,-117.3724531
T000474,02231,412617,T000474-ontario,3200 Inland Empire Blvd.,,Ontario,909-941-1362,,909-481-6474,CA,Suite 200B,91764,34.0707079,-117.5807122
T000474,02231,412617,T000474-rialto,141 S. Riverside Ave.,,Rialto,,"Every 2nd and 4th Wednesday, 9AM-12PM or by appointment",,CA,,92376,34.0993394,-117.3721013
T000476,02291,412668,T000476-charlotte,9300 Harris Corners Pkwy.,,Charlotte,704-509-9162,,704-509-9087,NC,Suite 170,28269,35.34589709999999,-80.8466732
T000476,02291,412668,T000476-greenville,1694 E. Arlington Blvd.,,Greenville,252-329-0290,By appointment only.,252-329-0371,NC,Suite B,27858,35.5709032,-77.3592441
T000476,02291,412668,T000476-hendersonville,1 Historic Courthouse Square,,Hendersonville,828-693-9724,By appointment only.,828-693-8750,NC,Suite 112,28792,35.314451,-82.460467
T000476,02291,412668,T000476-high_point,1840 Eastchester Dr.,,High Point,336-885-0692,,336-885-0685,NC,Suite 200,27265,36.008425,-79.98567299999999
T000476,02291,412668,T000476-raleigh,310 New Bern Ave.,,Raleigh,919-856-4053,,919-856-4630,NC,Suite 122,27601,35.7799621,-78.63388100000002
T000479,,412821,T000479-plano,5600 Tennyson Pkwy,,Plano,,,972-202-4150,TX,Suite 275,75024-3818,33.07129,-96.81871
T000480,,412815,T000480-greenville,104 S Main St,,Greenville,,,864-241-0175,SC,Suite 801,29601-2711,34.84962,-82.39957
T000480,,412815,T000480-spartanburg,101 W Saint John St,,Spartanburg,,,864-583-3264,SC,Suite 303,29306-5179,34.95094,-81.93319
T000481,,412787,T000481-river_rouge,10600 W Jefferson Ave,,River Rouge,,,313-203-7540,MI,,48218-1296,42.27338,-83.13439
T000482,,412781,T000482-lawrence,15 Union St,,Lawrence,,,,MA,4th Floor,01840-1866,42.70637,-71.15331
T000482,,412781,T000482-lowell,126 John St,,Lowell,,,978-459-0101,MA,Suite 12,01852-1152,42.64756,-71.30745
T000483,,412783,T000483-gaithersburg,9801 Washingtonian Blvd,One Washingtonian Center,Gaithersburg,,,301-926-0300,MD,Suite 330,20878-5355,39.11684,-77.20114
U000031,01177,400414,U000031-kalamazoo,350 E. Michigan Ave.,,Kalamazoo,269-385-2888,,269-385-0039,MI,Suite 130,49007,42.2926475,-85.57910969999999
U000031,01177,400414,U000031-st__joseph,720 Main St.,,St. Joseph,269-982-0237,,269-982-1986,MI,,49085,42.105351,-86.48403499999999
U000039,01567,400413,U000039-albuquerque,400 Gold Ave.,,Albuquerque,,,505-346-6791,NM,Suite 300,87102,35.0833514,-106.6521937
U000039,01567,400413,U000039-carlsbad,102 W. Hagerman St.,,Carlsbad,,,575-234-0366,NM,Suite A,88220,32.425358,-104.226611
U000039,01567,400413,U000039-las_cruces,201 N. Church St.,,Las Cruces,,,575-526-5475,NM,Suite 201B,88001,32.3109784,-106.7786459
U000039,01567,400413,U000039-portales,100 South Avenue A,,Portales,,,575-356-6811,NM,Suite 113,88130,34.1859741,-103.3381861
U000039,01567,400413,U000039-santa_fe,120 S. Federal Pl.,,Santa Fe,,,505-988-6511,NM,Suite 302,87501,35.6913389,-105.938628
U000040,,412776,U000040-west_chicago,490 East Roosevelt Road,,West Chicago,,,630-549-2190,IL,Suite 202,60185,41.8620585,-88.2002888
V000081,01184,400416,V000081-brooklyn,266 Broadway,,Brooklyn,,,718-599-3658,NY,Suite 201,11211,40.7085893,-73.9592284
V000081,01184,400416,V000081-new_york,500 Pearl St.,,New York,,,212-619-2606,NY,Suite 973,10007,40.7137324,-74.00080179999999
V000108,01188,400417,V000108-merrillville,7895 Broadway,,Merrillville,219-795-1850,,219-795-1844,IN,Suite A,46410,41.4752503,-87.3354152
V000130,02112,412522,V000130-chula_vista,333 F St.,,Chula Vista,619-422-7290,"9:00am-5:00pm (PT), Weekdays",619-422-5963,CA,Suite A,91910,32.6410939,-117.0811877
V000130,02112,412522,V000130-el_centro,380 N. 8th St.,,El Centro,760-312-9664,"9:00am-5:00pm (PT), Weekdays",760-312-9900,CA,Suite 14,92243,32.7956143,-115.5618357
V000131,02166,412579,V000131-dallas,1881 Sylvan Ave.,JP Morgan Chase Building,Dallas,214-741-2026,"Monday-Friday, 8:30am-5:30pm",214-741-1387,TX,Suite 108,75208,32.7687234,-96.8364642
V000131,02166,412579,V000131-fort_worth,6707 Brentwood Stair Rd.,,Fort Worth,817-920-9324,M-F 8:30AM-5:30PM,817-920-9086,TX,Suite 200,76112,32.7547849,-97.21394939999999
V000132,02167,412580,V000132-alice,500 E. Main,,Alice,,,361-230-9776,TX,,78332,27.7499027,-98.0720001
V000132,02167,412580,V000132-brownsville,800 N Expressway,,Brownsville,,,956-544-8352,TX,Suite 9,78521-1482,25.93642,-97.49335
V000132,02167,412580,V000132-san_benito,1390 W. Expressway 83,,San Benito,956-276-4603,,956-276-4497,TX,,78586,26.1404901,-97.65383639999999
V000132,02167,412580,V000132-weslaco,301 W. Railroad,,Weslaco,956-520-8277,,956-520-8273,TX,,78596,26.1602727,-97.9944049
V000133,,412796,V000133-mays_landing,5914 Main St,,Mays Landing,,,609-625-5008,NJ,Suite 103,08330-1751,39.45148,-74.7267
W000187,01205,400422,W000187-los_angeles,10124 South Broadway,,Los Angeles,323-757-9506,,323-757-8900,CA,Suite 1,90003,33.94388,-118.2777646
W000437,01226,400432,W000437-gulfport,2909 13th St.,,Gulfport,228-871-7196,,228-871-7017,MS,"3rd Floor, Suite 303",39501,30.3665745,-89.0969882
W000437,01226,400432,W000437-hernando,321 Losher St.,,Hernando,662-429-6002,,662-429-1002,MS,,38632,34.822334,-89.994967
W000437,01226,400432,W000437-jackson,501 E. Court St.,U.S. Federal Courthouse,Jackson,601-965-4007,,601-965-4644,MS,Suite 3-500,39201,32.294793,-90.1837769
W000437,01226,400432,W000437-tupelo,330 W. Jefferson St.,,Tupelo,662-844-5030,,662-844-5010,MS,Suite B,38804,34.2594314,-88.70673479999999
W000779,01247,300100,W000779-bend,131 NW. Hawthorne Ave.,The Jamison Building,Bend,,,541-330-9142,OR,Suite 107,97701,44.0577537,-121.3095974
W000779,01247,300100,W000779-eugene,405 E. 8th Ave.,,Eugene,,,541-431-0229,OR,Suite 2020,97401,44.0516985,-123.0857882
W000779,01247,300100,W000779-la_grande,105 Fir St.,SAC Annex Building,La Grande,,,541-962-7691,OR,Suite 201,97850,45.326715,-118.0926554
W000779,01247,300100,W000779-medford,310 W. 6th St.,Federal Courthouse,Medford,,,541-858-5122,OR,Room 118,97501,42.3253466,-122.8769125
W000779,01247,300100,W000779-portland,911 NE 11th Ave.,,Portland,,,503-326-7525,OR,Suite 630,97232,45.5293348,-122.6555902
W000779,01247,300100,W000779-salem,707 13th St. SE,,Salem,,,503-589-4555,OR,Suite 285,97301,44.9304368,-123.0290967
W000791,01596,400419,W000791-bend,1051 NW. Bond St.,,Bend,541-389-4452,,541-389-4408,OR,Suite 400,97701,44.0598422,-121.3117677
W000791,01596,400419,W000791-la_grande,1211 Washington Ave.,,La Grande,,,541-624-2400,OR,,97850,45.3276926,-118.0948731
W000791,01596,400419,W000791-medford,14 N. Central Ave.,,Medford,541-779-0204,,541-776-4646,OR,Suite 112,97501,42.3270103,-122.8722747
W000795,01688,400433,W000795-aiken,1930 University Pky.,,Aiken,803-642-6418,,803-642-6416,SC,Suite 1600,29801,33.5823882,-81.72758859999999
W000795,01688,400433,W000795-west_columbia,1700 Sunset Blvd. (US 378),,West Columbia,803-939-0078,,803-939-0041,SC,Suite 1,29169,33.9993356,-81.0889668
W000797,01777,400623,W000797-aventura,19200 West Country Club Drive,,Aventura,305-932-9664,,305-936-5724,FL,,33180,25.9528671,-80.1390699
W000797,01777,400623,W000797-sunrise,777 Sawgrass Corporate Parkway,,Sunrise,954-845-0396,,954-845-1179,FL,,33325,26.130384,-80.333636
W000798,01855,412213,W000798-jackson,401 W. Michigan Ave.,,Jackson,517-780-9081,"Monday, Tuesday, Thursday, Friday 9:00AM-5:00PM Wednesday 9:00AM-6:00PM",517-780-9075,MI,,49201,42.247186,-84.414954
W000800,01879,412239,W000800-burlington,128 Lakeside Ave.,,Burlington,888-605-7270,,802-652-2450,VT,Suite 235,05401,44.4626812,-73.21776830000002
W000802,01823,412247,W000802-providence,170 Westminster St.,,Providence,401-453-5085,,401-453-5294,RI,Suite 200,02903,41.8235873,-71.4113021
W000804,01886,412255,W000804-mechanicsville,6501 Mechanicsville Tpke,,Mechanicsville,804-730-6597,,804-730-6595,VA,Suite 102,23111,37.6130093,-77.3335134
W000804,01886,412255,W000804-stafford,95 Dunn Dr.,,Stafford,540-659-2737,,540-659-2734,VA,Suite 201,22556,38.4781455,-77.4211435
W000804,01886,412255,W000804-tappahannock,508 Church Lane,,Tappahannock,804-443-0671,,804-443-0668,VA,,22560,37.9307412,-76.8625874
W000805,01897,412321,W000805-abingdon,180 W. Main St.,,Abingdon,,,276-628-8158,VA,Room 235,24210,36.7095562,-81.9767798
W000805,01897,412321,W000805-norfolk,101 W. Main St.,,Norfolk,,,757-441-3079,VA,Suite 7771,23510,36.8461399,-76.293138
W000805,01897,412321,W000805-richmond,919 E. Main St.,,Richmond,,,804-775-2314,VA,Suite 630,23219,37.5374358,-77.4362913
W000805,01897,412321,W000805-roanoke,110 Kirk Ave. SW,,Roanoke,,,540-857-2676,VA,,24011,37.270958,-79.942561
W000805,01897,412321,W000805-vienna,8000 Towers Crescent Dr.,,Vienna,,,703-442-0670,VA,Suite 200,22182,38.9145473,-77.2196271
W000806,02002,412410,W000806-brooksville,15 N. Main Street,,Brooksville,352-241-9181,Tuesday and Thursday,352-241-9230,FL,Suite B,34601,28.5552249,-82.38811919999999
W000806,02002,412410,W000806-inverness,212 W. Main St.,,Inverness,352-241-9181,Mondays 9:00AM - 5:00PM,352-241-9204,FL,Suite 208A,34450,28.8363417,-82.3321296
W000806,02002,412410,W000806-leesburg,318 S 2nd St # A,,Leesburg,352-241-9220,8:30AM - 5:00PM,352-241-9220,FL,,34748-5805,28.80855,-81.87609
W000806,02002,412410,W000806-the_villages,8015 E County Rd 466,,The Villages,352-241-9181,"Monday & Wednesday, Friday by appointment only",352-383-3552,FL,Suite B,32162,28.9188822,-81.970805
W000808,02004,412412,W000808-hollywood,2600 Hollywood Blvd,Old Library,Hollywood,,2nd & 4th Thursdays  9am– 5pm,954-921-3682,FL,1st Floor,33020-4807,26.01104,-80.16059
W000808,02004,412412,W000808-miami_gardens,18425 NW 2nd Avenue,,Miami Gardens,305-690-5951,M-F 9-5:30pm,305-690-5905,FL,Suite 355,33169,25.9436377,-80.20465759999999
W000808,02004,412412,W000808-west_park,1965 South State Road 7,West Park City Hall,West Park,,Thursday 9-5pm,954-989-2688,FL,,33023,25.993095,-80.2038997
W000809,01991,412402,W000809-fort_smith,6101 Phoenix Ave,,Fort Smith,479-424-2737,8:00 AM - 5:00 PM Central,479-424-1146,AR,Suite 4,72903-5083,35.34916,-94.3664
W000809,01991,412402,W000809-harrison,303 N. Main St.,,Harrison,870-741-7741,8:00 AM - 5:00 PM Central,870-741-6900,AR,Suite 102,72601,36.2326224,-93.1068643
W000809,01991,412402,W000809-rogers,3333 Pinnacle Hls.,,Rogers,479-464-0063,8:00 AM - 5:00 PM,479-464-0446,AR,Suite 120,72758,36.3046472,-94.18675220000002
W000810,02008,412416,W000810-lawrenceville,,,Lawrenceville,770-232-2909,,770-232-3005,GA,,30046-6935,,
W000812,02137,412548,W000812-ballwin,301 Sovereign Ct.,,Ballwin,636-779-5449,Mon-Fri 9am-5pm,636-779-5449,MO,Suite 201,63011,38.5980031,-90.4902674
W000813,02128,412538,W000813-mishawaka,202 Lincolnway East,,Mishawaka,574-217-8735,"Monday through Friday, 8 a.m. to 5 p.m. ET",574-204-2645,IN,Suite #101,46544,41.6614853,-86.1788818
W000813,02128,412538,W000813-rochester,709 Main St.,,Rochester,574-217-8735,,574-223-4373,IN,,46975,41.06708709999999,-86.21585259999999
W000814,02161,412574,W000814-beaumont,505 Orleans St.,,Beaumont,409-835-0578,,409-835-0108,TX,Suite 103,77701,30.0825032,-94.098555
W000814,02161,412574,W000814-lake_jackson,122 West Way,,Lake Jackson,979-285-0271,,979-285-0231,TX,Suite 301,77566,29.0445713,-95.4537198
W000814,02161,412574,W000814-league_city,174 Calder Rd.,,League City,281-316-0271,,281-316-0231,TX,Suite 150,77573,29.5035441,-95.1045214
W000815,02152,412564,W000815-cincinnati,4350 Aicholtz Rd.,,Cincinnati,,,,OH,,45245,39.0911309,-84.2738952
W000815,02152,412564,W000815-cincinnati-1,7954 Beechmont Ave.,,Cincinnati,513-605-1377,,513-474-7777,OH,Suite 200,45255,39.0731109,-84.3352704
W000815,02152,412564,W000815-peebles,170 N. Main St.,,Peebles,937-798-4024,,513-605-1380,OH,,45660,38.9507705,-83.404366
W000816,02165,412578,W000816-austin,1005 Congress Ave.,,Austin,202-225-9692,M-F 9:00 AM - 5:30 PM,512-473-8910,TX,Suite 925,78701,30.2720399,-97.7409012
W000816,02165,412578,W000816-cleburne,115 S. Main St.,,Cleburne,202-225-9692,,817-774-2575,TX,Suite 206,76033,32.3462862,-97.3858312
W000817,02182,412542,W000817-boston,15 Sudbury St.,2400 JFK Federal Building,Boston,,,617-565-3170,MA,,02203,42.3613091,-71.0593927
W000817,02182,412542,W000817-springfield,1550 Main St.,,Springfield,,,413-788-2690,MA,Suite 406,01103,42.10321649999999,-72.5929441
W000819,02255,412670,W000819-asheboro,222 Sunset Ave.,,Asheboro,336-629-7819,M-F 9:00am-5:00pm,336-626-3060,NC,Suite 101,27203,35.7063317,-79.8183839
W000819,02255,412670,W000819-graham,219 B West Elm Street,,Graham,336-350-9514,M-F 9:00am-5:00pm,336-229-0159,NC,,27253,36.069812,-79.403882
W000819,02255,412670,W000819-greensboro,809 Green Valley Rd.,,Greensboro,,M-F 9:00am-5:00pm,336-333-5005,NC,Suite 104,27408,36.092294,-79.81627999999999
W000821,02224,412610,W000821-el_dorado,101 N. Washington Ave.,,El Dorado,870-864-8958,,870-864-8946,AR,Suite 406,71730,33.2122274,-92.6633531
W000821,02224,412610,W000821-hot_springs,101 Reserve St.,,Hot Springs,501-609-9887,,501-609-9796,AR,Suite 200,71901,34.5131753,-93.05133239999999
W000821,02224,412610,W000821-ozark,211 W. Commercial St.,,Ozark,501-609-9887,,479-667-0075,AR,,72949,35.4864789,-93.8267906
W000821,02224,412610,W000821-pine_bluff,100 E. 8th Ave.,,Pine Bluff,870-536-8364,,870-536-8178,AR,Room 2521,71601,34.2211366,-92.0026041
W000822,02259,412644,W000822-ewing,850 Bear Tavern Rd.,,Ewing,609-883-2093,,609-883-0026,NJ,Suite 201,08628,40.2793143,-74.8302945
W000823,,412764,W000823-deland,120 S Florida Ave,,Deland,386-279-0874,,386-279-0707,FL,Suite 324,32720-5422,29.02759,-81.30621
W000823,,412764,W000823-palm_coast,31 Lupi Ct,,Palm Coast,386-283-5164,,386-302-0442,FL,Suite 130,32137-4761,29.55515,-81.23422
W000823,,412764,W000823-port_orange,1000 City Center Cir,Port Orange City Hall,Port Orange,386-238-9714,,386-238-9711,FL,2nd Floor,32129-4144,29.1264,-81.02174
W000824,,412779,W000824-pittsburg,1001 N Broadway St,,Pittsburg,,,620-231-5966,KS,C,66762-3956,37.39837,-94.70482
W000824,,412779,W000824-topeka,3550 SW 5th St,,Topeka,,,785-234-5966,KS,,66606-1910,39.0609,-95.72089
W000825,,412834,W000825-sterling,21351 Gentry Dr,,Sterling,,,703-234-3800,VA,Suite 140,20166-8501,39.02961,-77.40825
Y000033,01256,400440,Y000033-anchorage,471 W. 36th Avenue,,Anchorage,907-271-5950,,907-271-5978,AK,Suite 201,99503,61.1884605,-149.8942221
Y000033,01256,400440,Y000033-fairbanks,100 Cushman St.,Key Bank Building,Fairbanks,907-456-0279,,907-456-0210,AK,Suite 307,99707,64.84351649999999,-147.7220032
Y000062,01853,412211,Y000062-louisville,600 Martin Luther King Jr Pl.,Romano Mazzoli Federal Building,Louisville,502-582-5897,,502-582-5129,KY,Suite 216,40202,38.2486082,-85.7622452
Y000062,01853,412211,Y000062-louisville-1,7219 Dixie Highway,Southwest Government Center,Louisville,502-933-5863,,502-935-6934,KY,,40258,38.1458873,-85.8399034
Y000065,02115,412525,Y000065-gainesville,5000 NW 27th Court,,Gainesville,352-505-3511,,352-505-0838,FL,Suite E,32606,29.678553,-82.39626
Y000065,02115,412525,Y000065-orange_park,35 Knight Boxx Rd.,,Orange Park,904-276-9336,,904-276-9626,FL,Suite 1,32065,30.1208794,-81.7974322
Y000065,02115,412525,Y000065-palatka,2509 Crill Ave.,,Palatka,,Open Tuesday and Thursday,386-326-7221,FL,Suite 200,32177,29.6401223,-81.6588895
Y000065,02115,412525,Y000065-ocala,115 SE 25th Ave,,Ocala,,"Open Monday, Wednesday, and Friday",352-390-6413,FL,,34471,29.1849757,-82.1028405
Z000017,02261,412646,Z000017-riverhead,30 W. Main St.,,Riverhead,,"Tues, Wed, Thurs, 10am - 2pm. By appointment only.",631-209-4235,NY,Suite 201,11901,40.9172285,-72.6627645
Z000017,02261,412646,Z000017-patchogue,31 Oak St.,,Patchogue,631-289-1268,,631-289-1097,NY,Suite 20,11772,40.7671697,-73.0138358
H001075,,412678,H001075-sacramento,501 I Street,,Sacramento,202-228-3865,"Monday - Friday, 8:30am - 5:30pm",916-448-2787,CA,Suite 7-600,95814,38.583455,-121.4987519
H001075,,412678,H001075-fresno,2500 Tulare Street,,Fresno,202-228-3864,,559-497-5109,CA,Suite 5290,93721,36.7374775,-119.7836709
H001075,,412678,H001075-los_angeles,11845 W Olympic Blvd,,Los Angeles,202-224-0357,,310-231-4494,CA,1250W,90064-1149,34.03309,-118.45041
H001075,,412678,H001075-san_francisco,333 Bush St,,San Francisco,202-224-0454,,415-981-9369,CA,Suite 3225,94104-2806,37.79078,-122.40308
H001075,,412678,H001075-san_diego,600 B Street,,San Diego,202-228-3863,,619-239-3884,CA,Suite 2240,92101,32.7182014,-117.1587103
Y000064,02019,412428,Y000064-indianapolis,251 N. Illinois St.,,Indianapolis,,,317-226-6700,IN,Suite 120,46204,39.770723,-86.15702999999999
Y000064,02019,412428,Y000064-new_albany,3602 Northgate Ct,,New Albany,,8:30am - 4:30pm,812-542-4820,IN,Suite 15,47150,38.3332536,-85.8184877
Y000064,02019,412428,Y000064-evansville,101 Martin Luther King Jr. Blvd,,Evansville,,By appointment only,,IN,Suite 110,47708,37.975188,-87.567486
Y000064,02019,412428,Y000064-fort_wayne,1300 South Harrison Street,,Fort Wayne,,By appointment only,,IN,Suite 3161,46802,41.0737372,-85.14045349999999
D000622,02123,412533,D000622-belleville,23 Public Sq,,Belleville,618-235-4011,,618-722-7070,IL,Suite 460,62220-1650,38.5135,-89.98093
D000622,02123,412533,D000622-carbondale,441 E Willow St,,Carbondale,618-351-1551,,618-677-7000,IL,,62901-1659,37.73428,-89.21251
D000622,02123,412533,D000622-chicago,230 South Dearborn Street,,Chicago,,,312-886-3506,IL,Suite 3900,60604,41.8784454,-87.63
D000622,02123,412533,D000622-rock_island,1823 2nd Ave,,Rock Island,309-786-1799,,309-606-7060,IL,Suite 2,61201-8002,41.51114,-90.57433
D000622,02123,412533,D000622-springfield,8 South Old State Capitol Plaza,,Springfield,,,217-528-6124,IL,,62701,39.800468,-89.6509028
H001076,,412680,H001076-berlin,168 Main Street,Berlin City Hall,Berlin,,,603-752-6190,NH,Lower Level,03570,44.469939,-71.1821158
H001076,,412680,H001076-manchester,1589 Elm Street,,Manchester,,,603-622-2204,NH,Third Floor,03101,43.0009812,-71.4662599
H001076,,412680,H001076-nashua,142 Main Street,,Nashua,,,603-880-3314,NH,Suite 520,03060,42.7617932,-71.4674553
H001076,,412680,H001076-portsmouth,14 Manchester Square,,Portsmouth,,,603-433-4445,NH,Suite 140,03801,43.0856076,-70.8098029
H001076,,412680,H001076-concord,53 Pleasant Street,James C. Cleveland Federal Building,Concord,,By appointment only,603-622-2204,NH,,03301,43.2024699,-71.5416652
C001113,,412681,C001113-las_vegas,333 Las Vegas Boulevard South,,Las Vegas,702-388-5030,Monday-Friday; 8:00am – 5:00pm PT,702-388-5020,NV,Suite 8016,89101,36.1651058,-115.1424211
C001113,,412681,C001113-reno,400 South Virginia Street,Courthouse and Federal Building,Reno,775-686-5757,Monday-Friday; 8:00am-5:00pm PT,775-686-5750,NV,Suite 902,89501,39.5215352,-119.810287
B001301,,412709,B001301-traverse_city,1396 Douglas Drive,,Traverse City,,,231-944-7633,MI,Suite 22B,49696,44.7066718,-85.5961732
B001301,,412709,B001301-marquette,1500 W. Washington St.,,Marquette,,,906-273-2227,MI,Suite 2,49855,46.54703800000001,-87.4227729
E000297,,412718,E000297-bronx,2530 Grand Concourse Avenue,,Bronx,,,718-450-8241,NY,Ground Floor,10458,40.863512,-73.895791
E000297,,412718,E000297-new_york,163 West 125th Street,Harlem State Office Building,New York,,,212-663-3900,NY,#507,10027,40.8092343,-73.9474317
C001111,,412697,C001111-seminole,9200 113th St,,Seminole,,,727-318-6770,FL,Suite 310,33772-2800,27.85592,-82.7954
C001111,,412697,C001111-st__petersburg,696 1st Ave N,,St. Petersburg,727-623-0619,,727-318-6770,FL,Suite 203,33701,27.772067,-82.64355
C001111,,412697,C001111-st__petersburg-1,1300 22nd St S,,St. Petersburg,,,727-318-6770,FL,Suite 316,33712-2744,27.7569,-82.66288
H001077,,412705,H001077-lafayette,600 Jefferson Street,Chase Building,Lafayette,,,337-703-6105,LA,Suite 808,70501,30.22335,-92.01907
H001077,,412705,H001077-lake_charles,1 Lakeshore Drive,Capital One Building,Lake Charles,,,337-656-2833,LA,Suite 1670,70629,30.2305579,-93.2196295
V000128,01729,400415,V000128-rockville,111 Rockville Pike,,Rockville,301-545-1512,,301-545-1500,MD,Suite 960,20850,39.08895,-77.15119
V000128,01729,400415,V000128-hagerstown,32 West Washington Street,,Hagerstown,,,301-797-2826,MD,Suite 203,21740,39.64151,-77.7191
V000128,01729,400415,V000128-baltimore,1900 North Howard Street,,Baltimore,,,667-212-4610,MD,Suite 100,21218,39.3114748,-76.6216137
V000128,01729,400415,V000128-annapolis,60 West Street,,Annapolis,,,410-263-1325,MD,Suite 107,21401,38.9785971,-76.4976378
V000128,01729,400415,V000128-cambridge,204 Cedar Street,,Cambridge,,,410-221-2074,MD,Suite 200C,21613,38.5650251,-76.0752663
V000128,01729,400415,V000128-largo,1101 Mercantile Ln,,Largo,,,301-322-6560,MD,Suite 210,20774-5360,38.90526,-76.83685
K000393,,412679,K000393-alexandria,6501 Coliseum Blvd,,Alexandria,,By appointment only,318-445-2892,LA,Suite 700A,71303,31.2934776,-92.51565289999999
K000393,,412679,K000393-baton_rouge,7932 Wrenwood Blvd,,Baton Rouge,,By appointment only,225-926-8033,LA,Suite A & B,70809,30.4233173,-91.1027159
K000393,,412679,K000393-houma,8026 Main St,Government Towers,Houma,,By appointment only,985-851-0956,LA,Suite 700,70360,29.5979835,-90.7180594
K000393,,412679,K000393-lafayette,101 La Rue France,,Lafayette,,By appointment only,337-269-5980,LA,Suite 503,70508,30.1948666,-92.014654
K000393,,412679,K000393-lake_charles,1 Lakeshore Dr.,,Lake Charles,,By appointment only,337-436-6255,LA,Suite 530,70629,32.5175209,-91.102734
K000393,,412679,K000393-mandeville,21490 Koop Dr.,Building A,Mandeville,,By appointment only,985-809-8153,LA,,70471,30.4182357,-90.0470795
K000393,,412679,K000393-monroe,1651 Louisville Ave.,,Monroe,,By appointment only,318-361-1489,LA,Suite 148,71201,32.5175209,-92.1087384
K000393,,412679,K000393-new_orleans,500 Poydras St.,,New Orleans,,By appointment only,504-581-6190,LA,Suite 364,70113,29.9484696,-90.0711728
K000393,,412679,K000393-shreveport,401 Market St.,,Shreveport,,By appointment only,318-670-5192,LA,Suite 1050,71101,32.515033,-93.7502759
C001110,,412688,C001110-santa_ana,2323 N. Broadway,Rancho Santiago Community College Building,Santa Ana,,,714-621-0102,CA,Suite 319,92706,33.7673604,-117.8703812
E000298,,412735,E000298-wichita,7701 E Kellogg Ave,,Wichita,316-262-5309,,316-262-8992,KS,Suite 510,67207,37.6780708,-97.24667099999999
G000584,,412736,G000584-billings,222 North 32nd Street,,Billings,,,406-969-1736,MT,Suite 900,59101,45.7810511,-108.5125313
G000584,,412736,G000584-helena,7 West 6th Ave,,Helena,,,406-502-1435,MT,Suite 3B,59601,46.5888187,-112.043355
G000584,,412736,G000584-great_falls,710 Central Ave,,Great Falls,,,406-952-1280,MT,,59401,47.5050157,-111.2947656
G000585,,412739,G000585-los_angeles,350 S. Bixel St.,,Los Angeles,213-481-1425,,213-481-1427,CA,#120,90017,34.0569399,-118.2618953
N000190,,412738,N000190-rock_hill,454 South Anderson Rd.,,Rock Hill,803-327-4330,,803-327-1114,SC,Suite 302 B,29730,34.9343895,-80.9997773
N000190,,412738,N000190-gaffney,110 Railroad Ave.,Cherokee Admin. Building,Gaffney,,9am-4:30pm every Thursday,,SC,,29340,35.076577,-81.642889
C001114,,412740,C001114-provo,51 South University Avenue,,Provo,,,801-851-2500,UT,Suite 318,84601,40.232986,-111.6578512
J000300,,412741,J000300-birmingham,1800 5th Avenue North,Robert S. Vance Federal Building,Birmingham,205-731-0221,,205-731-1500,AL,,35203,33.517386,-86.810488
J000300,,412741,J000300-montgomery,1 Church St,Federal Courthouse,Montgomery,334-293-9349,,334-230-0698,AL,500-B,36104,32.3740843,-86.3100212
J000300,,412741,J000300-mobile,41 West I-65 Service Road North,BB&T Centre,Mobile,251-414-5845,,251-414-3083,AL,Suite 2300-A,36608,30.6907305,-88.12678480000001
J000300,,412741,J000300-dothan,100 W Troy St,,Dothan,334-792-4928,,334-792-4924,AL,Suite 302,36303-4574,31.22539,-85.3926
J000300,,412741,J000300-huntsville,200 Clinton Ave W,,Huntsville,256-533-0745,,256-533-0979,AL,,35801-4918,34.73078,-86.58764
H001079,,412743,H001079-jackson,190 East Capitol St.,,Jackson,601-965-4919,,601-965-4459,MS,#550,39201,32.3004269,-90.1867448
H001079,,412743,H001079-oxford,911 Jackson Ave.,,Oxford,662-236-7618,,662-236-1018,MS,#249,38655,34.3672392,-89.5212463
H001079,,412743,H001079-gulfport,2012 15th Street,,Gulfport,228-867-9789,,228-867-9710,MS,#451,39501,30.3701149,-89.0870838
L000588,,412744,L000588-monaca,3468 Brodhead Rd,,Monaca,,,724-206-4860,PA,,15061-3149,40.65095,-80.3124
L000588,,412744,L000588-pittsburgh,504 Washington Rd,,Pittsburgh,,,412-344-5583,PA,,15228-2817,40.38423,-80.04388
L000589,,412745,L000589-glendale,7121 W Bell Rd,,Glendale,623-776-7832,,623-776-7911,AZ,#200,85308,33.6373437,-112.2108779
C001115,,412746,C001115-corpus_christi,101 N. Shoreline Blvd.,,Corpus Christi,,,361-884-2222,TX,Suite 300,78401,27.7917948,-97.3931982
C001115,,412746,C001115-victoria,5606 N. Navarro St.,,Victoria,,,361-894-6446,TX,Suite 203,77904,28.8476874,-96.9978986
B001306,,412747,B001306-worthington,250 E. Wilson Bridge Rd.,,Worthington,,,614-523-2555,OH,Suite 100,43085,40.1107173,-83.00746439999999
H001082,,412748,H001082-tulsa,2448 E. 81st St.,,Tulsa,,,918-935-3222,OK,Suite 5150,74137,36.0445807,-95.95355529999999
M001206,,412749,M001206-rochester,100 State St.,Federal Building,Rochester,585-232-1954,,585-232-4850,NY,Room 3120,14614,43.1576631,-77.613515
S001205,,412750,S001205-east_lansdowne,927 E Baltimore Ave,,East Lansdowne,,,610-626-1913,PA,,19050-2749,39.94101,-75.25719
W000826,,412751,W000826-allentown,840 Hamilton St,,Allentown,,,484-781-6000,PA,Suite 303,18101-2455,40.60131,-75.47465
W000826,,412751,W000826-easton,400 Northampton St,,Easton,,,610-333-1170,PA,Suite 503,18042-3543,40.69081,-75.21124
M001208,,412769,M001208-atlanta,5775 Glenridge Dr.,"Building B, Suite 380",Atlanta,,,470-773-6330,GA,,30328-5380,33.91263,-84.35953
A000376,,412828,A000376-richardson,100 North Central Expressway,,Richardson,888-671-0539,,972-972-7949,TX,Suite 602,75080-5332,32.95034,-96.73449
H001089,,412840,H001089-cape_girardeau,555 Independence Street,,Cape Girardeau,573-334-5947,,573-334-5995,MO,#1600,63703-6235,37.3039,-89.52491
H001089,,412840,H001089-columbia,1123 Wilkes Blvd,,Columbia,,,202-860-5207,MO,Suite 220,65201-4774,38.96012,-92.32279
H001089,,412840,H001089-kansas_city,4141 Pennsylvania Ave,,Kansas City,816-960-4815,,816-960-4694,MO,Suite 101,64111-3051,39.05193,-94.5903
H001089,,412840,H001089-springfield,324 Park Central West,,Springfield,417-869-4411,,417-869-4433,MO,Suite 101,65806-1245,37.2088,-93.29409
H001089,,412840,H001089-st__louis,111 South 10th Street,,St. Louis,314-436-8534,,314-354-7060,MO,Suite 23.366,63102-1125,38.62588,-90.196
W000827,,412823,W000827-arlington,5840 West Ronald Reagan Memorial Highway,,Arlington,,,817-775-0370,TX,Suite 115,76017-1098,32.67343,-97.19691
T000484,,412801,T000484-belen,719 S. Main St.,,Belen,,By Appointment Only,575-323-6384,NM,Room 1,87002-3309,34.65434,-106.77972
T000484,,412801,T000484-carlsbad,101 N. Halagueno,,Carlsbad,,By Appointment Only,,NM,,88220-4943,32.42093,-104.23066
T000484,,412801,T000484-las_cruces,240 S. Water Street,,Las Cruces,,,575-323-6384,NM,,88001-1230,32.30857,-106.77931
T000484,,412801,T000484-roswell,1717 W 2nd Street,,Roswell,,,575-578-6120,NM,Suite 215,88201-2000,33.39445,-104.5491
K000395,,412843,K000395-selinsgrove,713 Bridge Street,,Selinsgrove,,,570-374-9469,PA,Room 29,17870,,
K000395,,412843,K000395-tunkhannock,181 West Tioga Street,,Tunkhannock,,,570-996-6550,PA,Suite 2,18658,,
K000395,,412843,K000395-williamsport,1020 Commerce Park Drive,,Williamsport,,,570-322-3961,PA,Suite 1A,17701,,
B001311,,412844,B001311-monroe,300 N Main Street,,Monroe,844-273-1255,,740-218-5300,NC,,28112,,
M001210,,412845,M001210-greenville,1105 Corporate Drive,,Greenville,,,252-931-1003,NC,Suite C,27858,,
M001210,,412845,M001210-jacksonville,234 Northwest Corridor Blvd.,,Jacksonville,,,910-937-6929,NC,,28540,,
